id,name,postal_code,commune,numero,voie,lieu_dit,code_insee,siret,activite,contact_url,site_internet,longitude,latitude,transport_station_presence,stationnement_presence,stationnement_pmr,stationnement_ext_presence,stationnement_ext_pmr,cheminement_ext_presence,cheminement_ext_terrain_stable,cheminement_ext_plain_pied,cheminement_ext_ascenseur,cheminement_ext_nombre_marches,cheminement_ext_reperage_marches,cheminement_ext_sens_marches,cheminement_ext_main_courante,cheminement_ext_rampe,cheminement_ext_pente_presence,cheminement_ext_pente_degre_difficulte,cheminement_ext_pente_longueur,cheminement_ext_devers,cheminement_ext_bande_guidage,cheminement_ext_retrecissement,entree_reperage,entree_vitree,entree_vitree_vitrophanie,entree_plain_pied,entree_ascenseur,entree_marches,entree_marches_reperage,entree_marches_main_courante,entree_marches_rampe,entree_marches_sens,entree_dispositif_appel,entree_dispositif_appel_type,entree_balise_sonore,entree_aide_humaine,entree_largeur_mini,entree_pmr,entree_porte_presence,entree_porte_manoeuvre,entree_porte_type,accueil_visibilite,accueil_personnels,accueil_audiodescription_presence,accueil_audiodescription,accueil_equipements_malentendants_presence,accueil_equipements_malentendants,accueil_cheminement_plain_pied,accueil_cheminement_ascenseur,accueil_cheminement_nombre_marches,accueil_cheminement_reperage_marches,accueil_cheminement_main_courante,accueil_cheminement_rampe,accueil_cheminement_sens_marches,accueil_chambre_nombre_accessibles,accueil_chambre_douche_plain_pied,accueil_chambre_douche_siege,accueil_chambre_douche_barre_appui,accueil_chambre_sanitaires_barre_appui,accueil_chambre_sanitaires_espace_usage,accueil_chambre_numero_visible,accueil_chambre_equipement_alerte,accueil_chambre_accompagnement,accueil_retrecissement,sanitaires_presence,sanitaires_adaptes,labels,labels_familles_handicap,registre_url,conformite,web_url
aae6687e-46c7-4b92-a44b-c30109edea57,01 - Café Vira,75008,Paris,60,Avenue des Champs Elysées,,75108,,Restaurant,https://www.vira.fr/contact,https://www.vira.fr,2.306079,48.870631,True,False,,False,,False,,,,,,,,,,,,,,,False,False,,,,,,,,,True,,True,True,,False,True,,automatique,,,,,,,,,,,,,,,,,,,,,,,,,,,,,,https://acceslibre.beta.gouv.fr/app/75-paris/a/restaurant/erp/cafe-citron/
aa02b0db-5b48-4670-88f5-e6664cf82f91,01 TECHNICAL SPIRIT Productions Audiovisuelles,54560,Sancy,,,Bois l'Abbé sous Convert,54491,,Photographie,,http://www.technicalspirit.fr/,5.961479,49.354773,,True,True,,,,,,,,,,,,,,,,,,,,,,,,,,,,,,,,,,True,,,,,,,,,,,,,,,,,,,,,,,,,,,,,,,,https://acceslibre.beta.gouv.fr/app/54-sancy/a/photographie/erp/01-technical-spirit-productions-audiovisuelles/
bd07760d-72d3-42d8-8d22-879e9e1a1a9f,02 Aventure,11000,Carcassonne,,la Cavayère,,,,Accrobranche,,http://www.o2aventure.com/,2.41625726222992,43.184518852169084,True,True,False,True,True,,,,,,,,,,,,,,,,True,False,,True,,,,,,,False,,False,True,,False,True,,manuelle,True,,,,,,False,False,2,False,False,aucune,montant,,,,,,,,,,False,False,,,,,,https://acceslibre.beta.gouv.fr/app/11-carcassonne/a/accrobranche/erp/02-aventure/
538a3dbd-bbf5-423d-8958-7701c032f02d,0 5 Sens,81500,Lavaur,3,Rue des Goutisses,,81140,,"Soins de beauté, esthétique",,https://www.o5sens.com/,1.816311,43.702617,,True,True,,,,,,,,,,,,,,,,,,,,,True,,,,,,,,,,,90,,True,,,,,,,,,,,,,,,,,,,,,,,,,,True,True,,,,,https://acceslibre.beta.gouv.fr/app/81-lavaur/a/soins-de-beaute/erp/0-5-sens/
c7d781c0-12cf-4d66-aeef-571d8d4efd4f,0'mok@bar,75018,Paris,43,Rue de la Chapelle,,75118,,"Café, bar, brasserie",,http://omokabar.eatbu.com/,2.359299,48.893598,True,False,,True,True,False,,,,,,,,,,,,,,,True,True,True,True,,,,,,,False,,False,False,90,,True,battante,manuelle,,,,,,,,,,,,,,,,,,,,,,,,True,,,,,,https://acceslibre.beta.gouv.fr/app/75-paris/a/cafeteria/erp/0mokbar/
893019fe-cf9e-405e-9423-91955766cb45,0RPI,76120,Le Grand-Quevilly,10,Avenue John Fitzgerald Kennedy,,76322,,Agence immobilière,,,1.050464800318878,49.40880109458048,True,False,True,True,True,False,,,,,,,,,,,,,,,True,True,False,False,False,0,,,aucune,,False,,False,False,93,False,True,battante,manuelle,True,formés,,,False,,True,,,,,,,,,,,,,,,,False,False,,,,,False,https://acceslibre.beta.gouv.fr/app/76-le-grand-quevilly/a/agence-immobiliere/erp/0rpi/
edae5a97-21c8-4ae8-99a3-c5aaa44131a6,1,13090,Aix-en-Provence,4,Rue des Félibres,,13001,,Restauration rapide,,,5.444679,43.51826,,True,True,,,,,,,,,,,,,,,,,,,,,,,,,,,,,,,,,,True,,,,,,,,,,,,,,,,,,,,,,,,,,,,,,,,https://acceslibre.beta.gouv.fr/app/13-aix-en-provence/a/restauration-rapide/erp/1/
7ddf0802-7ead-48bf-9fc6-ce414292dd33,1000 & 1 Délices,75009,Paris,42,Rue Rodier,,75109,,Achat or,https://1000-et-1-delices.business.site/,https://1000-et-1-delices.business.site/,2.343475,48.879522,True,False,,True,True,False,,,,,,,,,,,,,,,True,True,True,True,,,,,,,,,,,,False,True,battante,manuelle,,,,,,,,,,,,,,,,,,,,,,,,,,,,,,https://acceslibre.beta.gouv.fr/app/75-paris/a/achat-or/erp/1000-1-delices/
94d7759c-af72-4aeb-b18d-7a20582fbe0c,1000 BORNES AUTO-ECOLE,16800,Soyaux,211,Avenue du General de Gaulle,,16374,,Auto école,,http://www.1000bornes-auto-ecole.fr/,0.191331,45.641943,,True,True,,,,,,,,,,,,,,,,,,,,,True,,,,,,,,,,,90,,True,,,,,,,,,,,,,,,,,,,,,,,,,,,,,,,,https://acceslibre.beta.gouv.fr/app/16-soyaux/a/auto-ecole/erp/1000-bornes-auto-ecole/
128b173b-71c1-4e86-bf70-91122cee51ec,1000 Club,88120,Cleurie,1,Chemin de Chevrimont,,88109,,Salle des fêtes,,,6.676431,48.051255,,True,True,,,,,,,,,,,,,,,,,,,,,True,,,,,,,,,,,90,,True,,,,,,,,,,,,,,,,,,,,,,,,,,,,,,,,https://acceslibre.beta.gouv.fr/app/88-cleurie/a/salle-des-fetes/erp/1000-club/
ab72d18c-74e6-4762-96f4-0f24373288e2,1000habitat,38530,Chapareillan,2,Place de la Mairie,,38075,,Agence immobilière,,http://1000habitat.fr/,5.99045,45.462874,,True,True,,,,,,,,,,,,,,,,,,,,,,,,,,,,,,,,,,True,,,,,,,,,,,,,,,,,,,,,,,,,,,,,,,,https://acceslibre.beta.gouv.fr/app/38-chapareillan/a/agence-immobiliere/erp/1000habitat/
32fad4de-4c98-4e35-b646-2ae2a3619863,1000 HABITAT,73250,Saint-Pierre-d'Albigny,200,Rue des Blaches,,73270,,Agence immobilière,,http://www.1000habitat.fr/,6.164512,45.553812,,True,True,,,,,,,,,,,,,,,,,,,,,True,,,,,,,,,,,90,,True,,,,,,,,,,,,,,,,,,,,,,,,,,,,,,,,https://acceslibre.beta.gouv.fr/app/73-saint-pierre-dalbigny/a/agence-immobiliere/erp/1000-habitat/
4b4da93d-ff79-4234-aeb4-c6925c9763ca,1000Nails,13800,Istres,,Allée des Salpétriers,,13047,,"Soins de beauté, esthétique",,http://www.1000nails.fr/,4.960518,43.513872,,True,True,,,,,,,,,,,,,,,,,,,,,,,,,,,,,,,,,,True,,,,,,,,,,,,,,,,,,,,,,,,,,True,True,,,,,https://acceslibre.beta.gouv.fr/app/13-istres/a/soins-de-beaute/erp/1000nails/
5d9baa51-7501-4be4-90dc-c58f9c270ae2,1001 Astuces de Filles,65300,Lannemezan,252,Boulevard des Tilleuls,,65258,,"Soins de beauté, esthétique",,http://www.1001astucesdefilles.fr/,0.386312,43.119692,,True,True,,,,,,,,,,,,,,,,,,,,,True,,,,,,,,,,,90,,True,,,,,,,,,,,,,,,,,,,,,,,,,,,,,,,,https://acceslibre.beta.gouv.fr/app/65-lannemezan/a/soins-de-beaute/erp/1001-astuces-de-filles/
6aab3bb6-c22f-4554-969f-020e6111b06b,1001 Coiffures,07700,Saint-Just-d'Ardèche,,Place du 19 Mars,,07259,,Coiffure,,https://www.facebook.com/valerie.coiffure.39,4.612969,44.302973,,True,True,,,,,,,,,,,,,,,,,,,,,True,,,,,,,,,,,90,,True,,,,,,,,,,,,,,,,,,,,,,,,,,,,,,,,https://acceslibre.beta.gouv.fr/app/07-saint-just-dardeche/a/coiffure/erp/1001-coiffures/
5f745ea8-7543-4a87-b283-fd811a97e2aa,1001 Fleurs Aux,92200,Neuilly-sur-Seine,108,Avenue Charles de Gaulle,,92051,,Fleuriste,,http://www.carreaudeneuilly.com/site/les_commercants_du_carreau/la_maison/fleuriste/aux-mille-et-une-fleurs,2.268512,48.882549,,,,,,,,,,,,,,,,,,,,,,,,True,,,,,,,,,,,90,,True,,,,,,,,,,,,,,,,,,,,,,,,,,,,,,,,https://acceslibre.beta.gouv.fr/app/92-neuilly-sur-seine/a/fleuriste/erp/1001-fleurs-aux/
6e1b03c7-8494-4966-acd6-93bb2d394e75,1001 FLEURS CBD,88120,Vagney,12,Rue Michel Collinet,,88486,,Commerce,,,6.715159,48.007791,,True,,,,,,,,,,,,,,,,,,,,,,,,,,,,,,,,,,,,,,,,,,,,,,,,,,,,,,,,,,,,,,,,,,,https://acceslibre.beta.gouv.fr/app/88-vagney/a/commerce/erp/1001-fleurs-cbd/
0240b389-f0bc-424e-82dd-ebcb2bba53c7,1001 Fromages,64200,Biarritz,8,Rue Victor Hugo,,,,Crèmerie Fromagerie,,,-1.561197,43.481776,True,False,,True,,False,,,,,,,,,,,,,,,True,True,True,False,False,2,,False,aucune,montant,,,,False,90,,True,battante,manuelle,True,non-formés,False,,False,,True,,,,,,,,,,,,,,,,False,False,,,,,,https://acceslibre.beta.gouv.fr/app/64-biarritz/a/cremerie-fromagerie/erp/1001-fromages/
0280752d-83a4-493b-9c9c-220c4e5e0ee3,1001 NEGOCE,95500,Gonesse,6,Rue Berthelot,,95277,,Boucherie / commerce de viande,,http://www.1001negoce.fr/,2.457307,48.983032,,True,True,,,,,,,,,,,,,,,,,,,,,,,,,,,,,,,,,,True,,,,,,,,,,,,,,,,,,,,,,,,,,,,,,,,https://acceslibre.beta.gouv.fr/app/95-gonesse/a/boucherie/erp/1001-negoce/
3e92bde3-fdbf-4ace-8e1d-c21c11d214f4,1001 Piles batteries,69003,Lyon,88,Rue Servient,,69383,,Vente de matériel et équipement industriels,,,4.849932,45.760393,,,,,,False,,,,,,,,,,,,,,,True,True,True,True,,,,,,,False,,False,True,90,False,True,battante,manuelle,True,,,,False,,True,,,,,,,,,,,,,,,,False,False,,,,,,https://acceslibre.beta.gouv.fr/app/69-lyon/a/vente-de-materiel-et-equipement-industriels/erp/1001-piles-batteries/
e08bb3ef-35d7-4c82-8995-c0cfebe42875,1001 piles Espace numérique,12000,Rodez,19,Avenue Tarayre,,12202,,Électroménager et matériel audio-vidéo,,,2.579269,44.356565,True,,,True,True,,,,,,,,,,,,,,,,True,True,True,True,,,,,,,,,,,90,,True,battante,manuelle,True,,,,,,True,,,,,,,,,,,,,,,,,,,,,,,https://acceslibre.beta.gouv.fr/app/12-rodez/a/electromenager-et-materiel-audio-video/erp/1001-piles-espace-numerique/
9e36470e-c784-4b7b-b5a7-d6e653af68b0,1001 Plantes,71000,Mâcon,240,Rue Carnot,,71270,,Herboristerie naturopathie,,,4.831565,46.30312,,False,,False,,False,,,,,,,,,,,,,,,True,True,True,False,False,1,False,False,,montant,False,,,,80,False,True,battante,manuelle,True,,,,,,True,,,,,,,,,,,,,,,,False,,,,,,,https://acceslibre.beta.gouv.fr/app/71-macon/a/herboristerie-naturopathie/erp/1001-plantes/
0faa9809-879f-4e01-ac98-889447517619,1001 Salles - Prestataires événementiels,94200,Ivry-sur-Seine,11,Rue Maurice Grandcoing,,94041,,Salle des fêtes,,https://www.1001salles.com/,2.392821,48.813718,,True,True,,,,,,,,,,,,,,,,,,,,,True,,,,,,,,,,,90,,True,,,,,,,,,,,,,,,,,,,,,,,,,,,,,,,,https://acceslibre.beta.gouv.fr/app/94-ivry-sur-seine/a/salle-des-fetes/erp/1001-salles-prestataires-evenementiels/
29f94a9b-f4c3-4cf1-b3e8-fa261f6285e1,1001 Sandwiches,24620,Les Eyzies,34,Avenue de la Préhistoire,,24172,,Restauration rapide,,,1.012476,44.936969,,True,True,,,,,,,,,,,,,,,,,,,,,True,,,,,,,,,,,90,,True,,,,,,,,,,,,,,,,,,,,,,,,,False,True,True,,,,,https://acceslibre.beta.gouv.fr/app/24-les-eyzies/a/restauration-rapide/erp/1001-sandwiches/
79e84e1d-823a-4a5d-a4fc-03efe5620851,1001 Saveurs,64122,Urrugne,73,Route de la Corniche,,64545,,Boulangerie Pâtisserie,,,-1.6860901267818917,43.390444450722356,,False,,True,,False,,,,,,,,,,,,,,,True,True,,True,,,,,,,False,,False,True,90,False,True,battante,manuelle,True,,,,,,True,,,,,,,,,,,,,,,,,False,,,,,,https://acceslibre.beta.gouv.fr/app/64-urrugne/a/boulangerie-patisserie/erp/1001-saveurs/
08a67500-65f9-4f46-be8d-86e13cfdfa90,1001 Sourires Photographie,95000,Cergy,102,Rue des Chênes Mauves,,95127,,Photographie,,http://1001souriresphotographie.fr/,2.071203,49.040014,,True,True,,,,,,,,,,,,,,,,,,,,,,,,,,,,,,,,,,True,,,,,,,,,,,,,,,,,,,,,,,,,,,,,,,,https://acceslibre.beta.gouv.fr/app/95-cergy/a/photographie/erp/1001-sourires-photographie/
4be657ee-2509-4b81-9313-bb7ffbbea3ff,1001 VII Vap Vape CBD Shop,69007,Lyon,33,Avenue Jean Jaurès,,,,Magasin de cbd,,https://achetercbd.net,4.845541,45.751103,True,True,True,True,,True,False,True,,,,,,,False,,,,,True,,,,,,,,,,,,,True,,,,True,battante,automatique,True,,,,,,True,,,,,,,,,,,,,,,,,,,,,,,https://acceslibre.beta.gouv.fr/app/69-lyon/a/magasin-de-cannabis-cbd-shop/erp/1001-vii-vap-vape-cbd-shop/
dee7affb-7227-4683-84d0-8f74fa014332,100 % Bijoux,04100,Manosque,56,Rue Grande,,04112,,Bijouterie joaillerie,,,5.783066,43.83323,,,,,,,,,,,,,,,,,,,,,,,,True,,,,,,,,,,,90,,True,,,,,,,,,,,,,,,,,,,,,,,,,,,,,,,,https://acceslibre.beta.gouv.fr/app/04-manosque/a/bijouterie-joaillerie/erp/100-bijoux/
2e239938-b0b0-4184-8965-0034e6c9cb49,100% Coiffure BREST Géant,29200,Brest,1,rue Georges Didailler,,29019,,Coiffure,,https://www.100pour100coiffure.fr/,-4.467861,48.408958,,True,True,,,,,,,,,,,,,,,,,,,,,True,,,,,,,,,,,90,,True,,,,,,,,,,,,,,,,,,,,,,,,,,,,,,,,https://acceslibre.beta.gouv.fr/app/29-brest/a/coiffure/erp/100-coiffure-brest-geant/
bd039976-759c-4bbf-9d88-86836abd8d40,100% Coiffure BREST Liberté,29200,Brest,6,rue de Glasgow,,29019,,Coiffure,,https://www.100pour100coiffure.fr/,-4.48533,48.391633,,,,,,,,,,,,,,,,,,,,,,,,,,,,,,,,,,,,,True,,,,,,,,,,,,,,,,,,,,,,,,,,,,,,,,https://acceslibre.beta.gouv.fr/app/29-brest/a/coiffure/erp/100-coiffure-brest-liberte/
aaaa544d-ae54-491a-87c3-220230b65f35,100% Coiffure BREST Siam,29200,Brest,,rue de Siam,,29019,,Coiffure,,https://www.100pour100coiffure.fr/,-4.490391,48.386921,,True,True,,,,,,,,,,,,,,,,,,,,,True,,,,,,,,,,,90,,True,,,,,,,,,,,,,,,,,,,,,,,,,,,,,,,,https://acceslibre.beta.gouv.fr/app/29-brest/a/coiffure/erp/100-coiffure-brest-siam/
83985b57-b881-4661-8c0a-54cb82dc6658,100% Coiffure - Coiffeur Fougères,35300,Fougères,98,Rue de la Forêt,,35115,,Coiffure,,https://www.moncoiffeur.fr/coiffeur/100-coiffure-fougeres,-1.196406,48.357172,,True,True,,,,,,,,,,,,,,,,,,,,,True,,,,,,,,,,,90,,True,,,,,,,,,,,,,,,,,,,,,,,,,,True,True,,,,,https://acceslibre.beta.gouv.fr/app/35-fougeres/a/coiffure/erp/100-coiffure-coiffeur-fougeres/
905bfe00-19dd-4b2b-87f4-de7ee01c2957,100% Des Marques,62000,Arras,2,Rue Claude Bernard,,,,Vêtements,,https://www.espace-des-marques.com/marques/112-von-dutch?pk_campaign=cpc%7CAdWords%20Search%7C13609100775%7C123654496533&pk_kwd=aud-769946747009:kwd-303306058965%7C529367629617&gclid=CjwKCAjwmeiIBhA6EiwA-uaeFWusvK6NBqVtph0cseOz9UznD91Sla3gAR9SlPsIKdIWA0XL,2.7361058591486653,50.299528464925686,True,True,True,True,True,True,True,True,,,,,,,False,,,,False,False,True,True,True,True,,,,,,,,,,,90,False,True,coulissante,automatique,True,,,,,,True,,,,,,,,,,,,,,,,False,False,,,,,,https://acceslibre.beta.gouv.fr/app/62-arras/a/vetements-sous-vetements-lingerie/erp/100-des-marques/
5265ef85-bea6-4e41-b026-a8dd9bd75659,100% FERMIERS,17690,Angoulins,22,Avenue des Fourneaux,,17010,,Commerce,,,-1.099018,46.107189,,True,,True,True,,,,,,,,,,,,,,,,,,,True,,,,,,,,,,,,,,,,,,,,,,,,,,,,,,,,,,,,,,,True,False,,,,,https://acceslibre.beta.gouv.fr/app/17-angoulins/a/commerce/erp/100-fermiers/
746bba25-bb63-4b8a-b5cb-a340feb0b7c3,100 % fille,42600,Montbrison,4,Rue Marguerite Fournier,,42147,,Chaussures,,,4.066714346408845,45.60618319808758,False,False,,True,,False,,,,,,,,,,,,,,,True,True,True,True,,,,,,,,,,,80,False,True,battante,manuelle,True,,,,,,True,,,,,,,,,,,,,,,,False,False,,,,,,https://acceslibre.beta.gouv.fr/app/42-montbrison/a/chaussures/erp/100-fille/
297cf517-ea6b-4770-a376-6f60b1c417b9,100 % HABITAT - Bourges - Crédit Agricole Centre Loire,18000,Bourges,39,Rue de Sarrebourg,,18033,,"Banques, caisses d'épargne",,https://www.credit-agricole.fr/ca-centreloire/particulier.html,2.403417,47.080212,,,,,,,,,,,,,,,,,,,,,,,,True,,,,,,,,,,,90,,True,,,,,,,,,,,,,,,,,,,,,,,,,,,,,,,,https://acceslibre.beta.gouv.fr/app/18-bourges/a/banques-caisses-depargne/erp/100-habitat-bourges-credit-agricole-centre-loire/
db12bbe2-40ac-49f5-a6f8-08253f757b3c,100 % HABITAT - Montargis - Crédit Agricole Centre Loire,45200,Amilly,699,Avenue d'Antibes,,45004,,"Banques, caisses d'épargne",,https://www.credit-agricole.fr/ca-centreloire/particulier/agence/centre-loire/100-pour-cent-habitat-montargis-509.html,2.733124,47.981017,,True,True,,,,,,,,,,,,,,,,,,,,,True,,,,,,,,,,,90,,True,,,,,,,,,,,,,,,,,,,,,,,,,,,,,,,,https://acceslibre.beta.gouv.fr/app/45-amilly/a/banques-caisses-depargne/erp/100-habitat-montargis-credit-agricole-centre-loire/
a68818b7-c327-4ced-b424-f06a7a2d9606,100 % HABITAT - Orléans - Crédit Agricole Centre Loire,45000,Orléans,14,Boulevard Rocheplatte,,45234,,"Banques, caisses d'épargne",,https://www.credit-agricole.fr/ca-centreloire/particulier.html,1.898921,47.905623,,,,,,,,,,,,,,,,,,,,,,,,True,,,,,,,,,,,90,,True,,,,,,,,,,,,,,,,,,,,,,,,,,,,,,,,https://acceslibre.beta.gouv.fr/app/45-orleans/a/banques-caisses-depargne/erp/100-habitat-orleans-credit-agricole-centre-loire/
641ec4b9-6d6f-4dec-ad5d-9c6a5631d1a2,100 % Latino,21000,Dijon,15,Rue Général Fauconnet,,21231,,"Café, bar, brasserie",,,5.042668282985688,47.331111745744245,False,False,,True,False,False,,,,,,,,,,,,,,,,True,True,False,False,1,False,False,,montant,True,"[""bouton""]",,True,,False,True,battante,manuelle,True,,,,,,True,,,,,,,,,,,,,,,,,True,,,,,,https://acceslibre.beta.gouv.fr/app/21-dijon/a/cafeteria/erp/100-latino/
bd566b5e-ed0d-485a-ac6b-f553017fb3a5,100m2,42600,Montbrison,10,Rue Victor de Laprade,,42147,,Agence immobilière,,http://www.100m2.fr/,4.064899,45.607183,,True,True,,,,,,,,,,,,,,,,,,,,,,,,,,,,,,,,,,True,,,,,,,,,,,,,,,,,,,,,,,,,,,,,,,,https://acceslibre.beta.gouv.fr/app/42-montbrison/a/agence-immobiliere/erp/100m2/
126d2dbf-0ab3-495c-b34f-0318522d7412,100m beach balcony parking-Surfhouse Beach flat,64700,Hendaye,,Rue des jasmins,,64260,,Hôtel,,,-1.771186,43.372586,,,,,,,,,,,,,,,,,,,,,,,,True,,,,,,,,,,,80,,True,,,,,,,,,,,,,,,,1,,,,,,,,,,,,,,,,https://acceslibre.beta.gouv.fr/app/64-hendaye/a/hotel/erp/100m-beach-balcony-parking-surfhouse-beach-flat/
568b2336-25da-4f58-897f-e61d908b57e2,100 pour 100 Optique Stéphane Tocze,13012,Marseille,,Rue gaston de flotte,,13212,,Opticien,,,5.427416,43.296838,,True,True,,,,,,,,,,,,,,,,,,,,,True,,,,,,,,,,,90,,True,,,,,,,,,,,,,,,,,,,,,,,,,,,,,,,,https://acceslibre.beta.gouv.fr/app/13-marseille/a/optique/erp/100-pour-100-optique-stephane-tocze/
2f7f5b69-02fb-44ba-bb94-8ea47988a5b2,100 pour 100 permis,88100,Sainte-Marguerite,471,Rue d'Alsace,,88424,,Auto école,,https://auto-ecole-100pour100permis.com/,6.982995,48.267691,,True,True,,,,,,,,,,,,,,,,,,,,,,,,,,,,,,,,,,True,,,,,,,,,,,,,,,,,,,,,,,,,,,,,,,,https://acceslibre.beta.gouv.fr/app/88-sainte-marguerite/a/auto-ecole/erp/100-pour-100-permis/
c1db01e1-8252-45d2-a810-02d21fa488d7,100 pour cent Sports,74600,Annecy,99,Route des rutys,,74010,,Vente d'articles de sport,,,6.126640141010285,45.94384640094335,True,,,,,False,,,,,,,,,,,,,,,True,True,True,False,False,3,False,False,aucune,,,,,,90,False,True,battante,manuelle,True,,,,False,,True,,,,,,,,,,,,,,,,,False,,,,,False,https://acceslibre.beta.gouv.fr/app/74-annecy/a/vente-location-darticles-de-sport/erp/100-pour-cent-sports/
4a42acf5-c8d6-4675-a541-f03f0c05476c,100 Zen,77176,Savigny-le-Temple,15,Allée de Montmorency,,77445,,"Soins de beauté, esthétique",,http://institut-100-zen.fr/,2.55289,48.60487,,True,True,,,,,,,,,,,,,,,,,,,,,,,,,,,,,,,,,,True,,,,,,,,,,,,,,,,,,,,,,,,,,,,,,,,https://acceslibre.beta.gouv.fr/app/77-savigny-le-temple/a/soins-de-beaute/erp/100-zen/
46708a23-d5a4-4e22-9487-0ea51406eea3,1010 Interim Air,11100,Narbonne,6bis,Rue du Bourget,,,,Agence de travail temporaire,,,2.9976219999999976,43.18034899999998,False,False,,True,True,False,,,,,,,,,,,,,,,True,True,True,False,False,1,False,False,aucune,montant,False,,False,False,90,False,True,battante,manuelle,True,formés,False,,False,,True,,,,,,,,,,,,,,,,False,False,,,,,,https://acceslibre.beta.gouv.fr/app/11-narbonne/a/agence-de-travail-temporaire/erp/1010-interim-air/
ea3b261e-a460-40d2-b804-ad2d86479326,101CAFFE' Vannes,56000,Vannes,12,Rue Saint-Salomon,,56260,,"Café, bar, brasserie",,,-2.758419,47.65755,,False,,,,,,,,,,,,,,,,,,,,,,False,,1,,,aucune,montant,,,,,,,,,,,,,,,,,,,,,,,,,,,,,,,,,False,,,,,,https://acceslibre.beta.gouv.fr/app/56-vannes/a/cafeteria/erp/101caffe-vannes/
529f9679-2c36-42ad-a8ae-5a6570c20eeb,101 - CashConverters,69007,Lyon,43,Avenue Jean Jaurès,,,,Jeux vidéo,,http://googl.sh/r/3vWXeS,4.837636,45.738402,True,True,False,True,,,,,,,,,,,,,,,,,True,True,,,,,,,,,,,,,,,True,,automatique,,,,,,,,,,,,,,,,,,,,,,,,,,,,https://www.cashconverters.fr/mentions-legales,,https://acceslibre.beta.gouv.fr/app/69-lyon/a/jeux-video/erp/cashconverters/
9de60ad0-8b03-4f31-b714-b6eb824d40b9,10/24,34200,Sète,,Route d'Agde,,34301,,Restaurant,,,3.609716892242432,43.362407442439306,,True,True,False,,True,True,True,,,,,,,False,,,aucun,False,False,True,,,True,,,,,,,,,,True,,False,True,,,True,formés,,,False,,True,,,,,,,,,,,,,,,,False,True,True,,,,,https://acceslibre.beta.gouv.fr/app/34-sete/a/restaurant/erp/1024/
16222420-ecfb-4f24-9b52-72d935c4c67d,1055,39570,Perrigny,1055,Rue de la Lième,,,,Restaurant,,https://www.1055.fr/,5.583203,46.680008,,True,True,True,False,False,,,,,,,,,,,,,,,True,True,True,True,,,,,,,,,,,90,False,True,battante,manuelle,True,,,,,,True,,,,,,,,,,,,,,,,False,True,True,,,,,https://acceslibre.beta.gouv.fr/app/39-perrigny/a/restaurant/erp/1055/
d54117ff-fc07-4aac-bc7a-9a81ff999a23,105 degrés,22260,Pontrieux,16,Rue Saint Yves,,22250,,Chocolatier,,,-3.160625,48.697177,,True,True,,,,,,,,,,,,,,,,,,,,,True,,,,,,,,,,,90,,True,,,,,,,,,,,,,,,,,,,,,,,,,,,,,,,,https://acceslibre.beta.gouv.fr/app/22-pontrieux/a/chocolatier/erp/105-degres/
73c2cd9c-a2a5-4d75-bcc1-afe87b274c3a,1064,47000,Agen,60bis,Boulevard de la République,,47001,,Bijouterie joaillerie,,http://www.atelier-1064.fr/,0.618028,44.204858,,,,,,,,,,,,,,,,,,,,,,,,True,,,,,,,,,,,90,,True,,,,,,,,,,,,,,,,,,,,,,,,,,,,,,,,https://acceslibre.beta.gouv.fr/app/47-agen/a/bijouterie-joaillerie/erp/1064/
d4c0b963-9420-47cb-b481-5a3823e51ebe,106 Bd de Clichy,75018,Paris,106,Boulevard de Clichy,,75118,,Restaurant,,,2.3311963677406315,48.88435290079336,True,False,,True,False,False,,,,,,,,,,,,,,,True,True,True,,,,,,,,False,,False,False,180,False,True,battante,manuelle,True,non-formés,,,False,,True,,,,,,,,,,,,,,,,False,True,False,,,,,https://acceslibre.beta.gouv.fr/app/75-paris/a/restaurant/erp/106-bd-de-clichy/
4cc62341-3bde-49bf-a34e-a1f705b5a18c,106 - DuoDeCoeurs,69007,Lyon,33,Rue de Marseille,,,,Agence matrimoniale,,https://duodecoeurs.com,4.839732,45.750936,True,True,True,True,True,False,,,,,,,,,,,,,,,True,False,,True,,,,,,,False,,True,True,,True,True,battante,automatique,True,,,,,,True,,,,,,,,,,,,,,,,False,,,,,,,https://acceslibre.beta.gouv.fr/app/69-lyon/a/agence-matrimoniale/erp/106-duodecoeurs/
b580c952-ccfe-4cc4-b5d3-2d3ff2f25229,"107 Bd Bessières, 75017 Paris",75017,Paris,107,Boulevard Bessières,,75117,,Restauration rapide,,https://www.pizzakingparis17.fr/,2.316917,48.895381,False,False,,True,,False,,,,,,,,,,,,,,,True,,,,,,,,,,False,,False,True,,,True,battante,manuelle,True,non-formés,,,,,True,,,,,,,,,,,,,,,,False,,,,,,,https://acceslibre.beta.gouv.fr/app/75-paris/a/restauration-rapide/erp/107-bd-bessieres-75017-paris/
787cdc0f-ad8a-47e1-8d92-b432e95e8b31,109 Coiffure Sophie,41350,Vineuil,8bis,Place du 11 Novembre,,41295,,Coiffure,,,1.377538,47.581707,,True,True,,,,,,,,,,,,,,,,,,,,,True,,,,,,,,,,,90,,True,,,,,,,,,,,,,,,,,,,,,,,,,,True,True,,,,,https://acceslibre.beta.gouv.fr/app/41-vineuil/a/coiffure/erp/109-coiffure-sophie/
5da6fd3f-4b46-4f6d-8641-b33459993e58,109 le Club,35400,Saint-Malo,3,Rue des Cordiers,,35288,,Discothèque,,,-2.02423,48.647857,,False,,True,True,,,,,,,,,,,,,,,,,,,False,,15,,,aucune,descendant,,,,,,,,,,,,,,,,,,,,,,,,,,,,,,,,,True,False,,,,,https://acceslibre.beta.gouv.fr/app/35-saint-malo/a/discotheque/erp/109-le-club/
02cf6089-62e6-465b-80d2-a183c912fd5e,109 - l'Embarcadère,03100,Montluçon,18,Avenue de Fontbouillant,,03185,,Théâtre,,http://www.109montlucon.com/,2.580811,46.328047,,True,True,,,,,,,,,,,,,,,,,,,,,True,,,,,,,,,,,90,,True,,,,,,,,,,,,,,,,,,,,,,,,,,True,True,,,,,https://acceslibre.beta.gouv.fr/app/03-montlucon/a/theatre/erp/109-lembarcadere/
3e234fd1-a54a-46cd-8554-459660d19237,10 Allée du Mâconnais 31770 colomiers,31770,Colomiers,,Allée de l'Espinglière,,31149,,Collège,,,1.331027,43.622237,,True,True,,,,,,,,,,,,,,,,,,,,,True,,,,,,,,,,,90,,True,,,,,,,,,,,,,,,,,,,,,,,,,,,,,,,,https://acceslibre.beta.gouv.fr/app/31-colomiers/a/college/erp/10-allee-du-maconnais-31770-colomiers/
98cf4f64-6e71-4054-b618-0e09304924be,10 Dixième - Saint Hélier Optique,35000,Rennes,60,Rue Saint-Hélier,,35238,,Opticien,,,-1.668649,48.106477,,,,,,,,,,,,,,,,,,,,,,,,True,,,,,,,,,,,90,,True,,,,,,,,,,,,,,,,,,,,,,,,,,,,,,,,https://acceslibre.beta.gouv.fr/app/35-rennes/a/optique/erp/10-dixieme-saint-helier-optique/
ec8c6e70-fc83-4a8d-ba8f-19f6ee38ac8c,10 doigts pour soi,56170,Quiberon,33,Place de la Duchesse Anne,,56186,,"Soins de beauté, esthétique",,http://www.10doigtspoursoi.com/,-3.119931,47.483722,,True,True,,,True,True,True,,,,,,,,,,,,False,,,,True,,,,,,,,,,,,,True,,,,,,,,,,,,,,,,,,,,,,,,,,True,False,,,,,https://acceslibre.beta.gouv.fr/app/56-quiberon/a/soins-de-beaute/erp/10-doigts-pour-soi/
b9e3d27e-56f4-4b2f-856a-c46d84847a9b,10h10 auto ecole,95150,Taverny,178,Rue d'Herblay,,95607,,Auto école,,http://10h10autoecole.fr/,2.205534,49.013133,,True,True,,,,,,,,,,,,,,,,,,,,,,,,,,,,,,,,,,True,,,,,,,,,,,,,,,,,,,,,,,,,,,,,,,,https://acceslibre.beta.gouv.fr/app/95-taverny/a/auto-ecole/erp/10h10-auto-ecole/
52ae94b5-f480-4395-99ec-c0dfb925a6df,10 Optic,10600,LA CHAPELLE-SAINT-LUC,,Boulevard DE L OUEST,L ESCAPADE,,,Opticien,,,4.023704093488051,48.30579137603685,,True,True,False,,True,True,True,,,,,,,False,,,léger,False,False,True,True,True,True,,,,,,,False,,False,False,200,False,True,coulissante,automatique,True,,,,False,,True,,,,,,,,,,,,,,,,False,True,True,,,,,https://acceslibre.beta.gouv.fr/app/10-la-chapelle-saint-luc/a/optique/erp/10-optic/
0dbc70e6-ca27-4732-a014-b9dfb83382b3,10 Optic,10600,La Chapelle-Saint-Luc,1,Boulevard de l’Ouest,,10081,,Opticien,,http://www.10-optic.fr/,4.026027,48.307367,,True,True,,,,,,,,,,,,,,,,,,,,,True,,,,,,,,,,,90,,True,,,,,,,,,,,,,,,,,,,,,,,,,,,,,,,,https://acceslibre.beta.gouv.fr/app/10-la-chapelle-saint-luc/a/optique/erp/10-optic-2/
071a1743-c840-4962-81e4-7385e5408ae6,10 Street Lamballe,22400,Lamballe-Armor,10,Rue des Avéries,,22093,,Sports et loisirs,,http://10street.fr/,-2.495403,48.48017,,True,True,,,,,,,,,,,,,,,,,,,,,True,,,,,,,,,,,90,,True,,,,,,,,,,,,,,,,,,,,,,,,,,,,,,,,https://acceslibre.beta.gouv.fr/app/22-lamballe-armor/a/sports-et-loisirs/erp/10-street-lamballe/
58248ff0-18cf-4df1-8b9a-11ecb9d5448f,10 Strict Opticiens,47400,Tonneins,2,Pl St Pierre,,47310,,Opticien,,http://www.10strict-opticiens.fr/,0.315023,44.385903,,True,True,,,,,,,,,,,,,,,,,,,,,True,,,,,,,,,,,90,,True,,,,,,,,,,,,,,,,,,,,,,,,,,,,,,,,https://acceslibre.beta.gouv.fr/app/47-tonneins/a/optique/erp/10-strict-opticiens/
e866ccce-13a5-465a-b7e1-7eb962331fb3,10 STRICT OPTICIENS,33600,Pessac,2,Avenue Pasteur,,33318,,Opticien,,,-0.6307,44.806248,,True,True,,,,,,,,,,,,,,,,,,,,,True,,,,,,,,,,,90,,True,,,,,,,True,"[""lsf"", ""lpc"", ""sts""]",,,,,,,,,,,,,,,,,,,,,,,,https://acceslibre.beta.gouv.fr/app/33-pessac/a/optique/erp/10-strict-opticiens-5/
ca27be5a-80dd-4651-9264-75347645162e,1-10 Galerie,38000,Grenoble,11,Rue Marx Dormoy,,38185,,Art,,,5.712167,45.187073,,False,,,,,,,,,,,,,,,,,,,,,,False,,1,,,aucune,montant,,,,,,,,,,,,,,,,,,,,,,,,,,,,,,,,,True,False,,,,,https://acceslibre.beta.gouv.fr/app/38-grenoble/a/art/erp/1-10-galerie/
0339743a-815a-478a-b675-dd3e136aa818,110S Coiffure Sandie,88000,Épinal,3,Rue de la Maix,,88160,,Coiffure,,,6.451589,48.175396,,True,True,,,,,,,,,,,,,,,,,,,,,True,,,,,,,,,,,90,,True,,,,,,,,,,,,,,,,,,,,,,,,,,,,,,,,https://acceslibre.beta.gouv.fr/app/88-epinal/a/coiffure/erp/110s-coiffure-sandie/
46e0cd92-938b-47d2-a6e2-12e886373b4f,110 Vigne,89800,CHABLIS,,Route D'AUXERRE,,,,Jardinerie,,,3.7875840066772075,47.81626696485846,,True,True,False,,True,True,True,,,,,,,False,,,léger,False,False,True,True,True,True,,,,,,,,,,,80,False,True,battante,manuelle,True,,,,,,True,,,,,,,,,,,,,,,,False,,,,,,,https://acceslibre.beta.gouv.fr/app/89-chablis/a/jardinerie/erp/110-vigne/
bbc5cdcc-46e6-40df-a848-26dab8a31949,111SUN Massage&Épilation Paris 5,75005,Paris,111,Boulevard Saint-Michel,,75105,,"Soins de beauté, esthétique",,http://epilationmassageparis.fr/,2.338916,48.843422,,,,,,,,,,,,,,,,,,,,,,,,True,,,,,,,,,,,90,,True,,,,,,,,,,,,,,,,,,,,,,,,,False,True,True,,,,,https://acceslibre.beta.gouv.fr/app/75-paris/a/soins-de-beaute/erp/111sun-massageepilation-paris-5/
304cd785-6ed5-4a48-b411-dff596a6c47c,112 Hai'r Coiffeur Visagiste Créateur Rouen,76100,Rouen,112h,Av des Martyrs de la Resistance,,76540,,Coiffure,,https://112hair.com/,1.079884,49.422102,,,,,,,,,,,,,,,,,,,,,,,,,,,,,,,,,,,,,True,,,,,,,,,,,,,,,,,,,,,,,,,,,,,,,,https://acceslibre.beta.gouv.fr/app/76-rouen/a/coiffure/erp/112-hair-coiffeur-visagiste-createur-rouen/
daf70b47-994a-48cf-add0-de5d7e33d3e5,113EME Avenue Coiffure,69003,Lyon,113,Avenue Maréchal de Saxe,,69383,,Coiffure,,,4.846204,45.758491,,,,,,,,,,,,,,,,,,,,,,,,True,,,,,,,,,,,90,,True,,,,,,,,,,,,,,,,,,,,,,,,,,,,,,,,https://acceslibre.beta.gouv.fr/app/69-lyon/a/coiffure/erp/113eme-avenue-coiffure/
01e91f39-4c6e-42fe-99ba-7c8b22032332,114 Rue Cardinet Garage,75017,Paris,114,Rue Cardinet,,75117,,Carrosserie,,,2.312242,48.88597,,True,True,,,,,,,,,,,,,,,,,,,,,True,,,,,,,,,,,90,,True,,,,,,,,,,,,,,,,,,,,,,,,,,,,,,,,https://acceslibre.beta.gouv.fr/app/75-paris/a/carrosserie/erp/114-rue-cardinet-garage/
3107f425-7497-4888-8778-034930ce50da,115 Rue Vauban,69006,Lyon,115,Rue Vauban,,69386,,Hôtel,,,4.853457,45.765931,,,,,,,,,,,,,,,,,,,,,,,,True,,,,,,,,,,,80,,True,,,,,,,,,,,,,,,,1,,,,,,,,,,,,,,,,https://acceslibre.beta.gouv.fr/app/69-lyon/a/hotel/erp/115-rue-vauban/
8336aebc-26ea-4229-a98b-07bf8f11521a,116 beauté,92140,Clamart,116,Avenue du Général de Gaulle,,92023,,Coiffure,,,2.264232,48.79085,,True,True,,,,,,,,,,,,,,,,,,,,,True,,,,,,,,,,,90,,True,,,,,,,,,,,,,,,,,,,,,,,,,,,,,,,,https://acceslibre.beta.gouv.fr/app/92-clamart/a/coiffure/erp/116-beaute/
2bddac86-e63c-4cab-b8b9-b8899dbc74a8,116 PAGES,75116,PARIS,2,RUE AUGUSTE VACQUERIE,,,,Restaurant,,,2.296342,48.870974,True,,,True,True,,,,,,,,,,,,,,,,True,True,True,True,,,,,,,,,,,100,,True,battante,manuelle,True,aucun,,,,,True,,,,,,,,,,,,,,,,,True,True,,,,,https://acceslibre.beta.gouv.fr/app/75-paris/a/restaurant/erp/116-pages/
2ed6d4f8-f90e-4080-87a6-24cb846dc170,117 Customs,81000,Albi,6,Chemin de la Besse,,81004,,Carrosserie,,https://www.117customs.fr/,2.09599,43.91824,,True,True,,,,,,,,,,,,,,,,,,,,,True,,,,,,,,,,,90,,True,,,,,,,,,,,,,,,,,,,,,,,,,,,,,,,,https://acceslibre.beta.gouv.fr/app/81-albi/a/carrosserie/erp/117-customs/
81a8f238-8d78-40d0-852a-c4f12d35acee,117EME Avenue Coiffure,54700,Blénod-lès-Pont-à-Mousson,117,Avenue Victor Claude,,54079,,Coiffure,,,6.053204,48.882007,,True,True,,,,,,,,,,,,,,,,,,,,,True,,,,,,,,,,,90,,True,,,,,,,,,,,,,,,,,,,,,,,,,,,,,,,,https://acceslibre.beta.gouv.fr/app/54-blenod-les-pont-a-mousson/a/coiffure/erp/117eme-avenue-coiffure/
a057a085-c753-46d5-8ec4-dd03364a5cb1,118 IBIS STYLES DAX MIRADOUR,40100,Dax,4,Avenue Eugène Milliès-lacroix,,40088,,Coworking,,https://www.wojo.com/fr-FR/espaces-de-travail/wojo-dax-ibis-miradour,-1.056991,43.710957,False,False,,True,True,True,True,True,,,,,,,True,légère,longue,léger,True,True,True,True,True,True,,,,,,,True,"[""bouton"", ""interphone""]",True,True,165,True,True,coulissante,automatique,True,formés,False,,True,"[""bim"", ""bmp""]",True,,,,,,,,,,,,,,,,False,True,True,"[""th""]",,,,https://acceslibre.beta.gouv.fr/app/40-dax/a/coworking/erp/wojo-coworking-dax-ibis-miradour/
459cd146-f664-4441-8b7b-b8851f3435aa,11 Avenue Coiffure - Véronique Charles,42300,Roanne,11,Avenue de Paris,,42187,,Coiffure,,https://www.facebook.com/11AvenueCoiffure/,4.072315,46.042663,,True,True,,,,,,,,,,,,,,,,,,,,,,,,,,,,,,,,,,True,,,,,,,,,,,,,,,,,,,,,,,,,,,,,,,,https://acceslibre.beta.gouv.fr/app/42-roanne/a/coiffure/erp/11-avenue-coiffure-veronique-charles/
00f614d8-75f2-4ff7-ac60-225f9a5ca820,11BAUER,93400,Saint-Ouen-sur-Seine,11,Rue du Docteur Bauer,,93070,,Hôtel,,,2.336337,48.912073,,True,True,True,True,,,,,,,,,,,,,,,,,,,True,,,,,,,,,True,,80,,True,,,,,,,,,,,,,,,,2,True,,,True,,,True,True,,True,True,,,,,https://acceslibre.beta.gouv.fr/app/93-saint-ouen-sur-seine/a/hotel/erp/11bauer/
ba9f98d5-dd20-443c-a86f-d4c27a2b25e0,11 BIS,79000,Niort,11,Quai Cronstadt,,,,"Café, bar, brasserie",,https://www.facebook.com/people/11-Bis-Troquet-Lounge/100063637027024/,-0.4644915461540223,46.326290576289416,True,False,,True,True,False,,,,,,,,,,,,,,,True,True,True,True,,,,,,,False,,,True,90,False,True,battante,manuelle,True,formés,False,,False,,True,,,,,,,,,,,,,,,,False,True,True,,,,,https://acceslibre.beta.gouv.fr/app/79-niort/a/cafeteria/erp/fabrice-girard/
a8d4cc47-8600-49fe-a230-48ec5b1fb919,11ème Art - Salon de Coiffure à Toulon,83000,Toulon,11,Rue Henri Seillon,,83137,,Coiffure,,,5.932174,43.120703,,,,,,,,,,,,,,,,,,,,,,,,True,,,,,,,,,,,90,,True,,,,,,,,,,,,,,,,,,,,,,,,,,,,,,,,https://acceslibre.beta.gouv.fr/app/83-toulon/a/coiffure/erp/11eme-art-salon-de-coiffure-a-toulon/
30eb8f93-73b2-4031-8f2a-a02005934e3c,11ème AVENUE,85000,La Roche-sur-Yon,146,Boulevard d'italie,,85191,,Coiffure,,,-1.420006,46.66601,,True,True,,,,,,,,,,,,,,,,,,,,,True,,,,,,,,,,,90,,True,,,,,,,,,True,,,,,,,,,,,,,,,,False,,,,,,,https://acceslibre.beta.gouv.fr/app/85-la-roche-sur-yon/a/coiffure/erp/11eme-avenue/
a5ce1878-51cc-4562-a765-842a6d94b8ce,11 GILGAMESH BELLEVILLE,84000,Avignon,11,Boulevard Raspail,,84007,,Théâtre,,,4.804142,43.944396,,False,,True,True,,,,,,,,,,,,,,,,,,,True,,,,,,,,,,,90,,True,,,,,,,,,,,,,,,,,,,,,,,,,False,True,True,,,,,https://acceslibre.beta.gouv.fr/app/84-avignon/a/theatre/erp/11-gilgamesh-belleville/
e62a802f-efea-4eb6-b64c-dc3b51227e53,11 MICHEL DE L'HOSPITAL,63000,Clermont-Ferrand,11,place Michel de l'Hospital,,63113,,Hôpital,,,3.089554,45.777483,,True,True,,,,,,,,,,,,,,,,,,,,,True,,,,,,,,,,,90,,True,,,,,,,,,,,,,,,,,,,,,,,,,,,,,,,,https://acceslibre.beta.gouv.fr/app/63-clermont-ferrand/a/hopital/erp/11-michel-de-lhospital/
f33a851b-26d5-408b-a873-282b33ee48f0,11 th BARBER AVENUE,68100,Mulhouse,11,Rue des Bons Enfants,,68224,,Coiffure,,,7.336871,47.747784,,,,,,,,,,,,,,,,,,,,,,,,True,,,,,,,,,,,90,,True,,,,,,,,,,,,,,,,,,,,,,,,,,,,,,,,https://acceslibre.beta.gouv.fr/app/68-mulhouse/a/coiffure/erp/11-th-barber-avenue/
d839ed22-f8b1-45c1-8ed1-b4e9dfcc651d,1205 quai des moulins Sete,34200,Sète,,,Pont Virla,34301,,Droguerie,,,3.696442,43.406806,,True,True,,,,,,,,,,,,,,,,,,,,,True,,,,,,,,,,,90,,True,,,,,,,,,,,,,,,,,,,,,,,,,,,,,,,,https://acceslibre.beta.gouv.fr/app/34-sete/a/droguerie/erp/1205-quai-des-moulins-sete/
89767607-3e0b-4765-a135-dd28ce06debb,120 et une Fleurs,59490,Somain,121,Rue Pasteur,,59574,,Fleuriste,,http://120etunefleurs.com/,3.277391,50.36503,,True,True,,,,,,,,,,,,,,,,,,,,,True,,,,,,,,,,,90,,True,,,,,,,,,,,,,,,,,,,,,,,,,,,,,,,,https://acceslibre.beta.gouv.fr/app/59-somain/a/fleuriste/erp/120-et-une-fleurs/
216b4058-593f-4e07-93a8-6607ebceb101,12/10E LES OPTICIENS LUNETIERS,42350,La Talaudière,14,Rue de la République,,42305,,Opticien,,,4.433497,45.481507,,True,True,,,,,,,,,,,,,,,,,,,,,True,,,,,,,,,,,90,,True,,,,,,,True,"[""lsf"", ""lpc"", ""sts""]",,,,,,,,,,,,,,,,,,,,,,,,https://acceslibre.beta.gouv.fr/app/42-la-talaudiere/a/optique/erp/1210e-les-opticiens-lunetiers-3/
bc1ee54d-09be-4df6-b71c-976868058afb,12/10 Une vision d'expert,41100,Vendôme,11,Place Saint-Martin,,41269,,Opticien,,https://www.12sur10-opticien.fr/,1.066597,47.791579,,True,True,,,,,,,,,,,,,,,,,,,,,True,,,,,,,,,,,90,,True,,,,,,,,,True,,,,,,,,,,,,,,,,False,,,,,,,https://acceslibre.beta.gouv.fr/app/41-vendome/a/optique/erp/1210-une-vision-dexpert/
08300b4f-8ec7-46d4-964b-dadb3a20d4c2,1217,69620,Theizé,,Rue Bourricand,,69246,38151984200011,Restaurant,,https://www.chateaudebagnols.com/fr,4.618609,45.938822,,True,True,,,,,,,,,,,,,,,,,,,,,True,,,,,,,,,,,90,,,,,,,,,,,True,,,,,,,,,,,,,,,,False,True,True,,,,,https://acceslibre.beta.gouv.fr/app/69-theize/a/restaurant/erp/1217/
19a579f7-19b6-48b4-9793-1347f9667bef,121 rue edmond fariat,10000,Troyes,121,Rue Edmond Fariat,,,,Animalerie,,,4.105719029903413,48.28715873205558,True,False,,True,,True,True,True,,,,,,,True,légère,,aucun,False,False,True,True,True,False,False,1,False,False,aucune,montant,True,"[""bouton""]",False,False,,False,True,battante,manuelle,True,non-formés,False,,False,,True,,,,,,,,,,,,,,,,False,False,,,,,True,https://acceslibre.beta.gouv.fr/app/10-troyes/a/animalerie/erp/121-rue-edmond-fariat/
ffc0b8da-c329-4a7d-8f83-1ceeb8a9d807,122 Blvd du Montparnasse Garage,75014,Paris,122,Boulevard du Montparnasse,,75114,,Carrosserie,,,2.331031,48.841319,,True,True,,,,,,,,,,,,,,,,,,,,,True,,,,,,,,,,,90,,True,,,,,,,,,,,,,,,,,,,,,,,,,,,,,,,,https://acceslibre.beta.gouv.fr/app/75-paris/a/carrosserie/erp/122-blvd-du-montparnasse-garage/
999e3dce-1f28-48d9-ac58-f57f7e105635,1 2 3,40100,Dax,54,Rue des Carmes,,40088,,Vêtements,,,-1.0540249688417247,43.709021942267924,False,False,,True,True,False,,,,,,,,,,,,,,,True,True,True,True,,,,,,,False,,False,True,120,False,True,battante,manuelle,True,non-formés,,,False,,True,,,,,,,,,,,,,,,,False,False,,,,,,https://acceslibre.beta.gouv.fr/app/40-dax/a/vetements-sous-vetements-lingerie/erp/1-2-3/
2f30f6c1-de15-445c-a5af-28318eeaa59b,"1,2,3",12000,Rodez,28,Place du Bourg,,12202,,Accessoires,,,2.575727,44.348537,True,,,True,True,,,,,,,,,,,,,,,,True,True,True,True,,,,,,,,,,,100,,True,battante,manuelle,True,,,,,,True,,,,,,,,,,,,,,,,,,,,,,,https://acceslibre.beta.gouv.fr/app/12-rodez/a/accessoires/erp/123/
41aaee5c-15b4-4739-82e6-95972221fa7a,1.2.3.,34000,MONTPELLIER,,LE POLYGONE,LOT 303 CEDEX 0146,,,Vêtements,,,3.88392984867096,43.608829849485964,True,True,True,True,,True,True,False,True,,,,,aucune,False,,,aucun,False,,True,,,True,,,,,,,False,,,,,False,False,,,,,,,,,True,,,,,,,,,,,,,,,,False,False,,,,,,https://acceslibre.beta.gouv.fr/app/34-montpellier/a/vetements-sous-vetements-lingerie/erp/123-2/
0964c53c-c436-4ffd-8e58-f2d098a5cf5c,1.2.3.,78140,VELIZY-VILLACOUBLAY,2,Avenue DE L EUROPE,VELIZY 2 - LOT 254,,,Vêtements,,,2.219852507114411,48.78032713065491,True,False,,True,True,True,True,False,True,,,,,aucune,False,,,aucun,,False,True,,,True,,,,,,,False,,,,,False,False,,,,,,,,,True,,,,,,,,,,,,,,,,False,False,,,,,,https://acceslibre.beta.gouv.fr/app/78-velizy-villacoublay/a/vetements-sous-vetements-lingerie/erp/123-4/
a9415f5b-3921-4c19-92b3-096c0f32dc61,1.2.3.,78150,LE CHESNAY-ROCQUENCOURT,2,Avenue CHARLES DE GAULLE,CORNER PRINTEMPS CC PARLY 2,,,Vêtements,,,2.117601335048676,48.82678916566684,True,False,,True,True,True,True,False,True,,,,,aucune,False,,,aucun,True,False,True,,,True,,,,,,,False,,,,,False,False,,,,,,,,,True,,,,,,,,,,,,,,,,False,False,,,,,,https://acceslibre.beta.gouv.fr/app/78-le-chesnay-rocquencourt/a/vetements-sous-vetements-lingerie/erp/123-3/
2d1fdf09-46f9-4d80-81e1-8fa14a44e023,123,51100,Reims,71,rue de Vesle,,51454,,Vêtements,,,4.027956426143647,49.253076114669824,,False,,,,False,,,,,,,,,,,,,,,True,,,,,,,,,,,,,,,,True,,,True,,,,,,,,,,,,,,,,,,,,,,,False,,,,,,https://acceslibre.beta.gouv.fr/app/51-reims/a/vetements-sous-vetements-lingerie/erp/123-5/
22996ee0-c17e-4c08-a1f7-67f7c3e9c1c1,1.2.3€ HALAL,13001,Marseille,4,Rue du marche des capucins,,13201,,Boucherie / commerce de viande,,,5.379647,43.296413,,True,True,,,,,,,,,,,,,,,,,,,,,True,,,,,,,,,,,90,,True,,,,,,,,,,,,,,,,,,,,,,,,,,,,,,,,https://acceslibre.beta.gouv.fr/app/13-marseille/a/boucherie/erp/123-halal/
939e7d2f-2bcf-44d9-bb49-f1404dcdb02b,123 Applications,75010,Paris,9,Rue de Paradis,,,,Artisanat,https://www.123applications.com/,https://www.123applications.com/,2.35414,48.874568,True,False,,True,True,True,True,False,False,,False,montant,False,aucune,False,,,aucun,False,True,False,True,True,True,,,,,,,True,"[""bouton""]",True,True,90,False,True,battante,manuelle,True,aucun,False,,,,False,False,0,False,False,aucune,,,,,,,,,,,True,False,,,,,,https://acceslibre.beta.gouv.fr/app/75-paris/a/artisanat/erp/123-applications-sarl/
26544ddf-af2c-48c5-8a0d-b548f2ea9383,"1,2,3 AutoService",77169,Boissy-le-Châtel,2,Rue de Rebais,,77042,,Carrosserie,,https://www.123autoservice.fr/nos-garages/ile-de-france/seine-et-marne/boissy-le-chatel/?utm_source=gmb,3.13773,48.822838,,True,True,,,,,,,,,,,,,,,,,,,,,True,,,,,,,,,,,90,,True,,,,,,,,,,,,,,,,,,,,,,,,,,,,,,,,https://acceslibre.beta.gouv.fr/app/77-boissy-le-chatel/a/carrosserie/erp/123-autoservice-5/
f40aa1a3-9be1-4a74-9752-1aef24f39eeb,"1,2,3 AutoService",72210,La Suze-sur-Sarthe,,Chemin des Trunetieres,,72346,,Carrosserie,,https://www.idgarages.com/garage-la-suze-sur-sarthe/garage-bommert-menard/?utm_source=gmb,0.044479,47.89457,,True,True,,,,,,,,,,,,,,,,,,,,,True,,,,,,,,,,,90,,True,,,,,,,,,,,,,,,,,,,,,,,,,,,,,,,,https://acceslibre.beta.gouv.fr/app/72-la-suze-sur-sarthe/a/carrosserie/erp/123-autoservice/
9b95f700-8c74-4d14-a97e-637dba9146a3,"1,2,3 AutoService",54000,Nancy,15,Rue de la Madeleine,,54395,,Carrosserie,,https://www.idgarages.com/garage-nancy/garage-chardon/%3Futm_source%3Dgmb,6.193391,48.679878,,True,True,,,,,,,,,,,,,,,,,,,,,True,,,,,,,,,,,90,,True,,,,,,,,,,,,,,,,,,,,,,,,,,,,,,,,https://acceslibre.beta.gouv.fr/app/54-nancy/a/carrosserie/erp/123-autoservice-2/
189e986c-6a81-4575-9d34-6ef198e0db24,"1,2,3 AutoService",49130,Les Ponts-de-Cé,25,Rue Paul Pousset,,49246,,Carrosserie,,https://www.123autoservice.fr/nos-garages/pays-de-la-loire/maine-et-loire/les-ponts-de-ce/?utm_source=gmb,-0.506978,47.435324,,True,True,,,,,,,,,,,,,,,,,,,,,True,,,,,,,,,,,90,,True,,,,,,,,,,,,,,,,,,,,,,,,,,,,,,,,https://acceslibre.beta.gouv.fr/app/49-les-ponts-de-ce/a/carrosserie/erp/123-autoservice-3/
1d6b6ac5-0deb-4d88-b50d-e940849dfe8f,"1,2,3 AutoService",80600,Doullens,76,Avenue Flandres Dunkerque,,80253,,Carrosserie,,https://www.123autoservice.fr/nos-garages/hauts-de-france/somme/doullens/?utm_source=gmb,2.354878,50.161458,,True,True,,,,,,,,,,,,,,,,,,,,,True,,,,,,,,,,,90,,True,,,,,,,,,,,,,,,,,,,,,,,,,,,,,,,,https://acceslibre.beta.gouv.fr/app/80-doullens/a/carrosserie/erp/123-autoservice-4/
866caccb-6594-403d-8bca-19013ffef151,"1,2,3 AutoService /Autosmile 92",92600,Asnières-sur-Seine,14bis,Rue Franklin,,92004,,Carrosserie,,https://www.idgarages.com/garage-asnieres-sur-seine/garage-autosmile-92/%3Futm_source%3Dgmb,2.282557,48.907914,,True,True,,,,,,,,,,,,,,,,,,,,,True,,,,,,,,,,,90,,True,,,,,,,,,,,,,,,,,,,,,,,,,,,,,,,,https://acceslibre.beta.gouv.fr/app/92-asnieres-sur-seine/a/carrosserie/erp/123-autoservice-autosmile-92/
032b4079-afdc-4b95-8212-9f2292b6eeee,123 auto service Garage de Verzy,51380,Verzy,33,Rue de Villers,,51614,,Carrosserie,,https://www.motorcraft.fr/garage-marne-verzy-51380-RAM456.html,4.166998,49.145183,,True,True,,,,,,,,,,,,,,,,,,,,,True,,,,,,,,,,,90,,True,,,,,,,,,,,,,,,,,,,,,,,,,,,,,,,,https://acceslibre.beta.gouv.fr/app/51-verzy/a/carrosserie/erp/123-auto-service-garage-de-verzy/
b982124a-5e7b-4a71-9d74-be64c9909c30,123 Cash,91100,Corbeil-Essonnes,2,Rue Jean Cocteau,,91174,,Jeux vidéo,,,2.448014,48.60971,,True,True,,,True,True,True,,,,,,,,,,,,False,,,,True,,,,,,,,,,,,,,,,,,,,,,,,,,,,,,,,,,,,,,,True,False,,,,,https://acceslibre.beta.gouv.fr/app/91-corbeil-essonnes/a/jeux-video/erp/123-cash/
6bd635a0-e6e9-47fe-bea1-2afd999dfb66,123 Ciseaux,75017,Paris,10,Boulevard de Courcelles,,75117,,Coiffure,,http://www.123ciseaux.com/,2.314129,48.881212,False,False,,True,,False,,,,,,,,,,,,,,,True,True,True,False,False,1,False,False,aucune,montant,False,,False,True,90,,True,battante,manuelle,True,non-formés,,,,,True,,,,,,,,,,,,,,,,False,,,,,,,https://acceslibre.beta.gouv.fr/app/75-paris/a/coiffure/erp/123-ciseaux/
55367c4a-033e-4eda-b6f3-2dd8b936b5e0,123 Cloture,59175,Vendeville,12,Rue de Seclin,,59609,,Commerce,,,3.082719,50.577095,,True,True,,,True,True,True,,,,,,,,,,,,False,,,,True,,,,,,,,,,,,,,,,,,,,,,,,,,,,,,,,,,,,,,,False,,,,,,https://acceslibre.beta.gouv.fr/app/59-vendeville/a/commerce/erp/123-cloture/
46aad53b-a601-4e2f-b919-4ce91a61ff99,123 CONDUITE AUTO- ECOLE,79000,Niort,19bis,Rue Laurent Bonnevay,,79191,,Auto école,,,-0.478629,46.314545,,True,True,,,,,,,,,,,,,,,,,,,,,,,,,,,,,,,,,,True,,,,,,,,,,,,,,,,,,,,,,,,,,,,,,,,https://acceslibre.beta.gouv.fr/app/79-niort/a/auto-ecole/erp/123-conduite-auto-ecole/
96f1a442-a5be-4e01-8920-cb1d17f05320,123coworking,45100,Orléans,7,Rue Michel Royer,,45234,,Coworking,,,1.899038,47.888514,,True,True,,,,,,,,,,,,,,,,,,,,,True,,,,,,,,,,,90,,True,,,,,,,,,,,,,,,,,,,,,,,,,,,,,,,,https://acceslibre.beta.gouv.fr/app/45-orleans/a/coworking/erp/123coworking/
c2f9eb40-ab23-4911-b622-efdced98247f,1.2.3 Esthétique,17130,Montendre,6,Grande Rue,,17240,,"Soins de beauté, esthétique",,,-0.409686,45.284874,,True,True,,,,,,,,,,,,,,,,,,,,,,,,,,,,,,,,,,True,,,,,,,,,,,,,,,,,,,,,,,,,,,,,,,,https://acceslibre.beta.gouv.fr/app/17-montendre/a/soins-de-beaute/erp/123-esthetique/
bb8ec543-9f71-429f-8425-19f663a8affc,123Express,71100,Chalon-sur-Saône,5,Avenue Jean Jaures,,71076,,Restauration rapide,,https://www.123express.fr/,4.845673,46.782529,,True,True,,,,,,,,,,,,,,,,,,,,,True,,,,,,,,,,,90,,True,,,,,,,,,,,,,,,,,,,,,,,,,False,,,,,,,https://acceslibre.beta.gouv.fr/app/71-chalon-sur-saone/a/restauration-rapide/erp/123express/
e826544a-2056-420b-bf1f-8469707f764c,123 garage,12850,Onet-le-Château,,Boulevard des Capucines,,12176,,Garage automobile,,,2.59539,44.366637,True,,,True,True,True,True,True,,,,,,,,,,,,,True,False,,True,,,,,,,,,,,,,True,coulissante,automatique,True,,,,,,True,,,,,,,,,,,,,,,,,,,,,,,https://acceslibre.beta.gouv.fr/app/12-onet-le-chateau/a/garage/erp/123-garage/
4a95dc61-35e5-4973-819f-372d4a1288c1,123home - Loft & Spa,77144,Montévrain,5,Rue de Prague,,77307,,Hôtel,,,2.763202,48.854054,,,,,,,,,,,,,,,,,,,,,,,,True,,,,,,,,,,,80,,True,,,,,,,,,,,,,,,,1,,,,,,,,,,,,,,,,https://acceslibre.beta.gouv.fr/app/77-montevrain/a/hotel/erp/123home-loft-spa/
fb7afef6-2275-4d92-90cd-0bc8ecd27dba,123home- Suite & spa XL,77144,Montévrain,8,Allée de Dublin,,77307,,Hôtel,,,2.766048,48.854727,,,,,,,,,,,,,,,,,,,,,,,,True,,,,,,,,,,,80,,True,,,,,,,,,,,,,,,,1,,,,,,,,,,,,,,,,https://acceslibre.beta.gouv.fr/app/77-montevrain/a/hotel/erp/123home-suite-spa-xl/
e1cd7068-90cd-4bc4-93c0-274717e71eed,123 Informatique,74800,La Roche-sur-Foron,32,Rue perrine,,74224,,Informatique,,,6.3115301728248605,46.065783395897,False,,,True,True,False,,,,,,,,,,,,,,,True,True,True,False,False,1,False,False,aucune,descendant,False,,False,True,80,False,True,battante,manuelle,True,,,,False,,True,,,,,,,,,,,,,,,,False,False,,,,,,https://acceslibre.beta.gouv.fr/app/74-la-roche-sur-foron/a/informatique/erp/123-informatique/
0b0e99a9-8696-43b8-ab3d-55246d10bca1,1-2-3 Massage - bien-être - suédosportif(r) et deep tissue,58000,Nevers,21,Rue Antony Duvivier,,58194,,Massages,,,3.168319,46.992347,,True,True,,,True,True,True,,,,,,,,,,,,False,,,,False,,1,,,aucune,montant,,,,,,,,,,,,,,,,,,,,,,,,,,,,,,,,,True,True,,,,,https://acceslibre.beta.gouv.fr/app/58-nevers/a/massages/erp/1-2-3-massage-bien-etre-suedosportifr-et-deep-tissue/
6ce74c8d-861e-4701-ba49-fce6df54673e,123 Optika,13015,Marseille,99,Boulevard oddo,,13215,,Opticien,,,5.36492,43.32911,,,,,,,,,,,,,,,,,,,,,,,,True,,,,,,,,,,,90,,True,,,,,,,,,,,,,,,,,,,,,,,,,,,,,,,,https://acceslibre.beta.gouv.fr/app/13-marseille/a/optique/erp/123-optika/
38a4bc0f-5c9f-4a20-a7eb-2b725e51ba93,1 2 3 Pare-Brise,74330,Epagny Metz-Tessy,161,Avenue des Alpes,,74112,,Garage automobile,,,6.077163455984191,45.936095768951866,True,True,,True,True,False,,,,,,,,,,,,,,,True,True,True,True,,,,,,,False,,,True,140,False,True,coulissante,automatique,True,,,,,,True,,,,,,,,,,,,,,,,False,False,,,,,,https://acceslibre.beta.gouv.fr/app/74-epagny-metz-tessy/a/garage/erp/1-2-3-pare-brise/
2acc0a53-8429-41ad-b519-e977fda7d6df,1.2.3 Permis,94500,Champigny-sur-Marne,45,Rue Alexandre Fourny,,94017,,Auto école,,,2.519029,48.818952,,True,True,,,,,,,,,,,,,,,,,,,,,True,,,,,,,,,,,90,,True,,,,,,,,,,,,,,,,,,,,,,,,,,,,,,,,https://acceslibre.beta.gouv.fr/app/94-champigny-sur-marne/a/auto-ecole/erp/123-permis/
cb7608be-1464-44dd-a664-98575691f02f,123 plongez,38200,Vienne,2,Rue Victor Hugo,,38544,,"Piscine, centre aquatique",,https://www.123plongez.fr/,4.878079,45.525982,,True,True,,,,,,,,,,,,,,,,,,,,,,,,,,,,,,,,,,True,,,,,,,,,,,,,,,,,,,,,,,,,,,,,,,,https://acceslibre.beta.gouv.fr/app/38-vienne/a/piscine/erp/123-plongez/
ed865524-b7b2-4ca2-ae71-5896e63e60de,"1, 2, 3, Soleil",44380,Pornichet,143,Avenue du Général De Gaulle,,44132,,Jeux jouets,,,-2.339466,47.261141,,,,True,True,False,,,,,,,,,,,,,,,True,True,False,True,,,,,,,,,,,90,,True,battante,manuelle,,,,,,,,,,,,,,,,,,,,,,,,False,,,,,,https://acceslibre.beta.gouv.fr/app/44-pornichet/a/jeux-jouets/erp/1-2-3-soleil/
2d767388-fd7a-4cac-9ddf-b14822a4fa9e,123 Véto Clinique Vétérinaire,44160,Pontchâteau,32,Rue du Vélodrome,,44129,,Vétérinaire,,https://123-veto.fr/,-2.077244,47.432358,,True,True,,,,,,,,,,,,,,,,,,,,,True,,,,,,,,,,,90,,True,,,,,,,,,,,,,,,,,,,,,,,,,,True,True,,,,,https://acceslibre.beta.gouv.fr/app/44-pontchateau/a/veterinaire/erp/123-veto-clinique-veterinaire/
de9b1618-b28d-4360-a679-5efd6a0136a4,123 webimmo Calvi,20214,Calenzana,7,Rue de l’Eveche,,2B049,,Agence immobilière,,https://www.123webimmo.com/agences/agence-de-calvi-et-balagne,8.8562,42.507316,,,,,,,,,,,,,,,,,,,,,,,,,,,,,,,,,,,,,True,,,,,,,,,,,,,,,,,,,,,,,,,,,,,,,,https://acceslibre.beta.gouv.fr/app/2b-calenzana/a/agence-immobiliere/erp/123-webimmo-calvi/
3aa7986e-a006-4355-bc4b-5119cc7981b8,123webimmo.com,37000,Tours,,Rue des 4 Vents,,37261,,Agence immobilière,,https://www.123webimmo.com/agences/agence-de-tours,0.678435,47.395287,,,,,,,,,,,,,,,,,,,,,,,,,,,,,,,,,,,,,True,,,,,,,,,,,,,,,,,,,,,,,,,,,,,,,,https://acceslibre.beta.gouv.fr/app/37-tours/a/agence-immobiliere/erp/123webimmocom-5/
e8f7d61f-93db-4454-a28c-de8f7c1011a2,123webimmo.com,91090,Lisses,18,Rue des Cerisiers,,91340,,Agence immobilière,,https://www.123webimmo.com/agences/agence-centre-essonne,2.432921,48.593988,,True,True,,,,,,,,,,,,,,,,,,,,,,,,,,,,,,,,,,True,,,,,,,,,,,,,,,,,,,,,,,,,,,,,,,,https://acceslibre.beta.gouv.fr/app/91-lisses/a/agence-immobiliere/erp/123webimmocom/
c50f8b13-9c6c-4374-a80b-25ce8588eb93,123webimmo.com,85520,Jard-sur-Mer,65bis,Rue de l'océan,,85114,,Agence immobilière,,https://www.123webimmo.com/agences/agence-de-vendee-sud,-1.576937,46.414746,,True,True,,,,,,,,,,,,,,,,,,,,,True,,,,,,,,,,,90,,True,,,,,,,,,True,,,,,,,,,,,,,,,,False,,,,,,,https://acceslibre.beta.gouv.fr/app/85-jard-sur-mer/a/agence-immobiliere/erp/123webimmocom-2/
2219e42f-a260-4419-803c-bbba7ddc6ca0,123webimmo.com,37000,Tours,109,Rue d'Entraigues,,37261,,Agence immobilière,,https://www.123webimmo.com/agences/agence-de-tours,0.681848,47.387028,,,,,,,,,,,,,,,,,,,,,,,,,,,,,,,,,,,,,True,,,,,,,,,,,,,,,,,,,,,,,,,,,,,,,,https://acceslibre.beta.gouv.fr/app/37-tours/a/agence-immobiliere/erp/123webimmocom-3/
a5f77111-ee4e-40ff-be14-cf322d343482,123webimmo.com,02000,Chambry,,Rue Jean Jaurès,,02157,,Agence immobilière,,https://www.123webimmo.com/agences/agence-de-laon,3.65558,49.591969,,True,True,,,,,,,,,,,,,,,,,,,,,True,,,,,,,,,,,90,,True,,,,,,,,,,,,,,,,,,,,,,,,,,,,,,,,https://acceslibre.beta.gouv.fr/app/02-chambry/a/agence-immobiliere/erp/123webimmocom-4/
9bec6b13-dcea-47f4-b0be-8c534f118eb7,123webimmo.com Alpilles Vaucluse et Pays d'Arles,13690,Graveson,202,Chemin de L'Ermitan,,13045,,Agence immobilière,,https://123webimmo.com/AlpillesetPaysdArles,4.772006,43.84621,,True,True,,,,,,,,,,,,,,,,,,,,,,,,,,,,,,,,,,True,,,,,,,,,,,,,,,,,,,,,,,,,,,,,,,,https://acceslibre.beta.gouv.fr/app/13-graveson/a/agence-immobiliere/erp/123webimmocom-alpilles-vaucluse-et-pays-darles/
075de904-aa10-4277-a1d0-c46640365ab0,123webimmo.com Pays Viennois,38780,Pont-Évêque,45,Rue Louis Breguet,,38318,,Agence immobilière,,https://123webimmo.com/Vienne-et-ses-environs,4.925451,45.519917,,True,True,,,,,,,,,,,,,,,,,,,,,,,,,,,,,,,,,,True,,,,,,,,,,,,,,,,,,,,,,,,,,,,,,,,https://acceslibre.beta.gouv.fr/app/38-pont-eveque/a/agence-immobiliere/erp/123webimmocom-pays-viennois/
61a08246-9936-4a19-ac0e-44b4f57e9ab2,123webimmo.com Poitou-Charentes,86360,Chasseneuil-du-Poitou,10,Chemin de Chandon,,86062,,Agence immobilière,,http://123webimmo.com/,0.369426,46.651531,,True,True,,,,,,,,,,,,,,,,,,,,,True,,,,,,,,,,,90,,True,,,,,,,,,True,,,,,,,,,,,,,,,,False,True,True,,,,,https://acceslibre.beta.gouv.fr/app/86-chasseneuil-du-poitou/a/agence-immobiliere/erp/123webimmocom-poitou-charentes/
e373c827-80c7-4590-bd24-b4dcfe379126,123webimmo.com Sèvremont,85700,Sèvremont,3,Place du commerce,,85090,,Agence immobilière,,https://123webimmo.com/La%20Flocelli%C3%A8re,-0.861645,46.831704,,True,True,,,,,,,,,,,,,,,,,,,,,,,,,,,,,,,,,,True,,,,,,,,,,,,,,,,,,,,,,,,,,,,,,,,https://acceslibre.beta.gouv.fr/app/85-sevremont/a/agence-immobiliere/erp/123webimmocom-sevremont/
4441d891-8da5-4b90-8c58-5bf28f04eed6,123webimmo Côtes d'Armor,22150,Plœuc-L'Hermitage,27b,Rue des Ecoles,,22203,,Agence immobilière,,https://www.123webimmo.com/agences/agence-de-tregor-goelo,-2.750157,48.346855,,True,True,,,,,,,,,,,,,,,,,,,,,,,,,,,,,,,,,,True,,,,,,,,,,,,,,,,,,,,,,,,,,,,,,,,https://acceslibre.beta.gouv.fr/app/22-pluc-lhermitage/a/agence-immobiliere/erp/123webimmo-cotes-darmor/
e03cb563-f9b8-4548-9afc-0dab7a01d07f,123webimmo LES TOITS DE PROVENCE,83340,Le Thoronet,379,Route de Lorgues,,83136,,Agence immobilière,,http://www.123webimmo.com/,6.310956,43.452068,,True,True,,,,,,,,,,,,,,,,,,,,,,,,,,,,,,,,,,True,,,,,,,,,,,,,,,,,,,,,,,,,,,,,,,,https://acceslibre.beta.gouv.fr/app/83-le-thoronet/a/agence-immobiliere/erp/123webimmo-les-toits-de-provence/
72726295-67d9-423b-97f9-4c1828e188f5,123webimmo Romuald Dhennin,22300,Lannion,3,Rue Louis-Marie Baader,,22113,,Agence immobilière,,,-3.473932,48.729456,,False,,True,True,,,,,,,,,,,,,,,,,,,True,,,,,,,,,,,,,,,,,,,,,,,,,,,,,,,,,,,,,,,False,,,,,,https://acceslibre.beta.gouv.fr/app/22-lannion/a/agence-immobiliere/erp/123webimmo-romuald-dhennin/
8ce9f934-dbb2-420e-badd-522812f64436,12.5 parking vélo - cargo - moto - Gouverneur Général Eboué,92130,Issy-les-Moulineaux,84,Rue du Gouverneur Général Eboué,,92040,,Carrosserie,,https://www.douzepointcinq.com/parkings/parking-12-5-general-eboue-84?utm_source=gmap,2.266332,48.825012,,True,True,,,,,,,,,,,,,,,,,,,,,True,,,,,,,,,,,90,,True,,,,,,,,,,,,,,,,,,,,,,,,,,,,,,,,https://acceslibre.beta.gouv.fr/app/92-issy-les-moulineaux/a/carrosserie/erp/125-parking-velo-cargo-moto-gouverneur-general-eboue/
b69b2ef0-007f-4845-9e06-22e3010b1076,128 Avenue,89000,Auxerre,128,Rue de Paris,,89024,,Restauration rapide,,,3.568705,47.799584,,False,,False,,False,,,,,,,,,,,,,,,True,True,False,False,False,1,False,False,,montant,False,,,,80,False,True,battante,manuelle,True,,,,,,True,,,,,,,,,,,,,,,,False,True,True,,,,,https://acceslibre.beta.gouv.fr/app/89-auxerre/a/restauration-rapide/erp/128-avenue/
c6b9b048-4c29-4600-9743-a811c3f1ddf4,12e avenue,03200,Vichy,12,Avenue Aristide Briand,,03310,,Coiffure,,https://www.planity.com/12-avenue-03200-vichy,3.42052,46.121683,,,,,,,,,,,,,,,,,,,,,,,,,,,,,,,,,,,,,True,,,,,,,,,,,,,,,,,,,,,,,,,,,,,,,,https://acceslibre.beta.gouv.fr/app/03-vichy/a/coiffure/erp/12e-avenue/
9c038b46-c9a2-44d3-819b-839afbf16646,12h20,13001,Marseille,12,Rue glandeves,,13201,,Restaurant,,,5.374969,43.293574,False,False,,False,,False,,,,,,,,,,,,,,,True,True,True,False,False,,,,,,False,,False,True,200,False,True,battante,manuelle,True,,,,,,True,,,,,,,,,,,,,,,,False,True,,,,,,https://acceslibre.beta.gouv.fr/app/13-marseille/a/restaurant/erp/12h20/
ee93f398-a930-4105-b1f1-6c7d29289200,12i kebab chatellerault (Halal),86100,Châtellerault,149,Grand Rue de Chateauneuf,,86066,,Restauration rapide,,,0.533883,46.814981,,True,True,,,,,,,,,,,,,,,,,,,,,True,,,,,,,,,,,90,,True,,,,,,,,,,,,,,,,,,,,,,,,,False,True,True,,,,,https://acceslibre.beta.gouv.fr/app/86-chatellerault/a/restauration-rapide/erp/12i-kebab-chatellerault-halal/
1959c1df-8590-444d-b362-ae863c51f94c,12th Avenue,34200,Sète,12,Avenue Victor Hugo,,34301,,Coiffure,,http://www.facebook.com/coiffure12thavenue/?rf=1049618448508793,3.698497,43.407911,,True,True,,,,,,,,,,,,,,,,,,,,,True,,,,,,,,,,,90,,True,,,,,,,,,,,,,,,,,,,,,,,,,,,,,,,,https://acceslibre.beta.gouv.fr/app/34-sete/a/coiffure/erp/12th-avenue-2/
37a5ae5b-1a4b-49bd-9f25-7c71efac975b,12'Th Avenue,12000,Rodez,12,Rue Louis Oustry,,12202,,Coiffure,,,2.576142,44.350089,True,,,True,True,,,,,,,,,,,,,,,,True,True,True,True,,,,,,,,,,,90,,True,battante,manuelle,False,,,,,,,,,,,,,,,,,,,,,,,,,,,,,https://acceslibre.beta.gouv.fr/app/12-rodez/a/coiffure/erp/12th-avenue/
a40dcc8d-de6f-4440-9d6a-311f175df2f0,12th Square Barber Tourny,33000,Bordeaux,28,Rue Huguerie,,33063,,Coiffure,,https://www.12thsquarebarber.com/,-0.579669,44.844592,,,,,,,,,,,,,,,,,,,,,,,,True,,,,,,,,,,,90,,True,,,,,,,,,,,,,,,,,,,,,,,,,,,,,,,,https://acceslibre.beta.gouv.fr/app/33-bordeaux/a/coiffure/erp/12th-square-barber-tourny/
a82716db-7e10-4d3d-b1e7-534a04afecb8,12th Square Barber Victoire,33000,Bordeaux,54,Cours Aristide Briand,,33063,,Coiffure,,http://www.12thsquarebarber.com/,-0.576869,44.831854,,,,,,,,,,,,,,,,,,,,,,,,True,,,,,,,,,,,90,,True,,,,,,,,,,,,,,,,,,,,,,,,,,,,,,,,https://acceslibre.beta.gouv.fr/app/33-bordeaux/a/coiffure/erp/12th-square-barber-victoire/
97458efd-4470-4386-b232-30fa1364e485,12th StreetCut,84120,Pertuis,12,Cours de la République,,84089,,Coiffure,,https://www.planity.com/street-cut-z-84120-pertuis?fbclid=PAAabDpRtCizDK20Q5TIbfjMWCOhc7ae3-fj50fC98vwDPy5gtxN9qvTWxYVk,5.501161,43.69328,,True,True,,,,,,,,,,,,,,,,,,,,,True,,,,,,,,,,,90,,True,,,,,,,,,,,,,,,,,,,,,,,,,,,,,,,,https://acceslibre.beta.gouv.fr/app/84-pertuis/a/coiffure/erp/12th-streetcut/
5b09ff6d-c304-4ae1-8c34-a5ff757e0b0d,1340 Shop'R - Salon de coiffure et Barbier,85000,La Roche-sur-Yon,5,Avenue gambetta,,85191,,Coiffure,,https://www.planity.com/1340-shopr-85000-la-roche-sur-yon,-1.433553,46.672037,,True,True,,,,,,,,,,,,,,,,,,,,,True,,,,,,,,,,,90,,True,,,,,,,,,,,,,,,,,,,,,,,,,,,,,,,,https://acceslibre.beta.gouv.fr/app/85-la-roche-sur-yon/a/coiffure/erp/1340-shopr-salon-de-coiffure-et-barbier/
331f5a9f-973a-4ce2-a80d-855f67fa2e48,136 AVENUE,69003,Lyon,136,Avenue Félix Faure,,69383,79386975100016,Restaurant,,https://136avenue.com/fr,4.864258,45.754167,,,,,,,,,,,,,,,,,,,,,,,,True,,,,,,,,,,,90,,,,,,,,,,,True,,,,,,,,,,,,,,,,False,,,,,,,https://acceslibre.beta.gouv.fr/app/69-lyon/a/restaurant/erp/136-avenue/
efd3ead8-84ed-4a75-9e65-8c210a57ed25,136 Synergie Immobilière,34070,Montpellier,136,Avenue de Palavas,,34172,,Agence immobilière,,http://www.136.fr/,3.888831,43.594205,,,,,,,,,,,,,,,,,,,,,,,,True,,,,,,,,,,,90,,True,,,,,,,,,,,,,,,,,,,,,,,,,,,,,,,,https://acceslibre.beta.gouv.fr/app/34-montpellier/a/agence-immobiliere/erp/136-synergie-immobiliere/
b27f4749-5f2f-4429-97b2-2dc94c4f419b,13 Auto Service,13005,Marseille,16,Boulevard sainte therese,,13205,,Carrosserie,,,5.409953,43.292408,,True,True,,,,,,,,,,,,,,,,,,,,,True,,,,,,,,,,,90,,True,,,,,,,,,,,,,,,,,,,,,,,,,,,,,,,,https://acceslibre.beta.gouv.fr/app/13-marseille/a/carrosserie/erp/13-auto-service/
ce5a2d30-fb24-402f-9d88-7d10eb5c556f,#13COIFFURE,92110,Clichy,13,Rue Pasteur,,92024,,Coiffure,,,2.300554,48.903206,,,,,,,,,,,,,,,,,,,,,,,,True,,,,,,,,,,,90,,True,,,,,,,,,,,,,,,,,,,,,,,,,,,,,,,,https://acceslibre.beta.gouv.fr/app/92-clichy/a/coiffure/erp/13coiffure/
0e621a47-1ea9-4956-9b49-b49a6e6332c6,13 Esthétique,68620,Bitschwiller-lès-Thann,2,Rue de la Thur,,68040,,"Soins de beauté, esthétique",,,7.082918,47.827554,,True,True,,,,,,,,,,,,,,,,,,,,,,,,,,,,,,,,,,True,,,,,,,,,,,,,,,,,,,,,,,,,,,,,,,,https://acceslibre.beta.gouv.fr/app/68-bitschwiller-les-thann/a/soins-de-beaute/erp/13-esthetique/
08442b06-4619-494f-93a3-91f388b2a7fd,13'IMMO CONSULT,13290,Aix-en-Provence,75,Rue Marcelin Berthelot,,13001,,Agence immobilière,,http://www.13immoconsult.com/,5.369391,43.493235,,,,,,,,,,,,,,,,,,,,,,,,,,,,,,,,,,,,,True,,,,,,,,,,,,,,,,,,,,,,,,,,True,True,,,,,https://acceslibre.beta.gouv.fr/app/13-aix-en-provence/a/agence-immobiliere/erp/13immo-consult/
1b5d2211-573b-47b4-b2f8-75d6663f1041,13 M Avenue,16000,Angoulême,273,Avenue de Navarre,,16015,,Coiffure,,http://www.planity.com/13-m-avenue-16000-angouleme,0.153981,45.634314,,True,True,,,,,,,,,,,,,,,,,,,,,True,,,,,,,,,,,90,,True,,,,,,,,,,,,,,,,,,,,,,,,,,True,True,,,,,https://acceslibre.beta.gouv.fr/app/16-angouleme/a/coiffure/erp/13-m-avenue/
99deed35-85d9-4544-b0a0-779904856660,13 Menthe Basilic,75009,Paris,13,Rue de Clichy,,75109,,Restaurant,,,2.330467,48.877336,,False,,,False,,,,,,,,,,,,,,,,,,,False,,1,,,aucune,montant,,,,,,,,,,,,,,,,,,,,,,,,,,,,,,,,,True,False,,,,,https://acceslibre.beta.gouv.fr/app/75-paris/a/restaurant/erp/13-menthe-basilic/
8d27f923-5b45-4fd7-b76f-8ef9de7cd56e,13 Tattoo,61400,Mortagne-au-Perche,13,Rue Sainte-croix,,61293,,Tatouage Piercing,,,0.546529,48.519992,False,False,,True,,False,,,,,,,,,,,,,,,True,False,,False,False,2,False,False,aucune,montant,False,,False,True,80,False,True,battante,manuelle,True,,,,False,,True,,,,,,,,,,,,,,,,,False,,,,,,https://acceslibre.beta.gouv.fr/app/61-mortagne-au-perche/a/tatouage-piercing/erp/13-tattoo/
b873b51e-0732-4d50-80da-6b8ecdbfcfa6,13Th Avenue Barber Shop | Coiffeur - Barbier,91700,Sainte-Geneviève-des-Bois,13,Avenue Gabriel Péri,,91549,,Coiffure,,,2.316103,48.6523,,,,,,,,,,,,,,,,,,,,,,,,True,,,,,,,,,,,90,,True,,,,,,,,,,,,,,,,,,,,,,,,,,,,,,,,https://acceslibre.beta.gouv.fr/app/91-sainte-genevieve-des-bois/a/coiffure/erp/13th-avenue-barber-shop-coiffeur-barbier/
cb5ba3b3-7910-4a20-8aad-948581ae88b4,14-18 Somme Guided Battlefield Tours,80300,Beaucourt-sur-l'Ancre,5,Rue d'Hamel,,80065,,Office du tourisme,,http://www.14-18sommetours.com/,2.685712,50.079431,,True,True,,,,,,,,,,,,,,,,,,,,,,,,,,,,,,,,,,True,,,,,,,,,,,,,,,,,,,,,,,,,,,,,,,,https://acceslibre.beta.gouv.fr/app/80-beaucourt-sur-lancre/a/office-du-tourisme/erp/14-18-somme-guided-battlefield-tours/
513a0183-5e5e-4a70-93ac-cb5a30c4a211,146 st barber,37550,Saint-Avertin,146,Rue de Cormery,,37208,,Coiffure,,https://www.planity.com/barber-37550-saint-avertin,0.731211,47.358365,,True,True,,,,,,,,,,,,,,,,,,,,,True,,,,,,,,,,,90,,True,,,,,,,,,,,,,,,,,,,,,,,,,,True,True,,,,,https://acceslibre.beta.gouv.fr/app/37-saint-avertin/a/coiffure/erp/146-st-barber/
8b282db8-36d0-4612-a374-14a7ea6a816a,14 Avenue,44500,La Baule-Escoublac,14,Avenue Pavie,,44055,,Restaurant,,https://www.14avenue-labaule.com/,-2.405321,47.282612,True,False,,True,,False,,,,,,,,,,,,,,,True,True,True,True,,,,,,,False,,False,,90,False,True,battante,manuelle,True,,,,,,True,,,,,,,,,,,,,,,,,True,,,,,,https://acceslibre.beta.gouv.fr/app/44-la-baule-escoublac/a/restaurant/erp/14-avenue/
3c88ffe9-29a4-42a4-bb4c-06597e838c17,14 bis,85000,La Roche-sur-Yon,,"Esp. Jeannie Mazurelle,",Médiathèque Benjamin-Rabier,,,Centre d’information et d’orientation,,https://www.larochesuryon.fr/jeunes/,-1.4297112678483084,46.668776668046014,False,True,False,True,True,True,True,True,,,,,,,True,,,aucun,False,False,True,True,True,True,,,,,,,False,,,,90,False,True,coulissante,automatique,True,formés,,,,,True,,,,,,,,,,,,,,,,False,True,True,"[""autre""]","[""auditif"", ""mental"", ""moteur"", ""visuel""]",,True,https://acceslibre.beta.gouv.fr/app/85-la-roche-sur-yon/a/centre-dinformation-et-dorientation/erp/14-bis/
a1436025-2a9b-4a65-9ca6-4250cb97996f,14 rue du Général de Gaulle 55300 LACROIX SUR MEUSE,55300,Lacroix-sur-Meuse,14,Rue du Général de Gaulle,,55268,,Restaurant,,,5.513323,48.972287,,True,True,,,,,,,,,,,,,,,,,,,,,,,,,,,,,,,,,,True,,,,,,,,,,,,,,,,,,,,,,,,,,,,,,,,https://acceslibre.beta.gouv.fr/app/55-lacroix-sur-meuse/a/restaurant/erp/14-rue-du-general-de-gaulle-55300-lacroix-sur-meuse/
c8039b1d-76b2-4687-b429-9db6e8af1dee,14 SALON DE COIFFURE,59320,Sequedin,14,Rue de la Maison Blanche,,59566,,Coiffure,,http://www.14salondecoiffure.com/,2.986901,50.627134,,,,,,,,,,,,,,,,,,,,,,,,,,,,,,,,,,,,,True,,,,,,,,,,,,,,,,,,,,,,,,,,,,,,,,https://acceslibre.beta.gouv.fr/app/59-sequedin/a/coiffure/erp/14-salon-de-coiffure/
21dd93b1-93d4-4587-a3d9-589f1e2306a9,15 Août officiel,11100,Narbonne,14,Boulevard Gambetta,,11262,,Vêtements,,,3.0075582861900334,43.18246528825625,True,False,,True,True,False,,,,,,,,,,,,,,,,True,True,False,,1,False,False,,montant,,,,True,90,False,True,battante,manuelle,True,formés,,,False,,True,,,,,,,,,,,,,,,,True,False,,,,,,https://acceslibre.beta.gouv.fr/app/11-narbonne/a/vetements-sous-vetements-lingerie/erp/15-aout-officiel/
60d39353-4cc5-443e-b192-38f8e2073a9d,15 Au Jardin,91570,Bièvres,15,Rue de Paris,,91064,,Fleuriste,,https://www.sessile.fr/trouvez-votre-fleuriste/15-au-jardin/?utm_source=google_my_business,2.2162851691246037,48.755467297157985,True,False,True,True,,False,,,,,,,,,,,,,,,True,True,True,True,,,,,,,,,,False,90,,True,battante,manuelle,True,non-formés,False,,False,,True,,,,,,,,,,,,,,,,False,False,,,,,,https://acceslibre.beta.gouv.fr/app/91-bievres/a/fleuriste/erp/15-au-jardin/
fa1ee504-a7d3-48e4-a049-97ecf6134aaa,15 Avenue Coiffeur,06380,Sospel,15,Avenue Jean Médecin,,06136,,Coiffure,,,7.447996,43.877774,,True,True,,,,,,,,,,,,,,,,,,,,,,,,,,,,,,,,,,True,,,,,,,,,,,,,,,,,,,,,,,,,,,,,,,,https://acceslibre.beta.gouv.fr/app/06-sospel/a/coiffure/erp/15-avenue-coiffeur/
27b3829b-d0e7-46c8-a8a7-3ded58c22cbb,15th Avenue,01000,Bourg-en-Bresse,15,avenue andré maginot,,01053,,Coiffure,,https://www.planity.com/15th-avenue-01000-bourg-en-bresse,5.227452,46.208169,,,,,,,,,,,,,,,,,,,,,,,,True,,,,,,,,,,,90,,True,,,,,,,,,,,,,,,,,,,,,,,,,,,,,,,,https://acceslibre.beta.gouv.fr/app/01-bourg-en-bresse/a/coiffure/erp/15th-avenue/
7762f6d6-1da1-4a42-8d77-9296d845ea4f,15 Vintimille,75009,Paris,15,Rue de Vintimille,,75109,,"Soins de beauté, esthétique",,https://www.facebook.com/15-Vintimille-Institut-de-Beaut%C3%A9-114653766952929/,2.329422,48.882669,,,,,,,,,,,,,,,,,,,,,,,,,,,,,,,,,,,,,True,,,,,,,,,,,,,,,,,,,,,,,,,,,,,,,,https://acceslibre.beta.gouv.fr/app/75-paris/a/soins-de-beaute/erp/15-vintimille/
0f31002e-856c-4250-9ee9-2ff45c26868c,1601 Coiffure,21121,Ahuy,6,Grande Rue,,21003,,Coiffure,,https://onlinebooking.ikosoft.com/5B1F4C1D3C46854DD54D0004D/FRA/Services/ChooseGender,5.022953,47.369015,,True,True,,,,,,,,,,,,,,,,,,,,,True,,,,,,,,,,,90,,True,,,,,,,,,,,,,,,,,,,,,,,,,,,,,,,,https://acceslibre.beta.gouv.fr/app/21-ahuy/a/coiffure/erp/1601-coiffure/
d19a6231-ef4d-4209-949b-b4e6cdc9e1d9,160 Food,69110,Sainte-Foy-lès-Lyon,160,Rue Commandant Charcot,,,,Restaurant,,,4.786747992038727,45.74582225337878,True,False,,True,True,False,,,,,,,,,,,,,,,True,True,True,True,,,,,,,False,,False,True,,False,True,battante,manuelle,True,,,,False,,True,,,,,,,,,,,,,,,,,True,True,,,,,https://acceslibre.beta.gouv.fr/app/69-sainte-foy-les-lyon/a/restaurant/erp/160-food/
37272d1a-f228-470a-9ea5-f699f424144d,160 FOOD,69005,Lyon,160,Rue Commandant Charcot,,69385,50986911100013,Restauration rapide,,https://160-food.com,4.786784,45.745814,,True,True,,,,,,,,,,,,,,,,,,,,,True,,,,,,,,,,,90,,,,,,,,,,,True,,,,,,,,,,,,,,,,False,,,,,,,https://acceslibre.beta.gouv.fr/app/69-lyon/a/restauration-rapide/erp/160-food-2/
d90e5023-b941-4387-a239-21226d0041fd,1629 Notaires,69001,Lyon,9,Rue du Bat d'Argent,,69381,,Notaire,,,4.835314,45.766165,True,False,,True,True,False,,,,,,,,,,,,,,,True,False,,True,,,,,,,True,"[""interphone""]",False,True,90,False,True,battante,manuelle,False,,,,False,,False,,,,,,montant,,,,,,,,,,False,,,,,,,https://acceslibre.beta.gouv.fr/app/69-lyon/a/notaire/erp/1629-notaires/
45d6b264-1787-44c5-a1ee-8173d7931b2f,164 Sauvage,75012,Paris,164,Rue du Faubourg Saint-Antoine,,75112,,"Café, bar, brasserie",,https://www.tousunpeusauvage.fr/,2.381498515605927,48.85027584943718,True,False,,False,,False,,,,,,,,,,,,,,,True,True,True,True,,,,,,,False,,False,False,180,False,True,battante,manuelle,,non-formés,,,,,,,,,,,,,,,,,,,,,,True,,,,,,https://acceslibre.beta.gouv.fr/app/75-paris/a/cafeteria/erp/164-sauvage/
fa5f58ad-381a-41d3-8f5f-acc3b4bb2d90,167 Avenue Coiffure,33200,Bordeaux,167,Avenue Charles de Gaulle,,33063,,Coiffure,,https://salon-167-avenue-coiffure-33.fr/,-0.606402,44.850791,,,,,,,,,,,,,,,,,,,,,,,,,,,,,,,,,,,,,True,,,,,,,,,,,,,,,,,,,,,,,,,False,,,,,,,https://acceslibre.beta.gouv.fr/app/33-bordeaux/a/coiffure/erp/167-avenue-coiffure/
12c81873-eae3-4223-9fc4-4fa4508d0550,16 Barber,59100,Roubaix,24bis,Rue du Bois,,59512,,Coiffure,,https://instagram.com/16_barber?igshid=OGQ5ZDc2ODk2ZA==,3.169196,50.690478,,,,,,,,,,,,,,,,,,,,,,,,True,,,,,,,,,,,90,,True,,,,,,,,,,,,,,,,,,,,,,,,,,,,,,,,https://acceslibre.beta.gouv.fr/app/59-roubaix/a/coiffure/erp/16-barber/
eff440eb-be0b-4338-b083-fd8ed82a1412,16 bis Coiffure,47700,Casteljaloux,,Boulevard Victor Hugo,,47052,,Coiffure,,,0.088315,44.313458,,True,True,,,,,,,,,,,,,,,,,,,,,True,,,,,,,,,,,90,,True,,,,,,,,,,,,,,,,,,,,,,,,,,,,,,,,https://acceslibre.beta.gouv.fr/app/47-casteljaloux/a/coiffure/erp/16-bis-coiffure/
29159ff3-aba2-4f52-b7db-75d54c900523,16 Electricité,75016,Paris,167,Rue de la Pompe,,75116,,Droguerie,,https://www.16elec.fr/,2.282579,48.870066,,,,,,,,,,,,,,,,,,,,,,,,,,,,,,,,,,,,,True,,,,,,,,,True,,,,,,,,,,,,,,,,False,,,,,,,https://acceslibre.beta.gouv.fr/app/75-paris/a/droguerie/erp/16-electricite/
c584c892-c0b1-4c4c-94be-06efdac7d84c,16th avenue,25000,Besançon,123,rue de belfort,,25056,,Coiffure,,,6.036321,47.25273,,True,True,True,,False,,,,,,,,,,,,,,,False,True,,False,False,1,False,False,aucune,,,,,,90,,True,,manuelle,,,,,,,,,,,,,,,,,,,,,,,,,,,,,,https://acceslibre.beta.gouv.fr/app/25-besancon/a/coiffure/erp/16th-avenue/
8e9607f5-4003-412c-9dd1-6e6b4e3f5d33,1703 Habitacions i cambres per a hostes,66760,Angoustrine-Villeneuve-des-Escaldes,22,Route des Pyrénées,,66005,,"Chambre d'hôtes, gîte, pension, meublé de tourisme",,http://www.1703.cat,1.9598321917061503,42.48297117466703,,False,,,False,,,,,,,,,,,,,,,,,,,False,,1,,,aucune,montant,,,,,,,,,,,,,,,,,,,,,,,6,True,,,,,True,True,False,,True,False,,,,,https://acceslibre.beta.gouv.fr/app/66-angoustrine-villeneuve-des-escaldes/a/pension-gite/erp/1703-habitacions-i-cambres-per-a-hostes/
e4149257-100a-4f01-a412-0a21915bd67e,1717 Institut de beauté Paris,75012,Paris,43,Rue Crozatier,,75112,,"Soins de beauté, esthétique",,https://1717institut.com/,2.380493,48.848089,,,,,,,,,,,,,,,,,,,,,,,,,,,,,,,,,,,,,True,,,,,,,,,,,,,,,,,,,,,,,,,,True,True,,,,,https://acceslibre.beta.gouv.fr/app/75-paris/a/soins-de-beaute/erp/1717-institut-de-beaute-paris/
f1881f0a-41da-47ed-a32d-2334222bf5c3,17.5House of Beauty,83500,La Seyne-sur-Mer,46,Rue Louis Verlaque,,83126,,"Soins de beauté, esthétique",,https://www.planity.com/175-house-of-beauty-83500-la-seyne-sur-mer,5.879533,43.102725,,True,True,,,,,,,,,,,,,,,,,,,,,,,,,,,,,,,,,,True,,,,,,,,,,,,,,,,,,,,,,,,,,,,,,,,https://acceslibre.beta.gouv.fr/app/83-la-seyne-sur-mer/a/soins-de-beaute/erp/175house-of-beauty/
f5550b74-8578-4407-b4f6-d7ff0b8d95bb,1784 Domaine de Lourmarin,84160,Lourmarin,35,Route de Cucuron,,84068,,Hôtel,,,5.376919,43.763608,,True,True,,,,,,,,,,,,,,,,,,,,,,,,,,,,,,,,,,True,,,,,,,,,,,,,,,,1,True,,,,,,,,,,,,,,,https://acceslibre.beta.gouv.fr/app/84-lourmarin/a/hotel/erp/1784-domaine-de-lourmarin/
dac755dd-dcef-4e50-a73b-393c129c6f9d,17e Arts - École de théâtre,75017,Paris,44,Cité des Fleurs,,75117,,Centre culturel,,,2.320721,48.893058,,False,,True,True,,,,,,,,,,,,,,,,,,,True,,,,,,,,,,,,,,,,,,,,,,,,,,,,,,,,,,,,,,,True,False,,,,,https://acceslibre.beta.gouv.fr/app/75-paris/a/centre-culturel/erp/17e-arts-ecole-de-theatre/
085801bf-3940-4d34-8064-61b8a8e12520,17eme Hair,75017,Paris,28,Rue des Acacias,,75117,,Coiffure,,https://www.17emehair.fr/,2.291504,48.876754,,,,,,,,,,,,,,,,,,,,,,,,True,,,,,,,,,,,90,,True,,,,,,,,,,,,,,,,,,,,,,,,,,,,,,,,https://acceslibre.beta.gouv.fr/app/75-paris/a/coiffure/erp/17eme-hair/
6ab35848-c2df-4c7a-b0de-91ed050a1493,"17 Février, Vêtements pour femmes, Prêt-à-Porter Féminin à Colmar",68000,Colmar,,Rue Vauban,,68066,,Vêtements,,,7.361684,48.078756,,False,,True,True,,,,,,,,,,,,,,,,,,,True,,,,,,,,,,,,,,,,,,,,,,,,,,,,,,,,,,,,,,,True,False,,,,,https://acceslibre.beta.gouv.fr/app/68-colmar/a/vetements-sous-vetements-lingerie/erp/17-fevrier-vetements-pour-femmes-pret-a-porter-feminin-a-colmar/
e6777b35-2c12-4bb5-987f-28f9ca7c88b1,17 Immo,17430,Bords,,Rue Saint-Vivien,,17053,,Agence immobilière,,http://www.17immo.fr/,-0.794832,45.896722,,True,True,,,,,,,,,,,,,,,,,,,,,,,,,,,,,,,,,,True,,,,,,,,,,,,,,,,,,,,,,,,,,,,,,,,https://acceslibre.beta.gouv.fr/app/17-bords/a/agence-immobiliere/erp/17-immo-2/
928c5307-6531-4af9-a837-e9ded933f319,17 IMMO,17220,Salles-sur-Mer,1,Rue des Courlis,,17420,,Agence immobilière,,http://www.17immo.com/,-1.075387,46.083341,,True,True,,,,,,,,,,,,,,,,,,,,,,,,,,,,,,,,,,True,,,,,,,,,,,,,,,,,,,,,,,,,,,,,,,,https://acceslibre.beta.gouv.fr/app/17-salles-sur-mer/a/agence-immobiliere/erp/17-immo/
b03b9c8b-a20f-4ca8-af9c-ea705899ce49,17 IMMO,17340,Châtelaillon-Plage,59,Boulevard de la Libération,,17094,,Agence immobilière,,http://www.17immo.com/,-1.089318,46.072218,,True,True,,,,,,,,,,,,,,,,,,,,,,,,,,,,,,,,,,True,,,,,,,,,,,,,,,,,,,,,,,,,,,,,,,,https://acceslibre.beta.gouv.fr/app/17-chatelaillon-plage/a/agence-immobiliere/erp/17-immo-3/
535eba58-7441-4a77-a762-b315d19140bc,17th Barbers - Achères,78260,Achères,17,Avenue Stalingrad,,78005,,Coiffure,,https://www.17th-barbers.com/test/,2.069824,48.961793,,True,True,,,,,,,,,,,,,,,,,,,,,True,,,,,,,,,,,90,,True,,,,,,,,,,,,,,,,,,,,,,,,,,,,,,,,https://acceslibre.beta.gouv.fr/app/78-acheres/a/coiffure/erp/17th-barbers-acheres/
44e975f4-c494-4a3b-b6c5-9c3fa2b380c4,1807 Opel Salon de Provence,13300,Salon-de-Provence,551,Avenue du 22 Août 1944,,,,Concessionnaire automobile,,https://www.allogarage.fr/garages/details-garage-1807-Opel-Salon-de-Provence-26214.html,5.078972,43.63446,True,True,True,True,,True,True,True,,,,,,,False,,,aucun,,,True,True,,True,,,,,,,,,,,,,True,coulissante,automatique,True,,,,,,True,,,,,,,,,,,,,,,,,,,,,,,https://acceslibre.beta.gouv.fr/app/13-salon-de-provence/a/concessionnaire-automobile/erp/1807-opel-salon-de-provence/
4b0d4b7b-5868-40ad-b0bb-e595e40fcb81,1847 Gentlemen's Barber,68100,Mulhouse,12,Rue du Sauvage,,68224,,Coiffure,,https://1847-gentlemens-barber.business.site/?utm_source=gmb,7.341026,47.746476,,,,,,,,,,,,,,,,,,,,,,,,True,,,,,,,,,,,90,,True,,,,,,,,,,,,,,,,,,,,,,,,,,,,,,,,https://acceslibre.beta.gouv.fr/app/68-mulhouse/a/coiffure/erp/1847-gentlemens-barber/
56b91be9-51be-4b88-b6b5-3b44eb412a03,1861 Châtel Hostel,74390,Châtel,,Route de pré la joux,,74063,,Hôtel,,,6.808852,46.249181,,,,,,,,,,,,,,,,,,,,,,,,,,,,,,,,,,,,,True,,,,,,,,,,,,,,,,1,True,,,,,,,,,,,,,,,https://acceslibre.beta.gouv.fr/app/74-chatel/a/hotel/erp/1861-chatel-hostel/
bbce58c8-9322-4208-92ad-cba25a6f4573,1863 PILLON,82500,Beaumont-de-Lomagne,11,Place Gambetta,,82013,,Coiffure,,https://www.coiffure-pillon-1863.fr/,0.988762,43.883069,,True,True,,,,,,,,,,,,,,,,,,,,,,,,,,,,,,,,,,True,,,,,,,,,,,,,,,,,,,,,,,,,,,,,,,,https://acceslibre.beta.gouv.fr/app/82-beaumont-de-lomagne/a/coiffure/erp/1863-pillon/
b654b999-2d40-48dc-8c90-ab4170deec94,1863 PILLON Barbier Montech,82700,Montech,4,Rue de la Mouscane,,82125,,Coiffure,,https://www.coiffure-pillon-1863.fr/,1.242508,43.961957,,True,True,,,,,,,,,,,,,,,,,,,,,True,,,,,,,,,,,90,,True,,,,,,,,,,,,,,,,,,,,,,,,,,True,True,,,,,https://acceslibre.beta.gouv.fr/app/82-montech/a/coiffure/erp/1863-pillon-barbier-montech/
20c7c52a-258a-4334-8421-8f31e141c675,187 Halal Food,68200,Mulhouse,1,Rue Thénard,,68224,,Restauration rapide,,https://www.le187halalfood.fr/,7.328652,47.751116,,,,,,,,,,,,,,,,,,,,,,,,,,,,,,,,,,,,,True,,,,,,,,,,,,,,,,,,,,,,,,,False,True,True,,,,,https://acceslibre.beta.gouv.fr/app/68-mulhouse/a/restauration-rapide/erp/187-halal-food/
c2d031c8-f194-4613-abae-b4a16394ef96,1889 conduite,60100,Creil,4,Rue Jules Michelet,,60175,,Auto école,,http://www.1889conduite.fr/,2.475307,49.261063,,True,True,,,,,,,,,,,,,,,,,,,,,,,,,,,,,,,,,,True,,,,,,,,,,,,,,,,,,,,,,,,,,,,,,,,https://acceslibre.beta.gouv.fr/app/60-creil/a/auto-ecole/erp/1889-conduite/
ed38ad0c-109a-445c-869a-ef2d5efb6130,188 /Residence Antoine Saint Exupery,62136,Lestrem,61,Rue Stephane Hessel,,62502,,Ehpad,,,2.680091,50.618311,,True,True,,,,,,,,,,,,,,,,,,,,,True,,,,,,,,,,,90,,True,,,,,,,,,,,,,,,,,,,,,,,,,,,,,,,,https://acceslibre.beta.gouv.fr/app/62-lestrem/a/ehpad/erp/188-residence-antoine-saint-exupery/
0f522f11-9ad2-4d00-bb1a-fa0951e22d4d,18B,85000,La Roche-sur-Yon,30,Place napoléon,,85191,,Restaurant,,https://www.google.com/url?sa=t&rct=j&q=&esrc=s&source=web&cd=&cad=rja&uact=8&ved=2ahUKEwj24u6x5oj9AhUPTKQEHcazBx0Q_Bd6BAhrEAQ&url=https%3A%2F%2Fwww.facebook.com%2F18bplacenap%2F&usg=AOvVaw37Obv06Z7MA9NW3S8nYexc,-1.4275225996971133,46.670554631141485,True,,,True,True,True,True,True,,,,,,,,,,,,,True,True,True,True,,,,,,,,,,,90,,True,battante,manuelle,True,,,,,,True,,,,,,,,,,,,,,,,,True,,,,,True,https://acceslibre.beta.gouv.fr/app/85-la-roche-sur-yon/a/restaurant/erp/18b/
6f76ec3c-c91e-4950-b9dd-f9e59527380c,18 Coworking,69003,Lyon,18,Rue Servient,,69383,,Coworking,,http://18coworking.com/,4.842854,45.759904,,,,,,,,,,,,,,,,,,,,,,,,,,,,,,,,,,,,,True,,,,,,,,,,,,,,,,,,,,,,,,,,,,,,,,https://acceslibre.beta.gouv.fr/app/69-lyon/a/coworking/erp/18-coworking/
ab505078-6737-40fb-9d83-9647f76d4990,19 29 Coiffure,44350,Guérande,40,Boulevard du Général De Gaulle,,44069,,Coiffure,,https://www.facebook.com/1929Coiffure/,-2.437241,47.329436,,True,True,,,,,,,,,,,,,,,,,,,,,True,,,,,,,,,,,90,,True,,,,,,,,,,,,,,,,,,,,,,,,,,,,,,,,https://acceslibre.beta.gouv.fr/app/44-guerande/a/coiffure/erp/19-29-coiffure/
f4625c84-8ab2-4db1-8b65-ab32098129fe,1929 LABEL EPOQUE,69290,Craponne,19,Rue Centrale,,69069,85039680500010,Restaurant,,https://1929labelepoque.fr/fr,4.724629,45.745824,,True,True,,,,,,,,,,,,,,,,,,,,,True,,,,,,,,,,,90,,,,,,,,,,,True,,,,,,,,,,,,,,,,False,True,True,,,,,https://acceslibre.beta.gouv.fr/app/69-craponne/a/restaurant/erp/1929-label-epoque/
681bd410-3f8f-4237-bfbe-a200bf99c5be,19-29 Rue du Dr Babinski Garage,93400,Saint-Ouen-sur-Seine,29,Rue du Docteur Babinski,,93070,,Carrosserie,,,2.331657,48.901079,,True,True,,,,,,,,,,,,,,,,,,,,,,,,,,,,,,,,,,True,,,,,,,,,,,,,,,,,,,,,,,,,,,,,,,,https://acceslibre.beta.gouv.fr/app/93-saint-ouen-sur-seine/a/carrosserie/erp/19-29-rue-du-dr-babinski-garage/
7801bcda-4619-4019-834e-3f9da6eef568,1932 by S Coiffure,74140,Saint-Cergues,77,Rue de la chapelle,,74229,,Coiffure,,,6.321649,46.234135,,True,True,,,,,,,,,,,,,,,,,,,,,True,,,,,,,,,,,90,,True,,,,,,,,,,,,,,,,,,,,,,,,,,,,,,,,https://acceslibre.beta.gouv.fr/app/74-saint-cergues/a/coiffure/erp/1932-by-s-coiffure/
e25e1f1e-8333-49cb-a192-f9333c19d9eb,1950 Barbershop,05000,Gap,,Rue du Mazel,,05061,,Coiffure,,http://www.1950barbershop.fr/,6.078475,44.558678,,True,True,,,,,,,,,,,,,,,,,,,,,True,,,,,,,,,,,90,,True,,,,,,,,,,,,,,,,,,,,,,,,,,,,,,,,https://acceslibre.beta.gouv.fr/app/05-gap/a/coiffure/erp/1950-barbershop/
b54772fa-d441-4f6d-8194-97e1d46f28d2,1966 My Style,68100,Mulhouse,4,Rue du Manège,,68224,,Coiffure,,,7.333912,47.742867,,True,True,,,,,,,,,,,,,,,,,,,,,,,,,,,,,,,,,,True,,,,,,,,,,,,,,,,,,,,,,,,,,,,,,,,https://acceslibre.beta.gouv.fr/app/68-mulhouse/a/coiffure/erp/1966-my-style/
52cd9783-a074-4cba-a973-c24836c37faa,1971 Corner Cafe,83600,Fréjus,,Boulevard de la LIBERATION,,83061,,Restauration rapide,,,6.759983,43.424727,,True,True,,,,,,,,,,,,,,,,,,,,,True,,,,,,,,,,,90,,True,,,,,,,,,,,,,,,,,,,,,,,,,False,True,True,,,,,https://acceslibre.beta.gouv.fr/app/83-frejus/a/restauration-rapide/erp/1971-corner-cafe/
6d9554b5-3a20-45da-8732-ae54e8c5da42,1992 Salon de coiffure - Coralie & Chouchou,85340,Les Sables-d'Olonne,2,Avenue charles de gaulle,,85194,,Coiffure,,https://www.facebook.com/1992coralie/,-1.773838,46.504133,,True,True,,,,,,,,,,,,,,,,,,,,,True,,,,,,,,,,,90,,True,,,,,,,,,,,,,,,,,,,,,,,,,,,,,,,,https://acceslibre.beta.gouv.fr/app/85-les-sables-dolonne/a/coiffure/erp/1992-salon-de-coiffure-coralie-chouchou/
f1f4b9e4-054e-4ee5-8f65-7687823c6934,1993 Paristanbul,75017,Paris,113,Avenue de Saint-Ouen,,75117,,Restauration rapide,,,2.327857,48.894794,,,,,,,,,,,,,,,,,,,,,,,,True,,,,,,,,,,,90,,True,,,,,,,,,,,,,,,,,,,,,,,,,False,True,True,,,,,https://acceslibre.beta.gouv.fr/app/75-paris/a/restauration-rapide/erp/1993-paristanbul/
f01bcd5a-4d08-4ebc-83aa-cebfc9d1ccba,19CENT86 Immobilier & Placements,69008,Lyon,28,Rue Paul Cazeneuve,,69388,,Agence immobilière,,http://www.19cent86.com/,4.864194,45.736165,,False,,True,True,,,,,,,,,,,,,,,,,,,False,,1,,,amovible,montant,True,,,,90,,True,,,,,,,,,,,,,,,,,,,,,,,,,,True,False,,,,,https://acceslibre.beta.gouv.fr/app/69-lyon/a/agence-immobiliere/erp/19cent86-immobilier-placements/
da2caa62-76c2-42bf-983a-ade92c390cdb,19ème Art Coiffure & Esthétique,72300,Sablé-sur-Sarthe,6,Rue Gambetta,,72264,,"Soins de beauté, esthétique",,https://www.19-eme-art.fr/,-0.336507,47.840824,,,,,,,,,,,,,,,,,,,,,,,,,,,,,,,,,,,,,True,,,,,,,,,,,,,,,,,,,,,,,,,,,,,,,,https://acceslibre.beta.gouv.fr/app/72-sable-sur-sarthe/a/soins-de-beaute/erp/19eme-art-coiffure-esthetique/
85e9b2f6-9f68-4ad0-8caf-852d20e53947,19 Quai de stalingrad Boulogne,92100,Boulogne-Billancourt,19,Quai de Stalingrad,,92012,,Boulangerie Pâtisserie,,,2.244303,48.823844,,,,,,,,,,,,,,,,,,,,,,,,True,,,,,,,,,,,90,,True,,,,,,,,,,,,,,,,,,,,,,,,,,,,,,,,https://acceslibre.beta.gouv.fr/app/92-boulogne-billancourt/a/boulangerie-patisserie/erp/19-quai-de-stalingrad-boulogne/
06d863bf-a863-4353-82df-668d34a9d714,19 Quatre,55000,Bar-le-Duc,7,Chemin de Popey,,55029,,Bowling,,https://www.19quatre.com/,5.184287,48.76263,,True,True,,,,,,,,,,,,,,,,,,,,,True,,,,,,,,,,,90,,True,,,,,,,,,,,,,,,,,,,,,,,,,,,,,,,,https://acceslibre.beta.gouv.fr/app/55-bar-le-duc/a/bowling/erp/19-quatre/
4813a497-0c49-4dff-bf1a-78db1a7ec010,19 rue boltar 31600 Seysses,31600,Seysses,19,Rue Boltar,,31547,,Coiffure,,,1.314745,43.497257,,True,True,,,,,,,,,,,,,,,,,,,,,,,,,,,,,,,,,,True,,,,,,,,,,,,,,,,,,,,,,,,,,,,,,,,https://acceslibre.beta.gouv.fr/app/31-seysses/a/coiffure/erp/19-rue-boltar-31600-seysses/
9dc9e724-34f9-4d70-8a7a-ba02533dc1c0,1 Agent immobilier Loiret - Gabriel Vieira,45000,Orléans,8,Rue d'Illiers,,45284,,Agence immobilière,,https://myimmo45.wordpress.com/,1.901532,47.902493,,True,True,,,,,,,,,,,,,,,,,,,,,True,,,,,,,,,,,90,,True,,,,,,,,,,,,,,,,,,,,,,,,,,True,True,,,,,https://acceslibre.beta.gouv.fr/app/45-orleans/a/agence-immobiliere/erp/1-agent-immobilier-loiret-gabriel-vieira/
682bee4b-1db8-492f-9521-3fa8561411f1,1 Agent immobilier Loiret - Gabriel Vieira,45800,Saint-Jean-de-Braye,2,Allée du Grand Coquille,,45284,,Agence immobilière,,https://myimmo45.wordpress.com/,1.986044,47.921253,,True,True,,,,,,,,,,,,,,,,,,,,,True,,,,,,,,,,,90,,True,,,,,,,,,,,,,,,,,,,,,,,,,,True,True,,,,,https://acceslibre.beta.gouv.fr/app/45-saint-jean-de-braye/a/agence-immobiliere/erp/1-agent-immobilier-loiret-gabriel-vieira-2/
cc922f37-46fd-4305-8978-f678e0932988,1bispoitiers,86000,Poitiers,1bis,Rue de l'Université,,86194,,Hôtel,,,0.342511,46.584521,,True,True,,,,,,,,,,,,,,,,,,,,,True,,,,,,,,,,,80,,True,,,,,,,,,,,,,,,,1,,,,,,,,,,,,,,,,https://acceslibre.beta.gouv.fr/app/86-poitiers/a/hotel/erp/1bispoitiers/
be7cc448-a515-43d9-b66f-fff26ad990ef,1 boulevard de curepipe,33260,La Teste-de-Buch,1,Boulevard de Curepipe,,33529,,Boucherie / commerce de viande,,,-1.142773,44.637915,,True,True,,,,,,,,,,,,,,,,,,,,,True,,,,,,,,,,,90,,True,,,,,,,,,,,,,,,,,,,,,,,,,,,,,,,,https://acceslibre.beta.gouv.fr/app/33-la-teste-de-buch/a/boucherie/erp/1-boulevard-de-curepipe/
cb06efd1-30df-40b2-9c34-ee7e76ce2b93,1 Brin 2 Folie,26600,La Roche-de-Glun,5,Rue Roussillon,,26271,,Fleuriste,,http://www.1brin2folie.com/,4.844963,45.013257,,True,True,,,,,,,,,,,,,,,,,,,,,True,,,,,,,,,,,90,,True,,,,,,,,,,,,,,,,,,,,,,,,,,,,,,,,https://acceslibre.beta.gouv.fr/app/26-la-roche-de-glun/a/fleuriste/erp/1-brin-2-folie/
096d6496-5fd5-40cf-a81f-b4279c90f78c,1 Cimetière Brassac-les-Mines,63570,Brassac-les-Mines,54,Rue du Souvenir,,63050,,Cimetière,,,3.325615,45.413389,,True,True,,,,,,,,,,,,,,,,,,,,,True,,,,,,,,,,,90,,True,,,,,,,,,,,,,,,,,,,,,,,,,,,,,,,,https://acceslibre.beta.gouv.fr/app/63-brassac-les-mines/a/cimetiere/erp/1-cimetiere-brassac-les-mines/
272229cb-a9f8-4e5c-b964-99080e6a210a,1 Concept idéal Coiffure,83210,Solliès-Pont,,chemin de l’Enclos,,83130,,Coiffure,,https://www.planity.com/1-concept-ideal-by-j-83210-sollies-pont,6.039788,43.192599,,True,True,,,,,,,,,,,,,,,,,,,,,True,,,,,,,,,,,90,,True,,,,,,,,,,,,,,,,,,,,,,,,,,,,,,,,https://acceslibre.beta.gouv.fr/app/83-sollies-pont/a/coiffure/erp/1-concept-ideal-coiffure/
3e2c9a4d-8a60-45b4-8607-c9e9bafcaebb,1dépendance Immobilier,69290,Craponne,113,Avenue Pierre Dumond,,69069,,Agence immobilière,,http://www.1dependanceimmobilier.fr/,4.721618,45.747269,,True,True,,,,,,,,,,,,,,,,,,,,,True,,,,,,,,,,,90,,True,,,,,,,,,,,,,,,,,,,,,,,,,,,,,,,,https://acceslibre.beta.gouv.fr/app/69-craponne/a/agence-immobiliere/erp/1dependance-immobilier/
691297c2-da45-464f-9480-58c9e97e41f8,1DPENDANT RECORDS/ BOUTIQUE 1D SHOP,68000,Colmar,,Cours Sainte Anne,,68066,,Photographie,,,7.357554,48.080439,,True,True,,,,,,,,,,,,,,,,,,,,,,,,,,,,,,,,,,True,,,,,,,,,,,,,,,,,,,,,,,,,,,,,,,,https://acceslibre.beta.gouv.fr/app/68-colmar/a/photographie/erp/1dpendant-records-boutique-1d-shop/
b7766785-09e7-4cdd-b7de-826512a0e0a7,1ére Avenue,69007,Lyon,1,Avenue Félix Faure,,69387,,Coiffure,,https://1ere-avenue-hair-salon.business.site/?utm_source=gmb,4.846696,45.752221,,,,,,,,,,,,,,,,,,,,,,,,True,,,,,,,,,,,90,,True,,,,,,,,,,,,,,,,,,,,,,,,,,,,,,,,https://acceslibre.beta.gouv.fr/app/69-lyon/a/coiffure/erp/1ere-avenue/
5f9375dd-c933-42df-9fed-7c3d344d606e,1er Mets,74000,Annecy,2,Rue Saint-Maurice,,,,Restaurant,,http://www.restaurant-1ermets.fr/,6.127294600009919,45.898953716195756,True,False,,,,False,,,,,,,,,,,,,,,True,False,,True,,,,,,,False,,False,True,80,False,True,battante,manuelle,True,,,,False,,True,,,,,,,,,,,,,,,,True,True,False,,,,True,https://acceslibre.beta.gouv.fr/app/74-annecy/a/restaurant/erp/1er-mets/
67d59eb1-54db-4f71-83f9-b9c9389c8fc6,1 - Estelle,75014,Paris,11,Rue Desprez,,75114,,Hôpital,,,2.315671,48.834747,,,,,,,,,,,,,,,,,,,,,,,,True,,,,,,,,,,,90,,True,,,,,,,,,,,,,,,,,,,,,,,,,,,,,,,,https://acceslibre.beta.gouv.fr/app/75-paris/a/hopital/erp/1-estelle/
93169755-c537-4e9b-8503-eb8909b06665,1.Flore & Sens,78550,Maulette,3bis,Avenue Gerard Annel,,78381,,Fleuriste,,https://www.1floreetsens.com/,1.61918,48.79308,,True,True,,,,,,,,,,,,,,,,,,,,,True,,,,,,,,,,,90,,True,,,,,,,,,,,,,,,,,,,,,,,,,,,,,,,,https://acceslibre.beta.gouv.fr/app/78-maulette/a/fleuriste/erp/1flore-sens/
ab1915c6-7412-463a-93c7-99a393c440ba,1 Grain 2 Beauté,45800,Saint-Jean-de-Braye,2,Rue Max Jacob,,45284,,"Soins de beauté, esthétique",,https://www.planity.com/1-grain-2-beaute-orleans,1.956564,47.914623,,True,True,,,,,,,,,,,,,,,,,,,,,,,,,,,,,,,,,,True,,,,,,,,,,,,,,,,,,,,,,,,,,,,,,,,https://acceslibre.beta.gouv.fr/app/45-saint-jean-de-braye/a/soins-de-beaute/erp/1-grain-2-beaute/
ccf6f17d-0171-4f72-99c4-719612ddaa30,1 hair avenue coiffure,42160,Andrézieux-Bouthéon,1,Avenue Jean Martouret,,42005,,Coiffure,,https://www.1hairavenue.net/,4.25613,45.524365,,True,True,,,,,,,,,,,,,,,,,,,,,,,,,,,,,,,,,,True,,,,,,,,,,,,,,,,,,,,,,,,,,,,,,,,https://acceslibre.beta.gouv.fr/app/42-andrezieux-boutheon/a/coiffure/erp/1-hair-avenue-coiffure/
21153dc0-a959-4c24-9147-2bd4019b4ba3,1 Hair de Sophie,88630,Frebécourt,80,Chemin des Vignes,,88183,,Coiffure,,,5.670734345912933,48.39073237255922,,True,True,,,,,,,,,,,,,,,,,,True,True,True,False,False,0,,,,,,,,,83,False,True,battante,manuelle,,,,,,,,,,,,,,,,,,,,,,,,True,,,,,,https://acceslibre.beta.gouv.fr/app/88-frebecourt/a/coiffure/erp/1-hair-de-sophie/
5e61162a-40df-4147-80e0-7b2fd11a71ee,1 INSTANT POUR MOI,25200,Montbéliard,34,Rue Georges Clémenceau,,25388,,"Soins de beauté, esthétique",,,6.796088,47.510702,,True,True,,,,,,,,,,,,,,,,,,,,,,,,,,,,,,,,,,True,,,,,,,,,,,,,,,,,,,,,,,,,,,,,,,,https://acceslibre.beta.gouv.fr/app/25-montbeliard/a/soins-de-beaute/erp/1-instant-pour-moi/
6fcb4347-1ee1-4615-a9a2-9d0bce54ccb6,1K Paris,75003,Paris,13,Boulevard du Temple,,75103,,Hôtel,,,2.365949,48.863957,,,,,,,,,,,,,,,,,,,,,,,,True,,,,,,,,,,,80,,True,,,,,,,,,True,,,,,,,1,,,,,,,,,False,True,,,,,,https://acceslibre.beta.gouv.fr/app/75-paris/a/hotel/erp/1k-paris/
4450cc7b-2841-4fa0-8b2d-28da1a464438,1PROIMMO,38120,Saint-Égrève,2,route de grenoble,,38382,,Agence immobilière,,http://www.1proimmo.com/,5.683272,45.229079,,True,True,,,,,,,,,,,,,,,,,,,,,True,,,,,,,,,,,90,,True,,,,,,,,,,,,,,,,,,,,,,,,,,,,,,,,https://acceslibre.beta.gouv.fr/app/38-saint-egreve/a/agence-immobiliere/erp/1proimmo/
1396e286-ac57-4331-8ba1-3a4f3131acf5,1rue Jacques de vaucanson,51000,Châlons-en-Champagne,31,Rue Anne Godeau,,51108,,Auto école,,,4.363789,48.971517,,True,True,,,,,,,,,,,,,,,,,,,,,,,,,,,,,,,,,,True,,,,,,,,,,,,,,,,,,,,,,,,,,,,,,,,https://acceslibre.beta.gouv.fr/app/51-chalons-en-champagne/a/auto-ecole/erp/1rue-jacques-de-vaucanson/
456e974d-7eb6-4457-88e7-b9233dabe427,1'seconde de répit,76580,Le Trait,,Rue Dupuy de Lome,,76709,,"Soins de beauté, esthétique",,http://www.rdv360.com/1seconde-de-repit-,0.805051,49.490185,,,,,,,,,,,,,,,,,,,,,,,,,,,,,,,,,,,,,True,,,,,,,,,,,,,,,,,,,,,,,,,,,,,,,,https://acceslibre.beta.gouv.fr/app/76-le-trait/a/soins-de-beaute/erp/1seconde-de-repit/
a398a6b0-ebce-4a33-ab61-89feac7cee94,1 sourire,34990,Juvignac,63,Avenue des Hauts de Fontcaude,,34123,,Photographie,,,3.799775,43.628562,,False,,True,True,,,,,,,,,,,,,,,,,,,False,,1,,,aucune,montant,,,,,,,,,,,,,,,,,,,,,,,,,,,,,,,,,True,False,,,,,https://acceslibre.beta.gouv.fr/app/34-juvignac/a/photographie/erp/1-sourire/
bc5c967f-fe01-4e72-8219-7583cd8a02dc,1 Temps Pour Elle,74940,Annecy,38,Avenue de la Mavéria (Annecy-le-Vieux),,74010,,"Soins de beauté, esthétique",,http://www.1tempspourelle.fr/,6.142856776714326,45.908726471797316,True,True,True,True,,True,True,False,False,1,,montant,,,False,,,aucun,,False,True,True,True,False,False,1,,,amovible,montant,,,False,True,80,False,True,battante,manuelle,True,formés,,,False,,True,,,,,,,,,,,,,,,,False,True,True,,,,False,https://acceslibre.beta.gouv.fr/app/74-annecy/a/soins-de-beaute/erp/1-temps-pour-elle/
e0ca89e4-ff59-4ad2-84b3-91caa2c69fbe,1 Toit,35410,Châteaugiron,2,Rue du Champ du Verger,,35069,,Agence immobilière,,http://1toit.fr/contacts/,-1.501985,48.043831,,True,True,,,,,,,,,,,,,,,,,,,,,,,,,,,,,,,,,,True,,,,,,,,,,,,,,,,,,,,,,,,,,,,,,,,https://acceslibre.beta.gouv.fr/app/35-chateaugiron/a/agence-immobiliere/erp/1-toit/
5b81cde5-a19a-4d88-9d7b-a799369da375,1 Vélo,13009,Marseille,71,Boulevard gillibert,,13209,,Commerce,,,5.405212,43.26397,,False,,,False,,,,,,,,,,,,,,,,,,,False,,1,,,amovible,montant,False,,,,,,,,,,,,,,,,,,,,,,,,,,,,,,,,True,False,,,,,https://acceslibre.beta.gouv.fr/app/13-marseille/a/commerce/erp/1-velo/
68c79bea-fbed-424b-a222-9d89d2cc0e4d,1ven'tif Coiffure,66000,Perpignan,41,Avenue Victor DALBIEZ,,66136,,Coiffure,,,2.886741,42.691411,,True,True,,,,,,,,,,,,,,,,,,,,,True,,,,,,,,,,,90,,True,,,,,,,,,,,,,,,,,,,,,,,,,,,,,,,,https://acceslibre.beta.gouv.fr/app/66-perpignan/a/coiffure/erp/1ventif-coiffure/
50ef5a43-5bf7-4ceb-aafa-33d7a691579d,1VISAGE9,78120,Rambouillet,106,Rue de la Grange Colombe,,78517,,"Soins de beauté, esthétique",,https://www.1visage9.com/,1.869426,48.662813,,True,True,,,,,,,,,,,,,,,,,,,,,,,,,,,,,,,,,,True,,,,,,,,,,,,,,,,,,,,,,,,,,,,,,,,https://acceslibre.beta.gouv.fr/app/78-rambouillet/a/soins-de-beaute/erp/1visage9/
4b4f096b-c400-4825-b824-ef5b6d1c4c8a,20000 jeux sous les livres,33370,Fargues-Saint-Hilaire,2ter,Avenue des Bons Enfants,,33165,,Librairie,,http://20000jeux.fr/,-0.447404,44.828089,,True,True,,,,,,,,,,,,,,,,,,,,,True,,,,,,,,,,,90,,True,,,,,,,,,,,,,,,,,,,,,,,,,,,,,,,,https://acceslibre.beta.gouv.fr/app/33-fargues-saint-hilaire/a/librairie/erp/20000-jeux-sous-les-livres/
f6fc0709-ba27-40da-a6bb-ddef7bc7ffe4,20000 lieux sous la bière,13008,Marseille,2,Boulevard alexandre delabre,,13208,,"Café, bar, brasserie",,https://m.facebook.com/Le20000Lieues/,5.34588,43.21784,True,False,,True,,False,,,,,,,,,,,,,,,True,False,,False,False,3,,,,,False,,,,,False,True,battante,manuelle,True,,,,,,True,,,,,,,,,,,,,,,,False,True,True,,,,,https://acceslibre.beta.gouv.fr/app/13-marseille/a/cafeteria/erp/20000-lieux-sous-la-biere/
fafaeae6-b48f-472c-9748-2fdbd750829d,200% Feminin - Espace Beauté,75019,Paris,128,Rue de Crimée,,75119,,"Soins de beauté, esthétique",,,2.381914,48.886284,,,,,,,,,,,,,,,,,,,,,,,,,,,,,,,,,,,,,True,,,,,,,,,,,,,,,,,,,,,,,,,,,,,,,,https://acceslibre.beta.gouv.fr/app/75-paris/a/soins-de-beaute/erp/200-feminin-espace-beaute/
74d7a6d3-fc50-407b-8165-86a43b7917ef,20 167,20167,Alata,,Cardichioza,,2A006,,Restauration rapide,,https://www.facebook.com/profile.php?id=100057656641026,8.779122,41.976149,,True,True,,,,,,,,,,,,,,,,,,,,,True,,,,,,,,,,,90,,True,,,,,,,,,,,,,,,,,,,,,,,,,,True,True,,,,,https://acceslibre.beta.gouv.fr/app/2a-alata/a/restauration-rapide/erp/20-167/
7298f22b-9c52-4d88-ab1f-6bee3460b70e,201 Forest Avenue,85270,Saint-Hilaire-de-Riez,201,Avenue de la Forêt,,85226,,Collège,,http://www.201forestavenue.fr/,-1.976822,46.713184,,True,True,,,,,,,,,,,,,,,,,,,,,True,,,,,,,,,,,90,,True,,,,,,,,,,,,,,,,,,,,,,,,,,,,,,,,https://acceslibre.beta.gouv.fr/app/85-saint-hilaire-de-riez/a/college/erp/201-forest-avenue/
64ecdcc5-7f21-4100-b78d-96f9a43a73f5,203 Immobilier,79000,Niort,550bis,Avenue de Limoges,,79191,,Agence immobilière,,http://www.niort203immobilier.fr/,-0.399495,46.318179,,True,True,,,,,,,,,,,,,,,,,,,,,True,,,,,,,,,,,90,,True,,,,,,,,,True,,,,,,,,,,,,,,,,False,True,True,,,,,https://acceslibre.beta.gouv.fr/app/79-niort/a/agence-immobiliere/erp/203-immobilier/
724016d8-6f35-472d-bad2-be47e374d4d1,20ème Rue Eurl,49110,Montrevault-sur-Èvre,20,Rue du Château (Montrevault),,49218,,Coiffure,,,-1.045118,47.263464,,True,True,,,,,,,,,,,,,,,,,,,,,True,,,,,,,,,,,90,,True,,,,,,,,,,,,,,,,,,,,,,,,,,,,,,,,https://acceslibre.beta.gouv.fr/app/49-montrevault-sur-evre/a/coiffure/erp/20eme-rue-eurl/
a146f643-5441-4089-9157-21cc9122bf37,20°Nord 20°Sud Chocolaterie Bean to Bar,85300,Challans,5,Place aristide briand,,85047,,Chocolatier,,http://www.20nord20sud.com/,-1.878657,46.847322,,True,True,,,,,,,,,,,,,,,,,,,,,True,,,,,,,,,,,90,,True,,,,,,,,,,,,,,,,,,,,,,,,,,,,,,,,https://acceslibre.beta.gouv.fr/app/85-challans/a/chocolatier/erp/20nord-20sud-chocolaterie-bean-to-bar/
93cd9f1c-dc96-44f5-9d7d-974aa3e6396a,20°Nord 20°Sud - Manufacture Française de chocolat Bean To Bar - Vendée,85690,Notre-Dame-de-Monts,11,Route de la taillée,,85164,,Chocolatier,,https://20nord20sud.com/,-2.118028,46.833028,,True,True,,,,,,,,,,,,,,,,,,,,,True,,,,,,,,,,,90,,True,,,,,,,,,,,,,,,,,,,,,,,,,,,,,,,,https://acceslibre.beta.gouv.fr/app/85-notre-dame-de-monts/a/chocolatier/erp/20nord-20sud-manufacture-francaise-de-chocolat-bean-to-bar-vendee/
b7ac847b-5ea0-4684-8b61-7549f16334e7,20 rue Antoine de st exupery. Pierrelatte,26700,Pierrelatte,20,Rue Antoine de Saint Exupery,,26235,,Laboratoire d'analyse médicale,,,4.699842,44.376284,,True,True,,,,,,,,,,,,,,,,,,,,,True,,,,,,,,,,,90,,True,,,,,,,,,True,,,,,,,,,,,,,,,,False,True,True,,,,,https://acceslibre.beta.gouv.fr/app/26-pierrelatte/a/laboratoire-danalyse-medicale/erp/20-rue-antoine-de-st-exupery-pierrelatte/
a49d9e35-cbfd-486b-9693-75afff5e7232,21,69002,Lyon,21,Rue des Remparts d'Ainay,,69382,,Antiquaire,,,4.830493900535658,45.75292950082849,True,False,,True,,False,,,,,,,,,,,,,,,True,True,True,True,,,,,,,False,,False,True,80,False,True,battante,manuelle,True,,,,False,,True,,,,,,,,,,,,,,,,,False,,,,,,https://acceslibre.beta.gouv.fr/app/69-lyon/a/antiquaire/erp/21/
599f61a9-8432-4f8d-874b-3ce65b2835fc,21,75014,Paris,21,Rue Daguerre,,,,Traiteur,,,2.329300427713617,48.833974807483784,True,False,,True,True,True,True,True,,,,,,,False,,,aucun,False,False,True,True,True,False,False,1,True,False,aucune,,False,,False,,60,False,True,battante,manuelle,True,,False,,False,,True,,,,,,,,,,,,,,,,False,False,,,,,,https://acceslibre.beta.gouv.fr/app/75-paris/a/traiteur/erp/21-2/
eec2bf41-1ef5-41bc-aa3e-93cf748ca676,211 micro-fournil,34150,Gignac,211,Chemin Sainte Claire Roqueyrol,,34114,,Boulangerie Pâtisserie,,,3.558495,43.651277,,False,,,False,,,,,,,,,,,,,,,,,,,False,,1,,,aucune,,,,,,,,,,,,,,,,,,,,,,,,,,,,,,,,,,False,,,,,,https://acceslibre.beta.gouv.fr/app/34-gignac/a/boulangerie-patisserie/erp/211-micro-fournil/
7e25e2f6-9a32-49c3-beaf-3dca1570dac1,216 District,06130,Grasse,,Avenue Mathias Duval,,06069,,Restauration rapide,,,6.921502,43.652564,,True,True,,,,,,,,,,,,,,,,,,,,,True,,,,,,,,,,,90,,True,,,,,,,,,,,,,,,,,,,,,,,,,,,,,,,,https://acceslibre.beta.gouv.fr/app/06-grasse/a/restauration-rapide/erp/216-district/
e4f5cbf1-52bf-4af0-9e43-ee470ee0fa39,21 Foch,49100,Angers,21,Boulevard du maréchal Foch,,49007,,Hôtel,,http://www.21foch.fr/,-0.5503866076469422,47.46822441444312,True,True,,True,,False,,,,,,,,,,,,,,,False,False,,False,,4,False,False,aucune,montant,False,,,False,90,,True,battante,manuelle,False,non-formés,,,,,False,,4,False,False,aucune,montant,,,,,,,,,,False,,,,,,,https://acceslibre.beta.gouv.fr/app/49-angers/a/hotel/erp/21-foch/
171bba58-a16d-467b-98b5-2b33d37770c9,21 Jump Food,70000,Vesoul,21,Place de la République,,70550,,Restaurant,,,6.159702,47.622801,,True,True,True,,False,,,,,,,,,,,,,,,True,True,True,True,,,,,,,False,,False,False,85,False,True,battante,manuelle,True,,,,False,,True,,,,,,,,,,,,,,,,False,True,,,,,,https://acceslibre.beta.gouv.fr/app/70-vesoul/a/restaurant/erp/21-jump-food/
b063f189-395b-4c2f-89c9-564bda52ce56,21 PAYSANS,06000,Nice,2,Rue Valperga,,06088,,Restaurant,,http://www.21paysans.com/,7.2706881165504464,43.7042856436086,True,False,,False,,False,,,,,,,,,,,,,,,True,,,,,,,,,,,,,,,,True,,,,non-formés,,,,,,,,,,,,,,,,,,,,,,True,,,,,,https://acceslibre.beta.gouv.fr/app/06-nice/a/restaurant/erp/21-paysans/
c0d5c9b6-4df1-4b8e-9f5f-14c157bf25cb,21 SIEGE,15000,Aurillac,22,Rue des Carmes,,15014,,Décoration Design,,,2.443001,44.926638,True,False,,True,True,False,,,,,,,,,,,,,,,,True,,True,,,,,,,,,,True,90,,True,battante,manuelle,True,,,,,,True,,,,,,,,,,,,,,,,False,False,,,,,,https://acceslibre.beta.gouv.fr/app/15-aurillac/a/decoration-design/erp/21-siege/
1206fc44-1c97-4de3-9764-72c4246d6c72,21 Ventuno,74960,Annecy,2,Rue François Vernex,,74010,,Restauration rapide,,,6.09123,45.914702,True,False,,True,True,False,,,,,,,,,,,,,,,True,True,True,True,,,,,,,False,,False,True,90,False,True,battante,manuelle,True,,,,False,,True,,,,,,,,,,,,,,,,False,False,,,,,,https://acceslibre.beta.gouv.fr/app/74-annecy/a/restauration-rapide/erp/21-ventuno/
29d03ae6-f202-40ea-97b1-79f9e2a2a93b,21 WORKSTREET,60200,Compiègne,78,Rue de Stalingrad,,60159,,Coworking,,http://21workstreet.wix.com/21workstreet,2.79815,49.392784,,True,True,,,,,,,,,,,,,,,,,,,,,,,,,,,,,,,,,,True,,,,,,,,,,,,,,,,,,,,,,,,,,,,,,,,https://acceslibre.beta.gouv.fr/app/60-compiegne/a/coworking/erp/21-workstreet/
c130a8b9-cb08-4d35-866e-9af3ecc7967d,220 °Celsius - Mange ta crêpe autrement !,49100,Angers,1,Rue Saint-Aubin,,49007,,Restaurant,,https://m.facebook.com/220celsius/,-0.554001,47.469931,,,,,,,,,,,,,,,,,,,,,,,,,,,,,,,,,,,,,True,,,,,,,,,,,,,,,,,,,,,,,,,False,,,,,,,https://acceslibre.beta.gouv.fr/app/49-angers/a/restaurant/erp/220-celsius-mange-ta-crepe-autrement/
d4670804-f15c-44f4-9280-558416d8a941,221 B Baker street,78140,Vélizy-Villacoublay,,Avenue de l’Europe,,,,Restaurant,,,2.219949066638947,48.78100228652967,True,True,True,True,True,True,True,True,,,,,,,False,,,aucun,False,False,True,,,True,,,,,,,False,,,,140,False,False,,,True,,,,,,True,,,,,,,,,,,,,,,,False,True,True,,,,,https://acceslibre.beta.gouv.fr/app/78-velizy-villacoublay/a/restaurant/erp/221-b-baker-street/
bf9d5655-e8ce-4354-9a26-67fee7e989ca,221B Baker Street,78140,VELIZY-VILLACOUBLAY,2,Avenue DE L EUROPE,CENTRE COMMERCIAL VELIZY 2,,,"Café, bar, brasserie",,,2.2202548384666447,48.78228187641157,True,False,,True,True,True,True,False,True,,,,,aucune,False,,,aucun,,,True,,,True,,,,,,,False,,,,,False,False,,,True,,,,,,True,,,,,,,,,,,,,,,,,,,,,,,https://acceslibre.beta.gouv.fr/app/78-velizy-villacoublay/a/cafeteria/erp/221b-baker-street/
516f0f32-bf22-47b8-834e-c08fb3a27af1,228 Litres,75009,Paris,3,Rue Victor Massé,,75109,,Restaurant,,,2.339807,48.880466,,False,,True,True,,,,,,,,,,,,,,,,,,,True,,,,,,,,,,,,,,,,,,,,,,,,,,,,,,,,,,,,,,,True,True,,,,,https://acceslibre.beta.gouv.fr/app/75-paris/a/restaurant/erp/228-litres/
20212ca1-972c-4181-babc-c8200ee71c26,22 Barber Street,42000,Saint-Étienne,22,Rue Gambetta,,42218,,Coiffure,,https://22-barber-street.business.site/,4.388801,45.433182,,True,True,,,,,,,,,,,,,,,,,,,,,True,,,,,,,,,,,90,,True,,,,,,,,,,,,,,,,,,,,,,,,,,,,,,,,https://acceslibre.beta.gouv.fr/app/42-saint-etienne/a/coiffure/erp/22-barber-street/
36dd28d9-0114-40f2-be69-16d85d1cefe7,22h04 | Pôle Créatif,31000,Toulouse,14,Rue Saint Charles,,31555,,Théâtre,,https://www.22h04.com/,1.441237,43.610065,,,,,,,,,,,,,,,,,,,,,,,,True,,,,,,,,,,,90,,True,,,,,,,,,,,,,,,,,,,,,,,,,,,,,,,,https://acceslibre.beta.gouv.fr/app/31-toulouse/a/theatre/erp/22h04-pole-creatif/
4853bae2-e479-49c5-9837-5e9d8bffd0e5,22 indépendant agrée Swarovski,69100,Villeurbanne,,Avenue Henri Barbusse,,69266,,Bijouterie joaillerie,,,4.879471,45.768219,,True,True,,,,,,,,,,,,,,,,,,,,,True,,,,,,,,,,,90,,True,,,,,,,,,,,,,,,,,,,,,,,,,,,,,,,,https://acceslibre.beta.gouv.fr/app/69-villeurbanne/a/bijouterie-joaillerie/erp/22-independant-agree-swarovski/
fe8a79d9-954b-488c-a59f-e1c3b2046a6e,22 Rue de Verneuil,75007,Paris,22,Rue de Verneuil,,75107,,Coiffure,,,2.330719,48.85756,,False,,,False,,,,,,,,,,,,,,,,,,,False,,1,,,,montant,,,,,,,,,,,,,,,,,,,,,,,,,,,,,,,,,True,True,,,,,https://acceslibre.beta.gouv.fr/app/75-paris/a/coiffure/erp/22-rue-de-verneuil/
be3f42a5-8d54-42df-9952-e454afee6bed,22thavenuesalon,02310,Crouttes-sur-Marne,22,Rue de la Marne,,02242,,Coiffure,,,3.239067,48.978961,,True,True,,,,,,,,,,,,,,,,,,,,,,,,,,,,,,,,,,True,,,,,,,,,,,,,,,,,,,,,,,,,,,,,,,,https://acceslibre.beta.gouv.fr/app/02-crouttes-sur-marne/a/coiffure/erp/22thavenuesalon/
4dea80cc-565d-469c-90b4-1333712d5055,235 Barber Street,92000,Nanterre,13,Avenue Vladimir Ilitch Lénine,,92050,,Coiffure,,https://www.planity.com/235th-barberstreet-nanterre-92000-pvy,2.198301,48.887372,,,,,,,,,,,,,,,,,,,,,,,,True,,,,,,,,,,,90,,True,,,,,,,,,,,,,,,,,,,,,,,,,,,,,,,,https://acceslibre.beta.gouv.fr/app/92-nanterre/a/coiffure/erp/235-barber-street/
7cc5ca70-9d73-4d9b-a4b5-60e3c203cba1,2:35 L'Asso Cine,49300,Cholet,30,Rue Bretonnaise,,,,Cinéma,,,-0.883789,47.060793,True,True,True,True,True,True,True,True,,,,,,,False,,,léger,False,False,True,True,True,True,,,,,,,,,False,True,90,,True,battante,manuelle,,,,,,,,,,,,,,,,,,,,,,,,True,True,,,,,https://acceslibre.beta.gouv.fr/app/49-cholet/a/cinema/erp/235-lasso-cine/
0ef46ca5-a00d-46dc-8e75-da7d200fc1c4,235th BarberStreet,35000,Rennes,48,Rue de Dinan,,35238,,Coiffure,,,-1.683086,48.117115,,,,,,,,,,,,,,,,,,,,,,,,,,,,,,,,,,,,,True,,,,,,,,,,,,,,,,,,,,,,,,,,,,,,,,https://acceslibre.beta.gouv.fr/app/35-rennes/a/coiffure/erp/235th-barberstreet/
15d82754-c882-4b74-a6f4-919aa66791a5,235TH Barber Street Asnières,92600,Asnières-sur-Seine,2,Rue Armand Numès,,92004,,Coiffure,,https://www.planity.com/235th-barberstreet-92600-asnieres-sur-seine,2.30599,48.91522,,,,,,,,,,,,,,,,,,,,,,,,,,,,,,,,,,,,,True,,,,,,,,,,,,,,,,,,,,,,,,,False,True,True,,,,,https://acceslibre.beta.gouv.fr/app/92-asnieres-sur-seine/a/coiffure/erp/235th-barber-street-asnieres/
8f5fa807-c17e-4d8a-8800-c91c3aaaf1f3,235th Barber Street Boulogne,92100,Boulogne-Billancourt,123,Route de la Reine,,92012,,Coiffure,,https://www.planity.com/235-barberstreet-boulogne-billancourt-92100,2.231313,48.840331,,,,,,,,,,,,,,,,,,,,,,,,True,,,,,,,,,,,90,,True,,,,,,,,,,,,,,,,,,,,,,,,,,,,,,,,https://acceslibre.beta.gouv.fr/app/92-boulogne-billancourt/a/coiffure/erp/235th-barber-street-boulogne/
f1bbf48d-53c3-4666-895b-183637323ca4,235th Barber Street Drancy,93700,Drancy,38,Avenue Jean Jaurès,,93029,,Coiffure,,https://www.planity.com/235th-barber-street-drancy-93700,2.448572,48.921499,,,,,,,,,,,,,,,,,,,,,,,,True,,,,,,,,,,,90,,True,,,,,,,,,,,,,,,,,,,,,,,,,,,,,,,,https://acceslibre.beta.gouv.fr/app/93-drancy/a/coiffure/erp/235th-barber-street-drancy/
78b1f86c-601e-4dea-ba4b-feb8a1312c15,236 BARBER STREET,69330,Meyzieu,3,Place Jean Monnet,,69282,,Coiffure,,,5.00272,45.766228,,True,True,,,,,,,,,,,,,,,,,,,,,True,,,,,,,,,,,90,,True,,,,,,,,,,,,,,,,,,,,,,,,,,,,,,,,https://acceslibre.beta.gouv.fr/app/69-meyzieu/a/coiffure/erp/236-barber-street/
a364d035-370f-457a-8030-55014546a573,236 BARBER STREET/ RDV EN LIGNE SUR TREATWELL,69330,Meyzieu,4,Place Jean Monnet,,69282,,Coiffure,,https://widget.treatwell.fr/salon/236-barber-street/,5.002706,45.766175,,True,True,,,,,,,,,,,,,,,,,,,,,True,,,,,,,,,,,90,,True,,,,,,,,,,,,,,,,,,,,,,,,,,,,,,,,https://acceslibre.beta.gouv.fr/app/69-meyzieu/a/coiffure/erp/236-barber-street-rdv-en-ligne-sur-treatwell/
d6f57773-4709-4570-9722-fece9c0f1ef8,238th Barberhood,06220,Vallauris,6,Rue Clement Bel,,06155,,Coiffure,,https://instagram.com/238th_barberhood?igshid=YmMyMTA2M2Y=,7.052092,43.579179,,,,,,,,,,,,,,,,,,,,,,,,True,,,,,,,,,,,90,,True,,,,,,,,,,,,,,,,,,,,,,,,,,,,,,,,https://acceslibre.beta.gouv.fr/app/06-vallauris/a/coiffure/erp/238th-barberhood/
8bacb6a6-f1ca-4d7d-8ed4-93ba8bca4285,23 Nail Salon L'Onglerie,75018,Paris,101b,Rue du Mont Cenis,,75118,,"Soins de beauté, esthétique",,https://23-nail-salon.mytreatwell.fr/,2.345141,48.894095,,,,,,,,,,,,,,,,,,,,,,,,,,,,,,,,,,,,,True,,,,,,,,,,,,,,,,,,,,,,,,,,,,,,,,https://acceslibre.beta.gouv.fr/app/75-paris/a/soins-de-beaute/erp/23-nail-salon-longlerie/
228d2824-1c2a-4476-b00b-8c9dcf175dcf,23 RC,02400,Château-Thierry,23,Rue Carnot,,02168,,Auto école,,https://www.23rc.fr/,3.403583,49.043081,,True,True,,,,,,,,,,,,,,,,,,,,,,,,,,,,,,,,,,True,,,,,,,,,,,,,,,,,,,,,,,,,,,,,,,,https://acceslibre.beta.gouv.fr/app/02-chateau-thierry/a/auto-ecole/erp/23-rc/
9973a8af-8131-4857-ab4e-fb3d03ac8e7f,24/24 - 7/7 Pôle Funéraire PUBLIC MUNICIPAL Pompes Funèbres de l'Albigeois,81000,Albi,12,Route de Millau,,81004,,Pompes funèbres,,http://www.pfpalbi.fr/,2.170019,43.93165,,True,True,,,,,,,,,,,,,,,,,,,,,True,,,,,,,,,,,90,,True,,,,,,,,,,,,,,,,,,,,,,,,,,,,,,,,https://acceslibre.beta.gouv.fr/app/81-albi/a/pompes-funebres/erp/2424-77-pole-funeraire-public-municipal-pompes-funebres-de-lalbigeois/
7d54eee4-5be1-43b0-9e96-445ffdf16a45,245 Coworking,40150,Soorts-Hossegor,245,Avenue Pedebert,,40304,,Coworking,,https://www.245coworking.fr/,-1.388519,43.670722,,,,,,,,,,,,,,,,,,,,,,,,True,,,,,,,,,,,90,,True,,,,,,,,,True,,,,,,,,,,,,,,,,False,True,True,,,,,https://acceslibre.beta.gouv.fr/app/40-soorts-hossegor/a/coworking/erp/245-coworking/
e9278a31-6ed8-4800-9b3d-1964e6873d09,2-4-6,91080,Évry-Courcouronnes,12,Rue Georges Brassens,,91228,,Restauration rapide,,http://246evry.fr/,2.421861,48.626339,,True,True,,,,,,,,,,,,,,,,,,,,,True,,,,,,,,,,,90,,True,,,,,,,,,,,,,,,,,,,,,,,,,,True,True,,,,,https://acceslibre.beta.gouv.fr/app/91-evry-courcouronnes/a/restauration-rapide/erp/2-4-6/
1492245d-53cb-493e-95f1-973dc50a18b2,24 Août Céramique,33000,Bordeaux,57,Boulevard George V,,33063,,Poterie verrerie céramique,,https://24aout.com/,-0.589978,44.825648,,False,,True,True,,,,,,,,,,,,,,,,,,,True,,,,,,,,,,,,,,,,,,,,,,,,,,,,,,,,,,,,,,,True,False,,,,,https://acceslibre.beta.gouv.fr/app/33-bordeaux/a/poterie-verrerie-ceramique/erp/24-aout-ceramique/
c20423e1-7158-4f27-adc2-02d94d015ae5,24 Auto sport,24100,Creysse,7,Grande Rue,,24145,,Carrosserie,,,0.562499,44.854717,,True,True,,,,,,,,,,,,,,,,,,,,,True,,,,,,,,,,,90,,True,,,,,,,,,,,,,,,,,,,,,,,,,,,,,,,,https://acceslibre.beta.gouv.fr/app/24-creysse/a/carrosserie/erp/24-auto-sport/
38466a0d-5ee9-4840-9731-dbacd492d437,24 carats,76140,Le Petit-Quevilly,129,Avenue Jean Jaurès,,76498,,Coiffure,,https://www.planity.com/24-carats-76140-le-petit-quevilly,1.062168,49.426344,,True,True,,,,,,,,,,,,,,,,,,,,,,,,,,,,,,,,,,True,,,,,,,,,,,,,,,,,,,,,,,,,,,,,,,,https://acceslibre.beta.gouv.fr/app/76-le-petit-quevilly/a/coiffure/erp/24-carats/
dca21a82-2142-4e26-add4-75118ba01ddf,24 du faubourg,74000,Annecy,24,Faubourg sainte-claire,,74010,,Salle de danse,,https://www.24dufaubourg.fr/,6.122675059409631,45.897395671050525,True,False,,True,,False,,,,,,,,,,,,,,,True,False,,True,,,,,,,,,,,90,False,True,battante,manuelle,True,,,,,,,,,,,,,,,,,,,,,,,True,,,,,,https://acceslibre.beta.gouv.fr/app/74-annecy/a/salle-de-danse/erp/24-du-faubourg/
3eb8f835-c525-44aa-abdc-cb9e7b56e8db,"24H Le Mans - Les Haies Gite, near Le Mans Circuit",72550,Coulans-sur-Gée,,Route de Fay,,72096,,Hôtel,,,0.040615,47.997289,,True,True,,,,,,,,,,,,,,,,,,,,,True,,,,,,,,,,,80,,True,,,,,,,,,,,,,,,,1,,,,,,,,,,,,,,,,https://acceslibre.beta.gouv.fr/app/72-coulans-sur-gee/a/hotel/erp/24h-le-mans-les-haies-gite-near-le-mans-circuit/
10a8c637-74a6-4a53-82bc-9336208d001f,25 AVRIL Café Portugais,37000,Tours,13,Rue Lamartine,,37261,,"Café, bar, brasserie",,,0.671363,47.392534,,False,,,False,,,,,,,,,,,,,,,,,,,False,,3,,,aucune,montant,,,,,,,,,,,,,,,,,,,,,,,,,,,,,,,,,True,False,,,,,https://acceslibre.beta.gouv.fr/app/37-tours/a/cafeteria/erp/25-avril-cafe-portugais/
7109f820-263d-46c3-a4c2-46e54e25dcc4,25hours Hotel Terminus Nord,75010,Paris,12,Boulevard de Denain,,75110,,Hôtel,,,2.354925,48.879649,True,True,True,True,True,True,,,,,,,,,,,,,,,,,,True,,,,,aucune,,,,,,90,False,True,coulissante,automatique,,,,,True,,,,,,,,,6,True,True,False,True,True,,True,,,True,True,,,https://events.parisinfo.com/guide-accessibilite/fr/guide-accessibilite-25-hours-terminus-nord.pdf,,https://acceslibre.beta.gouv.fr/app/75-paris/a/hotel/erp/25hours-hotel-terminus-nord/
aa4e32ec-14d8-4994-91fa-95fe4de02bdc,25 SENS,92330,Sceaux,25,Rue Bertron,,92071,,Massages,,,2.288544,48.780799,,False,,,False,,,,,,,,,,,,,,,,,,,False,,10,,,aucune,descendant,,,,,,,,,,,,,,,,,,,,,,,,,,,,,,,,,True,False,,,,,https://acceslibre.beta.gouv.fr/app/92-sceaux/a/massages/erp/25-sens/
62a7ec0d-9196-4b06-87e4-a3cb737638eb,26 - Steack House,60180,Nogent-sur-Oise,26,Avenue du 8 Mai 1945,,60463,,Restauration rapide,,,2.464862,49.275654,,True,True,,,,,,,,,,,,,,,,,,,,,,,,,,,,,,,,,,True,,,,,,,,,,,,,,,,,,,,,,,,,,,,,,,,https://acceslibre.beta.gouv.fr/app/60-nogent-sur-oise/a/restauration-rapide/erp/26-steack-house/
0a6952e2-d205-4f0a-a6b2-fedc4bbb107d,278 Hair Street,91210,Draveil,278,Boulevard Henri Barbusse,,91201,,Coiffure,,https://www.planity.com/glam-r-coiffure-et-beaute-91210-draveil,2.412475,48.692129,,True,True,,,,,,,,,,,,,,,,,,,,,True,,,,,,,,,,,90,,True,,,,,,,,,,,,,,,,,,,,,,,,,,,,,,,,https://acceslibre.beta.gouv.fr/app/91-draveil/a/coiffure/erp/278-hair-street/
6f3d1a44-ce13-4fc5-9269-18410643d3ac,27ème avenue,31000,Toulouse,55,Rue de la Pomme,,31555,,Vêtements,,,1.445162,43.603363,False,False,,False,,False,,,,,,,,,,,,,,,True,True,True,True,,,,,,,,,False,True,90,False,True,battante,manuelle,True,,False,,False,,True,,,,,,,,,,,,,,,,False,False,,,,,,https://acceslibre.beta.gouv.fr/app/31-toulouse/a/vetements-sous-vetements-lingerie/erp/27eme-avenue/
da5629ac-1e78-4c81-af0d-72fcd32f438d,27 MADELEINE,69007,Lyon,27,Rue de la Madeleine,,69387,50035298400016,Restaurant,,https://27madeleine.com/fr,4.848007,45.747728,,,,,,,,,,,,,,,,,,,,,,,,,,,,,,,,,,,,,,,,,,,,,,True,,,,,,,,,,,,,,,,False,,,,,,,https://acceslibre.beta.gouv.fr/app/69-lyon/a/restaurant/erp/27-madeleine/
fcc26971-3952-423d-be86-53302928a84b,28 rue jacquard,45000,Orléans,28,Rue Jacquard,,45234,,Carrosserie,,,1.904532,47.916289,,True,True,,,,,,,,,,,,,,,,,,,,,True,,,,,,,,,,,90,,True,,,,,,,,,,,,,,,,,,,,,,,,,,,,,,,,https://acceslibre.beta.gouv.fr/app/45-orleans/a/carrosserie/erp/28-rue-jacquard/
1d6467c8-eb4c-4785-a59b-4b5acb02a305,29-Grand Centre de Vaccination,29200,Brest,7,rue de Roubaix,,29019,,Laboratoire d'analyse médicale,,,-4.495731,48.397033,,True,True,,,,,,,,,,,,,,,,,,,,,True,,,,,,,,,,,90,,True,,,,,,,,,,,,,,,,,,,,,,,,,,True,True,,,,,https://acceslibre.beta.gouv.fr/app/29-brest/a/laboratoire-danalyse-medicale/erp/29-grand-centre-de-vaccination-2/
963a6ae7-9b2c-496a-9892-f5abbbb8e31d,29 Optical Avenue,92300,Levallois-Perret,29,Rue Greffülhe,,92044,,Opticien,,,2.275925,48.895116,,,,,,,,,,,,,,,,,,,,,,,,True,,,,,,,,,,,90,,True,,,,,,,,,,,,,,,,,,,,,,,,,,,,,,,,https://acceslibre.beta.gouv.fr/app/92-levallois-perret/a/optique/erp/29-optical-avenue/
ce8234c4-9db2-494b-bc5d-c7133b97d957,29Sud Boulangeria - Pâtisserie,29920,Névez,20,Place de l'Eglise,,29153,,Boulangerie Pâtisserie,,,-3.792417,47.819596,,True,True,,,,,,,,,,,,,,,,,,,,,True,,,,,,,,,,,90,,True,,,,,,,,,,,,,,,,,,,,,,,,,,,,,,,,https://acceslibre.beta.gouv.fr/app/29-nevez/a/boulangerie-patisserie/erp/29sud-boulangeria-patisserie/
576e51ab-4376-4f21-aac0-5fdb949acc5b,2A AUTO,97128,Goyave,,l'Aiguille,,97114,,Carrosserie,,,-61.573955,16.129565,,True,True,,,,,,,,,,,,,,,,,,,,,True,,,,,,,,,,,90,,True,,,,,,,,,,,,,,,,,,,,,,,,,,,,,,,,https://acceslibre.beta.gouv.fr/app/971-goyave/a/carrosserie/erp/2a-auto/
1d475125-2362-405a-8ff5-3babeb6cbc12,2A carrosserie,71300,Montceau-les-Mines,1,Rue de Soissons,,71306,,Carrosserie,,https://www.2acarrosserie.fr/,4.363892,46.693474,,True,True,,,,,,,,,,,,,,,,,,,,,True,,,,,,,,,,,90,,True,,,,,,,,,,,,,,,,,,,,,,,,,,,,,,,,https://acceslibre.beta.gouv.fr/app/71-montceau-les-mines/a/carrosserie/erp/2a-carrosserie/
fbda0972-4f22-4d35-9a9d-9140c32bf3ed,2Aformation,11400,Castelnaudary,2885,Route de Saint Papoul,,,,Autre,,,2.000563,43.31524,False,True,False,False,,,,,,,,,,,,,,,,,True,False,,True,,,,,,,False,,False,False,90,False,True,battante,manuelle,,,False,,False,,,,,,,,,,,,,,,,,,False,,,,,,,https://acceslibre.beta.gouv.fr/app/11-castelnaudary/a/autre/erp/2aformation/
02e60958-dfe8-45dc-bcf2-f30598744ae1,2A Immobilier,74000,Annecy,7,Avenue d'albigny,,74010,,Agence immobilière,,https://www.2a-immo.fr,6.135436865869225,45.90361870084932,True,,,True,True,True,True,False,False,5,False,montant,True,fixe,False,,,aucun,,False,True,True,True,True,,,,,,,,,,True,100,False,True,coulissante,automatique,True,,,,,,True,,,,,,,,,,,,,,,,False,False,,,,,False,https://acceslibre.beta.gouv.fr/app/74-annecy/a/agence-immobiliere/erp/2a-immobilier/
64daac1b-27eb-4986-954c-df18d0bbc128,2A L'AGENCE IMMOBILIERE - Spécialiste de la transaction à Béziers,34500,Béziers,14,Rue de l'Olivette,,34032,,Agence immobilière,,,3.269589,43.339255,,True,False,,,,,,,,,,,,,,,,,,,,,True,,,,,,,,,,,,,,,,,,,,,,,,,,,,,,,,,,,,,,,,,,,,,https://acceslibre.beta.gouv.fr/app/34-beziers/a/agence-immobiliere/erp/2a-lagence-immobiliere-specialiste-de-la-transaction-a-beziers/
a8ecb8fc-01df-46d9-a586-16829cd87bb3,2A L'AGENCE IMMOBILIERE - Spécialiste transaction Montpellier,34970,Lattes,39,Avenue de Frejorgues,,34129,,Agence immobilière,,http://www.2alagence.fr/,3.913147,43.571133,,True,True,,,,,,,,,,,,,,,,,,,,,True,,,,,,,,,,,90,,True,,,,,,,,,,,,,,,,,,,,,,,,,,,,,,,,https://acceslibre.beta.gouv.fr/app/34-lattes/a/agence-immobiliere/erp/2a-lagence-immobiliere-specialiste-transaction-montpellier/
140f6c1f-c3e6-41f1-a8a5-50f771625942,2 Alizés Salle La Mouette,35800,Dinard,2,Boulevard Albert 1er,,35093,,Cinéma,,,-2.055645,48.635211,,,,,,,,,,,,,,,,,,,,,True,True,True,False,,6,,,,,,,,,90,,True,battante,manuelle,,,,,,,,,,,,,,,,,,,,,,,,True,,,,,,https://acceslibre.beta.gouv.fr/app/35-dinard/a/cinema/erp/2-alizes-salle-la-mouette/
018c02f4-214e-4a47-8891-834a9e5e8d9a,2Amis,54630,Flavigny-sur-Moselle,6,Rue des Coteaux,,54196,,Agence immobilière,,http://www.2amisimmo.fr/,6.186047,48.564078,,True,True,,,,,,,,,,,,,,,,,,,,,,,,,,,,,,,,,,True,,,,,,,,,,,,,,,,,,,,,,,,,,,,,,,,https://acceslibre.beta.gouv.fr/app/54-flavigny-sur-moselle/a/agence-immobiliere/erp/2amis/
d9904157-7c83-4bc2-829c-50ec5fb784f1,2A Photographie - Vos portraits selon vos souhaits,06370,Mouans-Sartoux,830,Chemin des Gourettes,,06084,,Photographie,,,6.975891,43.614974,,True,True,,,,,,,,,,,,,,,,,,,,,,,,,,,,,,,,,,True,,,,,,,,,,,,,,,,,,,,,,,,,,,,,,,,https://acceslibre.beta.gouv.fr/app/06-mouans-sartoux/a/photographie/erp/2a-photographie-vos-portraits-selon-vos-souhaits/
5343f850-6d26-4b00-a360-a1c54a159542,2 ART Coiffure mixte,90000,Belfort,,Rue du vieux Marché,,90010,,Coiffure,,http://www.2art.fr/,6.865268,47.638217,,True,True,,,,,,,,,,,,,,,,,,,,,,,,,,,,,,,,,,True,,,,,,,,,,,,,,,,,,,,,,,,,,,,,,,,https://acceslibre.beta.gouv.fr/app/90-belfort/a/coiffure/erp/2-art-coiffure-mixte/
7d2e80aa-d45e-425c-a867-876e725527a6,2b2o,34300,Agde,3,Impasse Saint Vincent,,34003,,"Piscine, centre aquatique",,,3.454217,43.282734,,True,True,,,,,,,,,,,,,,,,,,,,,,,,,,,,,,,,,,True,,,,,,,,,,,,,,,,,,,,,,,,,,,,,,,,https://acceslibre.beta.gouv.fr/app/34-agde/a/piscine/erp/2b2o/
136b4513-186c-4d91-8945-6dce88297261,2BCoworking,69800,Saint-Priest,,Route de Grenoble,,69290,,Coworking,,https://2bcoworking.fr/,4.970743,45.712579,,True,True,,,,,,,,,,,,,,,,,,,,,True,,,,,,,,,,,90,,True,,,,,,,,,,,,,,,,,,,,,,,,,False,True,True,,,,,https://acceslibre.beta.gouv.fr/app/69-saint-priest/a/coworking/erp/2bcoworking/
721613eb-f391-4cde-83e4-556d236aeccb,2B Design,31000,Toulouse,37,Rue Croix Baragnon,,31555,,Meubles ameublement,,http://www.galvani.fr/,1.4479342103004458,43.5997285028298,True,,,True,True,False,,,,,,,,,,,,,,,False,True,False,False,,1,False,False,aucune,montant,False,,,True,87,,True,battante,manuelle,False,,,,,,,,,,,,,,,,,,,,,,,False,,,,,,https://acceslibre.beta.gouv.fr/app/31-toulouse/a/meubles-ameublement/erp/2b-design/
f1575dc8-89fa-4faa-a4b3-4811910357f4,2BER PISCINE,33750,Beychac-et-Caillau,2,Route de Pasquina,,33049,,"Piscine, centre aquatique",,https://www.2ber-piscine.fr/,-0.398417,44.874262,,True,True,,,,,,,,,,,,,,,,,,,,,True,,,,,,,,,,,90,,True,,,,,,,,,,,,,,,,,,,,,,,,,,,,,,,,https://acceslibre.beta.gouv.fr/app/33-beychac-et-caillau/a/piscine/erp/2ber-piscine/
ca5f4c7e-85fb-4245-92a1-365ec301d07a,2B esthétique,54760,Leyr,4,Route de Montenoy,,54315,,"Soins de beauté, esthétique",,https://www.2besthetique.fr/,6.263562,48.801089,,True,True,,,,,,,,,,,,,,,,,,,,,,,,,,,,,,,,,,True,,,,,,,,,,,,,,,,,,,,,,,,,,,,,,,,https://acceslibre.beta.gouv.fr/app/54-leyr/a/soins-de-beaute/erp/2b-esthetique/
0637a886-c809-43e8-837a-d69d832750d9,2B Original,94350,Villiers-sur-Marne,8,Rue Robert Schumann,,94079,,Restauration rapide,,https://www.instagram.com/2b_original/,2.542008,48.82267,True,False,,True,True,False,,,,,,,,,,,,,,,True,True,True,False,False,,,,,,False,,False,True,,True,True,battante,manuelle,True,,,,,,True,,,,,,,,,,,,,,,,False,True,,,,,,https://acceslibre.beta.gouv.fr/app/94-villiers-sur-marne/a/restauration-rapide/erp/2b-original/
c9440ad7-e095-42f9-85f4-93b5ce938015,2 Bourse,75116,PARIS,11,Avenue D IENA,,,,Centre national de la fonction publique territoriale,,https://www.boursicoteur.co/,2.309060096740723,48.859576384025154,,,,,,,,,,,,,,,,,,,,,,,,,,,,,,,,,,,,,False,,,,,,,,,,,,,,,,,,,,,,,,,,,,,,,,https://acceslibre.beta.gouv.fr/app/75-paris/a/centre-national-de-la-fonction-publique-territoria/erp/2-bourse/
21e17c8d-4c4f-416e-a025-192a4f4bcdaa,2 brins de folie,35520,Montreuil-le-Gast,1,Rue de la Mairie,,,,Boulangerie Pâtisserie,,,-1.728138,48.247012,False,False,,True,,False,,,,,,,,,,,,,,,True,True,True,True,,,,,,,False,,False,False,90,False,True,battante,manuelle,True,non-formés,False,,False,,True,,,,,,,,,,,,,,,,False,False,,,,,,https://acceslibre.beta.gouv.fr/app/35-montreuil-le-gast/a/boulangerie-patisserie/erp/2-brins-de-folie/
6e8140c7-4a3e-4b15-bf20-60aad21a6056,2C2L,92000,Nanterre,4,Place Gabriel Péri,,92050,,Librairie,,,2.197373,48.889828,,,,,,,,,,,,,,,,,,,,,,,,True,,,,,,,,,,,90,,True,,,,,,,,,,,,,,,,,,,,,,,,,,,,,,,,https://acceslibre.beta.gouv.fr/app/92-nanterre/a/librairie/erp/2c2l/
40da3032-8b87-4fde-90de-f8852c2f2070,2 chambres Poitiers,86000,Poitiers,9,Rue de Provence,,86194,,Hôtel,,,0.358254,46.588483,,,,,,,,,,,,,,,,,,,,,,,,True,,,,,,,,,,,80,,True,,,,,,,,,,,,,,,,1,,,,,,,,,,,,,,,,https://acceslibre.beta.gouv.fr/app/86-poitiers/a/hotel/erp/2-chambres-poitiers/
34711680-e2ab-4306-9e3f-a311634df94e,2C IMMO,68100,Mulhouse,12,Avenue Roger Salengro,,68224,,Agence immobilière,,https://www.catherine-chopin.fr/,7.343541,47.748866,,True,True,,,,,,,,,,,,,,,,,,,,,,,,,,,,,,,,,,True,,,,,,,,,,,,,,,,,,,,,,,,,,,,,,,,https://acceslibre.beta.gouv.fr/app/68-mulhouse/a/agence-immobiliere/erp/2c-immo/
bf47080d-ce52-4718-80ba-bc90fd4c2f3a,2C  Institut,47240,Bon-Encontre,59,Rue de la République,,,,"Soins de beauté, esthétique",,http://www.2c-institut.fr/,0.6686505675315857,44.18590847305433,True,True,True,True,True,False,,,,,,,,,,,,,,,True,True,True,True,,,,,,,False,,False,True,90,False,True,battante,manuelle,True,formés,,,False,,True,,,,,,,,,,,,,,,,False,False,,,,,,https://acceslibre.beta.gouv.fr/app/47-bon-encontre/a/soins-de-beaute/erp/2c-institut/
8a178fba-c9c6-4c52-afb3-7f8e8e5ff2c8,2C INSTITUT,47240,Bon-Encontre,59,Rue de la Republique,,47032,,"Soins de beauté, esthétique",,http://www.2c-institut.fr/,0.668153,44.186291,,True,True,,,,,,,,,,,,,,,,,,,,,True,,,,,,,,,,,90,,True,,,,,,,,,,,,,,,,,,,,,,,,,,True,True,,,,,https://acceslibre.beta.gouv.fr/app/47-bon-encontre/a/soins-de-beaute/erp/2c-institut-2/
854f5fde-68a4-4897-87ee-5e16f6582863,2 elle,50810,Saint-Jean-d'Elle,7,Route de la Liberation,,50492,,Boucherie / commerce de viande,,http://www.boucherie-jambon-lesouef.com/,-0.973275,49.09446,,True,True,,,,,,,,,,,,,,,,,,,,,True,,,,,,,,,,,90,,True,,,,,,,,,,,,,,,,,,,,,,,,,,,,,,,,https://acceslibre.beta.gouv.fr/app/50-saint-jean-delle/a/boucherie/erp/2-elle/
31d434b5-73dc-48b3-9a0a-9ed4646e906c,2ème Avenue immobilier,70800,Saint-Loup-sur-Semouse,2,Avenue Christiane Jansen,,70467,,Agence immobilière,,http://www.2avenueimmo.com/,6.275133,47.882859,,True,True,,,,,,,,,,,,,,,,,,,,,,,,,,,,,,,,,,True,,,,,,,,,,,,,,,,,,,,,,,,,,,,,,,,https://acceslibre.beta.gouv.fr/app/70-saint-loup-sur-semouse/a/agence-immobiliere/erp/2eme-avenue-immobilier/
8346341b-a335-4c3e-b287-50edfc0ae2b8,2EN1 INSTITUT ( HAIR SPA ),33160,Saint-Médard-en-Jalles,,Avenue Denis Papin,,33449,,"Soins de beauté, esthétique",,https://www.planity.com/2en1-institut-33160-saint-medard-en-jalles,-0.728683,44.861096,,True,True,,,,,,,,,,,,,,,,,,,,,True,,,,,,,,,,,90,,True,,,,,,,,,,,,,,,,,,,,,,,,,False,,,,,,,https://acceslibre.beta.gouv.fr/app/33-saint-medard-en-jalles/a/soins-de-beaute/erp/2en1-institut-hair-spa/
b87d9a2f-05f8-43af-867a-e02921bfdf71,2 Fromagerie Baechler,47110,Le Temple-sur-Lot,4606,avenue de bordeaux,,47306,,Crèmerie Fromagerie,,https://fromagerie-baechler.com/,0.495528,44.377063,,True,True,,,,,,,,,,,,,,,,,,,,,True,,,,,,,,,,,90,,True,,,,,,,,,,,,,,,,,,,,,,,,,,,,,,,,https://acceslibre.beta.gouv.fr/app/47-le-temple-sur-lot/a/cremerie-fromagerie/erp/2-fromagerie-baechler/
bcff0865-491b-43f4-b734-07f4991713ca,2 Fusion Production,34400,Lunel,280,Rue Clement Ader,,34145,,Théâtre,,,4.146771,43.686806,,True,True,,,,,,,,,,,,,,,,,,,,,,,,,,,,,,,,,,True,,,,,,,,,,,,,,,,,,,,,,,,,,,,,,,,https://acceslibre.beta.gouv.fr/app/34-lunel/a/theatre/erp/2-fusion-production/
070adfbc-ee5d-41de-b9c3-99a6a9414fe0,2g Coiffure - Coiffeur à Ermont,95120,Ermont,7,Rue du 18 Juin,,95219,,Coiffure,,https://business.google.com/website/2gcoiffure?utm_source=gmb,2.257676,48.989283,,True,True,,,,,,,,,,,,,,,,,,,,,True,,,,,,,,,,,90,,True,,,,,,,,,True,,,,,,,,,,,,,,,,False,,,,,,,https://acceslibre.beta.gouv.fr/app/95-ermont/a/coiffure/erp/2g-coiffure-coiffeur-a-ermont/
720138f7-e3ec-4a33-b725-8c4d2e4f7421,2L auto,31400,Toulouse,9,Avenue de la Marcaissonne,,31555,,Carrosserie,,https://www.2l-auto.fr/,1.498682,43.574137,,True,True,,,,,,,,,,,,,,,,,,,,,True,,,,,,,,,,,90,,True,,,,,,,,,,,,,,,,,,,,,,,,,,,,,,,,https://acceslibre.beta.gouv.fr/app/31-toulouse/a/carrosserie/erp/2l-auto/
38c8ab30-e0c0-4e4a-ae80-9a9d85a47da2,2L Automobiles,12450,Luc-la-Primaube,10bis,Rue du Pont Bascule,,12133,,Concessionnaire automobile,,,2.5534495711326604,44.28722100461211,True,False,,,,False,,,,,,,,,,,,,,,True,True,True,True,,,,,,,,,,,80,,True,battante,manuelle,True,formés,,,,,,,,,,,,,,,,,,,,,,False,,,,,,https://acceslibre.beta.gouv.fr/app/12-luc-la-primaube/a/concessionnaire-automobile/erp/2l-automobiles/
046321bd-91ac-497b-9e97-978ca60c198d,2Lautomobiles10,10120,Saint-André-les-Vergers,2,Rue de la Carrière,,10333,,Garage automobile,,,4.047639179843827,48.269316537688894,,True,,False,,True,True,True,,,,,,,False,,,léger,False,False,True,False,,True,,,,,,,False,,False,False,85,False,True,battante,,True,,,,False,,True,,,,,,,,,,,,,,,,False,,,,,,,https://acceslibre.beta.gouv.fr/app/10-saint-andre-les-vergers/a/garage/erp/2lautomobiles10/
6b3d10c9-cbee-4999-b1ea-d5e8d486638c,2Le  Logiciel Libre Pour L'Entreprise,68100,Mulhouse,3,Rue du Sauvage,,68224,,Informatique,,,7.340838,47.746407,,False,,True,,False,,,,,,,,,,,,,,,True,True,True,True,,,,,,,False,,False,False,85,False,True,battante,manuelle,True,,,,False,,True,,,,,,,,,,,,,,,,False,False,,,,,,https://acceslibre.beta.gouv.fr/app/68-mulhouse/a/informatique/erp/2le-logiciel-libre-pour-lentreprise/
40019cfb-c19e-4223-b9af-40a4c2ce1bd8,2L HAIR,50100,Cherbourg-en-Cotentin,30,Rue du Commerce,,50129,,Coiffure,,,-1.62435,49.639617,,,,,,,,,,,,,,,,,,,,,,,,True,,,,,,,,,,,90,,True,,,,,,,,,,,,,,,,,,,,,,,,,,,,,,,,https://acceslibre.beta.gouv.fr/app/50-cherbourg-en-cotentin/a/coiffure/erp/2l-hair/
334de198-ce50-4e5f-94e2-125a5773e931,2L-image,31270,Villeneuve-Tolosane,,Impasse Bourrouil,,31588,,Photographie,,https://2l-image.com/,1.361193,43.523552,,True,True,,,,,,,,,,,,,,,,,,,,,True,,,,,,,,,,,90,,True,,,,,,,,,,,,,,,,,,,,,,,,,,,,,,,,https://acceslibre.beta.gouv.fr/app/31-villeneuve-tolosane/a/photographie/erp/2l-image/
6649792b-9fe4-4205-8ac4-a25436b455e9,2L Photographies,95220,Herblay-sur-Seine,10,Avenue Janine,,95306,,Photographie,,http://www.2lphotographies.fr/,2.130359,49.012531,,,,,,,,,,,,,,,,,,,,,,,,True,,,,,,,,,,,90,,True,,,,,,,,,,,,,,,,,,,,,,,,,,,,,,,,https://acceslibre.beta.gouv.fr/app/95-herblay-sur-seine/a/photographie/erp/2l-photographies/
171a69df-8cf4-4157-be50-9577b15f57ce,2Luxe SAS,17000,La Rochelle,36,Avenue du Champ de Mars,,17300,,"Soins de beauté, esthétique",,,-1.148215,46.169389,,True,False,,,True,,,,,,,,,,,,,,,,,,False,,1,,,aucune,montant,,,,,,,,,,,,,,,,,,,,,,,,,,,,,,,,,True,False,,,,,https://acceslibre.beta.gouv.fr/app/17-la-rochelle/a/soins-de-beaute/erp/2luxe-sas/
ec66c480-cc37-4399-bc3d-5099548dd509,2M,75011,Paris,43,Boulevard de Belleville,,,,Boucherie / commerce de viande,,,2.3799052834510803,48.86922805264814,True,,,True,True,,,,,,,,,,,,,,,,True,,,True,,,,,,,,,,,90,,True,,,True,non-formés,,,,,True,,,,,,,,,,,,,,,,,False,,,,,,https://acceslibre.beta.gouv.fr/app/75-paris/a/boucherie/erp/2m/
11dca94e-7a26-46ce-a1fb-00277a31b46d,2M Camper,24750,Trélissac,71,Avenue de l'Automobile,,24557,,Carrosserie,,http://www.2mcamper.fr/,0.810802,45.206334,,True,True,,,,,,,,,,,,,,,,,,,,,True,,,,,,,,,,,90,,True,,,,,,,,,,,,,,,,,,,,,,,,,,True,True,,,,,https://acceslibre.beta.gouv.fr/app/24-trelissac/a/carrosserie/erp/2m-camper/
16c47140-67e1-4925-84ce-6b69ad3eab47,2 Meches Avec Nous,09000,Foix,5,Rue Labistour,,09122,,Coiffure,,,1.607891,42.965444,,True,True,,,,,,,,,,,,,,,,,,,,,True,,,,,,,,,,,90,,True,,,,,,,,,,,,,,,,,,,,,,,,,,True,True,,,,,https://acceslibre.beta.gouv.fr/app/09-foix/a/coiffure/erp/2-meches-avec-nous/
c58295b8-e710-4c16-bb08-988a0f866981,2 Meches Avec Vous,83720,Trans-en-Provence,61,Rue Nationale,,83141,,Coiffure,,https://www.facebook.com/Salon-de-Coiffure-2-MECHES-AVEC-VOUS-%C3%A0-Trans-en-Provence-524718560909321/,6.485991,43.501126,,True,True,,,,,,,,,,,,,,,,,,,,,,,,,,,,,,,,,,True,,,,,,,,,,,,,,,,,,,,,,,,,,,,,,,,https://acceslibre.beta.gouv.fr/app/83-trans-en-provence/a/coiffure/erp/2-meches-avec-vous-2/
82acec4e-64a9-4411-9270-364fedc5fcdc,2 Méches Avec Vous !,33370,Sallebœuf,3bis,Avenue Gustave Eiffel,,33496,,Coiffure,,,-0.397643,44.842323,,True,True,,,,,,,,,,,,,,,,,,,,,True,,,,,,,,,,,90,,True,,,,,,,,,,,,,,,,,,,,,,,,,,True,True,,,,,https://acceslibre.beta.gouv.fr/app/33-sallebuf/a/coiffure/erp/2-meches-avec-vous-5/
aedd0bb2-2057-467e-aefc-c66c1a680e43,2 mèches avec vous,82100,Castelsarrasin,162,Chemin des Melets,,82033,,Coiffure,,http://www.facebook.com/2-M%C3%A8ches-avec-vous-259402288097786/,1.151124,44.042823,,True,True,,,,,,,,,,,,,,,,,,,,,True,,,,,,,,,,,90,,True,,,,,,,,,,,,,,,,,,,,,,,,,,,,,,,,https://acceslibre.beta.gouv.fr/app/82-castelsarrasin/a/coiffure/erp/2-meches-avec-vous-4/
5f4621cc-9300-4698-a7be-a440721bdc23,2 Mèches avec Vous,83200,Toulon,571,Avenue des Fils Marescot,,83137,,Coiffure,,,5.903345,43.152369,,,,,,,,,,,,,,,,,,,,,,,,True,,,,,,,,,,,90,,True,,,,,,,,,,,,,,,,,,,,,,,,,,,,,,,,https://acceslibre.beta.gouv.fr/app/83-toulon/a/coiffure/erp/2-meches-avec-vous-3/
ad9caae4-4a9d-4450-b526-d5af2883e7ec,2 Mèches Avec Vous,50130,Cherbourg-en-Cotentin,64,Rue Roger Salengro (Cherbourg-Octeville),,50129,,Coiffure,,,-1.643436,49.626673,,True,True,,,,,,,,,,,,,,,,,,,,,True,,,,,,,,,,,90,,True,,,,,,,,,,,,,,,,,,,,,,,,,,,,,,,,https://acceslibre.beta.gouv.fr/app/50-cherbourg-en-cotentin/a/coiffure/erp/2-meches-avec-vous/
189a0f5f-9432-4418-9895-88325bb38ad0,2 Mèches avec Vous marseille,13009,Marseille,58,Boulevard du cabot,,13209,,Coiffure,,http://2mechesavecvous-marseille.com/,5.417762,43.25813,,,,,,,,,,,,,,,,,,,,,,,,True,,,,,,,,,,,90,,True,,,,,,,,,,,,,,,,,,,,,,,,,,,,,,,,https://acceslibre.beta.gouv.fr/app/13-marseille/a/coiffure/erp/2-meches-avec-vous-marseille/
cb455ad5-5a7c-4ab0-9b1b-8f1afba62b52,2 Mèches ensemble,10000,Troyes,2,Rue Godard Pillaveinne,,10387,,Coiffure,,https://www.planity.com/deux-meches-ensemble-10000-troyes,4.092807,48.289196,,True,True,,,,,,,,,,,,,,,,,,,,,True,,,,,,,,,,,90,,True,,,,,,,,,,,,,,,,,,,,,,,,,,,,,,,,https://acceslibre.beta.gouv.fr/app/10-troyes/a/coiffure/erp/2-meches-ensemble/
2b48b3a7-9ebc-4edf-9937-893f19c17d3b,2nd Street République Beaux-arts,59000,Lille,,Rue d'Inkermann,,59350,,Coiffure,,,3.059519,50.630222,,,,,,,,,,,,,,,,,,,,,,,,True,,,,,,,,,,,90,,True,,,,,,,,,,,,,,,,,,,,,,,,,,,,,,,,https://acceslibre.beta.gouv.fr/app/59-lille/a/coiffure/erp/2nd-street-republique-beaux-arts/
a3f51e03-3b3c-4d63-a39b-326182bf31bd,2 Nuances,83500,La Seyne-sur-Mer,,Corniche Georges Pompidou,,83126,,Coiffure,,,5.895227,43.083056,,True,True,,,,,,,,,,,,,,,,,,,,,True,,,,,,,,,,,90,,True,,,,,,,,,,,,,,,,,,,,,,,,,,,,,,,,https://acceslibre.beta.gouv.fr/app/83-la-seyne-sur-mer/a/coiffure/erp/2-nuances/
d2d37b0c-4ef7-4969-b5e3-5dbe9c56489e,²oph Perpignan Roussillon,66000,Perpignan,1,Rue de Puyvalador,,66136,,Agence immobilière,,,2.87857,42.706207,,True,True,,,,,,,,,,,,,,,,,,,,,,,,,,,,,,,,,,True,,,,,,,,,,,,,,,,,,,,,,,,,,,,,,,,https://acceslibre.beta.gouv.fr/app/66-perpignan/a/agence-immobiliere/erp/2oph-perpignan-roussillon/
678a7aa0-200f-4cbb-aa3d-23d565d8cbb1,2 Optic,13003,Marseille,81,Avenue camille pelletan,,13203,,Opticien,,,5.373225,43.306059,,True,True,,,,,,,,,,,,,,,,,,,,,True,,,,,,,,,,,90,,True,,,,,,,,,,,,,,,,,,,,,,,,,False,True,True,,,,,https://acceslibre.beta.gouv.fr/app/13-marseille/a/optique/erp/2-optic/
4ca1c87d-fada-4697-8084-2aeb92369bf9,2 Pains D'Ailleurs,78780,Maurecourt,15,Rue du Marechal Leclerc,,78382,,Restauration rapide,,,2.063025,48.995654,,True,True,,,,,,,,,,,,,,,,,,,,,,,,,,,,,,,,,,True,,,,,,,,,,,,,,,,,,,,,,,,,,,,,,,,https://acceslibre.beta.gouv.fr/app/78-maurecourt/a/restauration-rapide/erp/2-pains-dailleurs/
b2ffc737-0ba0-4771-bc6a-7ea882c07435,2 R Coiffure,88390,Uxegney,21bis,Rue d'Epinal,,88483,,Coiffure,,,6.380727,48.193039,,False,,True,,False,,,,,,,,,,,,,,,True,True,True,True,,,,,,,False,,False,False,85,False,True,battante,manuelle,True,,,,False,,True,,,,,,,,,,,,,,,,False,True,True,,,,,https://acceslibre.beta.gouv.fr/app/88-uxegney/a/coiffure/erp/2-r-coiffure/
80f70156-ed63-4ff3-bac8-d95baffe328a,2R Coiffure,88390,Uxegney,21,Rue d'Epinal,,88483,,Coiffure,,,6.379921,48.192986,,True,True,,,,,,,,,,,,,,,,,,,,,True,,,,,,,,,,,90,,True,,,,,,,,,,,,,,,,,,,,,,,,,,,,,,,,https://acceslibre.beta.gouv.fr/app/88-uxegney/a/coiffure/erp/2r-coiffure/
39d01682-cb7a-4196-be56-104738b76ec1,2R IMMOBILIER,77400,Lagny-sur-Marne,92,Rue Saint-denis,,77243,,Agence immobilière,,http://www.2r-immobilier.fr/,2.709754,48.879245,,True,True,,,,,,,,,,,,,,,,,,,,,,,,,,,,,,,,,,True,,,,,,,,,,,,,,,,,,,,,,,,,,,,,,,,https://acceslibre.beta.gouv.fr/app/77-lagny-sur-marne/a/agence-immobiliere/erp/2r-immobilier/
459f0dbf-9714-4289-98c0-39f0bec7fce8,2R Retailing,66170,Néfiach,13,Avenue Jean Jaurès,,66121,,Espace numérique,https://www.tremplin-numerique.org/,https://www.tremplin-numerique.org/,2.669398,42.693542,False,True,True,True,True,False,,,,,,,,,,,,,,,True,,,True,,,,,,,True,"[""interphone""]",False,True,,False,False,,,False,,,,,,,,,,,,,,,,,,,,,,,,,,,https://www.tremplin-numerique.org/,,https://acceslibre.beta.gouv.fr/app/66-nefiach/a/espace-numerique/erp/2r-retailing/
f6b9de9e-481a-4eec-a76f-93e66dd00069,2 Rue Boucher Garage,75001,Paris,2,Rue Boucher,,75101,,Boucherie / commerce de viande,,,2.343783,48.859432,,True,True,,,,,,,,,,,,,,,,,,,,,True,,,,,,,,,,,90,,True,,,,,,,,,,,,,,,,,,,,,,,,,,,,,,,,https://acceslibre.beta.gouv.fr/app/75-paris/a/boucherie/erp/2-rue-boucher-garage/
f99ac14f-74d3-45af-a047-11abd57368c8,2 RUE DU CAMPING,76460,Saint-Valery-en-Caux,21,Rue du Hameau d’Etennemare,,76655,,Chirurgien dentiste,,,0.704671,49.858585,,True,True,,,,,,,,,,,,,,,,,,,,,,,,,,,,,,,,,,True,,,,,,,,,,,,,,,,,,,,,,,,,,,,,,,,https://acceslibre.beta.gouv.fr/app/76-saint-valery-en-caux/a/chirurgien-dentiste/erp/2-rue-du-camping/
d56c8284-5753-4bb3-8fd5-7908a51eb988,2 Savoies Immobilier,74000,Annecy,6,Rue Montaigne,,74010,,Agence immobilière,,https://www.2savoiesimmobilier.com/,6.140532,45.906039,,True,True,,,,,,,,,,,,,,,,,,,,,True,,,,,,,,,,,90,,True,,,,,,,,,,,,,,,,,,,,,,,,,,,,,,,,https://acceslibre.beta.gouv.fr/app/74-annecy/a/agence-immobiliere/erp/2-savoies-immobilier/
8eb073ac-b9f3-4ab4-8a0b-414e0c468a43,2SB LA FOUGASSERIE SARL,06300,Nice,56,Boulevard Virgile Barel,,06088,,Boulangerie Pâtisserie,,,7.292966,43.713699,True,False,,True,False,,,,,,,,,,,,,,,,True,True,,True,,,,,,,,,,,90,,True,battante,manuelle,True,non-formés,,,,,,,,,,,,,,,,,,,,,,,,,,,,https://acceslibre.beta.gouv.fr/app/06-nice/a/boulangerie-patisserie/erp/2sb-la-fougasserie-sarl/
8972420a-6ddb-4bfb-9ded-ae038c3965ea,2SI - Fournisseur de Matériaux de Construction,93600,Aulnay-sous-Bois,20,Rue Germain Planque,,93005,,Droguerie,,http://2-si.fr/,2.475937,48.951933,,True,True,,,,,,,,,,,,,,,,,,,,,True,,,,,,,,,,,90,,True,,,,,,,,,,,,,,,,,,,,,,,,,,,,,,,,https://acceslibre.beta.gouv.fr/app/93-aulnay-sous-bois/a/droguerie/erp/2si-fournisseur-de-materiaux-de-construction/
1ac5c4e3-247c-4a02-966b-2e7f4ca77317,2 Sœurs Mille Pages 1 Café,77200,Torcy,7,Avenue Jacques Prevert,,77468,,Librairie,,http://2smp1c.fr/,2.65121,48.847253,,True,True,,,,,,,,,,,,,,,,,,,,,True,,,,,,,,,,,90,,True,,,,,,,,,,,,,,,,,,,,,,,,,,True,True,,,,,https://acceslibre.beta.gouv.fr/app/77-torcy/a/librairie/erp/2-surs-mille-pages-1-cafe/
c2da422b-4850-4c3f-bdce-5864522237be,2sp - Philippe HUBERT - Photographe,84500,Bollène,12,Rue des Ecoles,,84019,,Photographie,,http://www.2sp.fr/,4.748835,44.280144,,True,True,,,,,,,,,,,,,,,,,,,,,,,,,,,,,,,,,,True,,,,,,,,,,,,,,,,,,,,,,,,,,,,,,,,https://acceslibre.beta.gouv.fr/app/84-bollene/a/photographie/erp/2sp-philippe-hubert-photographe/
aea32395-9386-4838-b246-7430ac1100f3,2studio2 Portraits et Mariage,78280,Guyancourt,2,Place Jacques Brel,,78297,,Photographie,,http://www.2studio2.com/,2.050264,48.774803,,True,True,,,,,,,,,,,,,,,,,,,,,,,,,,,,,,,,,,True,,,,,,,,,,,,,,,,,,,,,,,,,,,,,,,,https://acceslibre.beta.gouv.fr/app/78-guyancourt/a/photographie/erp/2studio2-portraits-et-mariage/
0781b0ac-aa6e-4582-8d3a-f0c83506cd21,2theloo,91300,Massy,,Avenue Carnot,,91377,,Toilettes publiques,,http://www.2theloo.com/,2.263173,48.725937,,True,True,,,,,,,,,,,,,,,,,,,,,,,,,,,,,,,,,,True,,,,,,,,,,,,,,,,,,,,,,,,,,,,,,,,https://acceslibre.beta.gouv.fr/app/91-massy/a/toilettes-publiques/erp/2theloo/
93d72bf3-4ee2-4da4-8ce0-3e007ec55c1d,2theloo,57000,Metz,,Place du Général de Gaulle,,57463,,Toilettes publiques,,http://www.2theloo.com/,6.176598,49.11043,,True,True,,,,,,,,,,,,,,,,,,,,,,,,,,,,,,,,,,True,,,,,,,,,,,,,,,,,,,,,,,,,,,,,,,,https://acceslibre.beta.gouv.fr/app/57-metz/a/toilettes-publiques/erp/2theloo-2/
28128445-4eae-4742-8c3c-65ddf105f42b,2theloo,35000,Rennes,,Boulevard Solférino,,35238,,Toilettes publiques,,,-1.668452,48.104506,,True,True,,,,,,,,,,,,,,,,,,,,,True,,,,,,,,,,,90,,True,,,,,,,,,,,,,,,,,,,,,,,,,,,,,,,,https://acceslibre.beta.gouv.fr/app/35-rennes/a/toilettes-publiques/erp/2theloo-3/
bad28af6-bef1-407f-849f-bac3db352819,2theloo Marne la Vallée,77700,Chessy,,Place des Passagers du Vent,,77111,,Toilettes publiques,,http://www.2theloo.com/,2.782479,48.870812,,True,True,,,,,,,,,,,,,,,,,,,,,True,,,,,,,,,,,90,,True,,,,,,,,,,,,,,,,,,,,,,,,,,,,,,,,https://acceslibre.beta.gouv.fr/app/77-chessy/a/toilettes-publiques/erp/2theloo-marne-la-vallee/
b81572b0-4167-4d7e-b7a4-1c5a7a9954c7,2theloo Toilettes,21000,Dijon,,Rue de Larrey,,21231,,Toilettes publiques,,,5.01881,47.315409,,True,True,,,,,,,,,,,,,,,,,,,,,,,,,,,,,,,,,,True,,,,,,,,,,,,,,,,,,,,,,,,,,,,,,,,https://acceslibre.beta.gouv.fr/app/21-dijon/a/toilettes-publiques/erp/2theloo-toilettes/
9a5e23b1-bb49-4d59-ab18-d179f8abc815,2Th STREET BARBER,91800,Brunoy,5,Rue Pasteur,,91114,,Coiffure,,,2.503723,48.697685,,False,,True,True,,,,,,,,,,,,,,,,,,,True,,,,,,,,,,,,,,,,,,,,,,,,,,,,,,,,,,,,,,,True,False,,,,,https://acceslibre.beta.gouv.fr/app/91-brunoy/a/coiffure/erp/2th-street-barber/
c21504aa-0d5b-41b4-bc0c-3735a5f565a1,2 Toute Beauté,57890,Porcelette,4,Rue de Diesen,,57550,,Coiffure,,https://app.rdvcoiffure.fr/2toutebeaute,6.65341,49.157035,,True,True,,,,,,,,,,,,,,,,,,,,,,,,,,,,,,,,,,True,,,,,,,,,,,,,,,,,,,,,,,,,False,,,,,,,https://acceslibre.beta.gouv.fr/app/57-porcelette/a/coiffure/erp/2-toute-beaute/
97260b2b-9c38-4df5-81d1-8237f6eb9e0d,2VJP,83140,Six-Fours-les-Plages,183,Chemin des Négadoux,,83129,,Boucherie / commerce de viande,,,5.842773,43.109566,,True,True,,,,,,,,,,,,,,,,,,,,,,,,,,,,,,,,,,True,,,,,,,,,,,,,,,,,,,,,,,,,,,,,,,,https://acceslibre.beta.gouv.fr/app/83-six-fours-les-plages/a/boucherie/erp/2vjp/
785e0341-d89a-440c-89c1-127e4817d024,3000 Pierres et un Instant,06510,Carros,,Avenue des Cigales,,06033,,Bijouterie joaillerie,,http://www.3000pierres.fr/,7.190802,43.769117,,,,,,,,,,,,,,,,,,,,,,,,True,,,,,,,,,,,90,,True,,,,,,,,,,,,,,,,,,,,,,,,,,,,,,,,https://acceslibre.beta.gouv.fr/app/06-carros/a/bijouterie-joaillerie/erp/3000-pierres-et-un-instant/
8a6c4fde-8179-42b1-88b8-e277058fd084,30 degrés à l'Ongle - La Roche-sur-Yon,85000,La Roche-sur-Yon,4,Rue la fayette,,85191,,"Soins de beauté, esthétique",,,-1.42926,46.669417,,True,True,,,,,,,,,,,,,,,,,,,,,True,,,,,,,,,,,90,,True,,,,,,,,,,,,,,,,,,,,,,,,,,,,,,,,https://acceslibre.beta.gouv.fr/app/85-la-roche-sur-yon/a/soins-de-beaute/erp/30-degres-a-longle-la-roche-sur-yon/
c6a42acb-34ec-4783-a7bf-7a9e560d2493,30 EME LATITUDE,16160,Gond-Pontouvre,116,Route de Paris,,16154,,Boucherie / commerce de viande,,,0.171485,45.667015,,True,True,,,,,,,,,,,,,,,,,,,,,True,,,,,,,,,,,90,,True,,,,,,,,,,,,,,,,,,,,,,,,,,,,,,,,https://acceslibre.beta.gouv.fr/app/16-gond-pontouvre/a/boucherie/erp/30-eme-latitude/
9eef8d84-f0e8-407c-987b-dbae6303ed01,310 A TABLE,69310,Pierre-Bénite,147,Boulevard de l'Europe,,69152,50900490900032,Restaurant,,http://www.310atable.fr,4.826297,45.695673,,True,True,,,,,,,,,,,,,,,,,,,,,True,,,,,,,,,,,90,,,,,,,,,,,True,,,,,,,,,,,,,,,,False,True,True,,,,,https://acceslibre.beta.gouv.fr/app/69-pierre-benite/a/restaurant/erp/310-a-table/
78401a80-5adf-436d-b868-4605005389c6,"3.14 Immobilier -Agence immobilière à Gravigny, Evreux, et ses alentours",27930,Gravigny,121,Avenue Aristide Briand,,27299,,Agence immobilière,,https://314immobilier.fr/,1.163149,49.04807,,True,True,,,,,,,,,,,,,,,,,,,,,,,,,,,,,,,,,,True,,,,,,,,,,,,,,,,,,,,,,,,,,,,,,,,https://acceslibre.beta.gouv.fr/app/27-gravigny/a/agence-immobiliere/erp/314-immobilier-agence-immobiliere-a-gravigny-evreux-et-ses-alentours/
ca73114c-254c-4e3d-b5db-bdea2ad0e756,3.14 Immobilier - Votre nouvelle agence au coeur de la Vallée d'Eure à Fontaine-sous-Jouy,27120,Fontaine-sous-Jouy,1,Rue du Rosey,,27254,,Agence immobilière,,https://314immobilier.fr/,1.291402,49.067138,,True,True,,,,,,,,,,,,,,,,,,,,,,,,,,,,,,,,,,True,,,,,,,,,,,,,,,,,,,,,,,,,,,,,,,,https://acceslibre.beta.gouv.fr/app/27-fontaine-sous-jouy/a/agence-immobiliere/erp/314-immobilier-votre-nouvelle-agence-au-coeur-de-la-vallee-deure-a-fontaine-sous-jouy/
17dcf297-74d0-45ff-9377-e3cf4a422018,3.14 location de salle,22300,Lannion,,Chemin de Keradrivin Bras,,22113,,Salle des fêtes,,,-3.495834,48.746185,,True,True,,,,,,,,,,,,,,,,,,,,,True,,,,,,,,,,,90,,True,,,,,,,,,,,,,,,,,,,,,,,,,,,,,,,,https://acceslibre.beta.gouv.fr/app/22-lannion/a/salle-des-fetes/erp/314-location-de-salle/
015be421-c412-4e5e-9813-0770b68eb74d,31 Bd De Launay,44100,Nantes,31,Boulevard de Launay,,44109,,Hôtel,,,-1.575468,47.211,,True,True,,,,,,,,,,,,,,,,,,,,,True,,,,,,,,,,,80,,True,,,,,,,,,,,,,,,,1,,,,,,,,,,,,,,,,https://acceslibre.beta.gouv.fr/app/44-nantes/a/hotel/erp/31-bd-de-launay/
2877665d-e262-4f52-8e14-d372c6615b0e,31 Silence Street,74800,La Roche-sur-Foron,31,Rue de silence,,74224,,Coiffure,,,6.313219964504243,46.06632308397754,False,False,,True,True,False,,,,,,,,,,,,,,,True,True,True,True,,,,,,,False,,False,True,80,False,True,battante,manuelle,True,,,,False,,True,,,,,,,,,,,,,,,,False,False,,,,,,https://acceslibre.beta.gouv.fr/app/74-la-roche-sur-foron/a/coiffure/erp/31-silence-street/
892cb465-0e6a-466e-8674-c15dd07c306e,3 2 1 Ciseaux,64000,Pau,13,boulevard d'Alsace Lorraine,,64445,,Coiffure,,https://www.planity.com/321-ciseaux-64000-pau,-0.361583,43.302506,,True,True,,,,,,,,,,,,,,,,,,,,,True,,,,,,,,,,,90,,True,,,,,,,,,,,,,,,,,,,,,,,,,,,,,,,,https://acceslibre.beta.gouv.fr/app/64-pau/a/coiffure/erp/3-2-1-ciseaux/
ff46f074-8601-4579-85fc-deab45d2dc41,3 2 1 PARIS IMMOBILIER 3 2 1 INTERNATIONAL,75013,Paris,17,Boulevard Saint-Marcel,,75113,,Agence immobilière,,http://www.321international.com/,2.359601,48.839046,,,,,,,,,,,,,,,,,,,,,,,,True,,,,,,,,,,,90,,True,,,,,,,,,,,,,,,,,,,,,,,,,,,,,,,,https://acceslibre.beta.gouv.fr/app/75-paris/a/agence-immobiliere/erp/3-2-1-paris-immobilier-3-2-1-international/
74dada09-5afc-4d9d-8b89-df64ca3d1535,325 New Rochelle,17000,La Rochelle,4,Rue Léonce Vieljeux,,17300,,Restauration rapide,,https://instagram.com/325newrochelle?igshid=NGVhN2U2NjQ0Yg%3D%3D,-1.15404,46.158121,,,,,,,,,,,,,,,,,,,,,,,,True,,,,,,,,,,,90,,True,,,,,,,,,,,,,,,,,,,,,,,,,False,True,True,,,,,https://acceslibre.beta.gouv.fr/app/17-la-rochelle/a/restauration-rapide/erp/325-new-rochelle/
2399ab79-2ab7-4859-8518-f62da1dcf726,32 le salon,74200,Thonon-les-Bains,8,Square Aristide Briand,,74281,,Coiffure,,https://www.32-lesalon.com/,6.478509,46.371694,,True,True,,,,,,,,,,,,,,,,,,,,,True,,,,,,,,,,,90,,True,,,,,,,,,,,,,,,,,,,,,,,,,,,,,,,,https://acceslibre.beta.gouv.fr/app/74-thonon-les-bains/a/coiffure/erp/32-le-salon-2/
56756744-c9f0-455d-95dd-d12142f9159c,32 le salon,01000,Bourg-en-Bresse,32,rue marechal foch,,01053,,Coiffure,,http://www.32-lesalon.com/,5.228435,46.205455,,True,True,,,,,,,,,,,,,,,,,,,,,True,,,,,,,,,,,90,,True,,,,,,,,,,,,,,,,,,,,,,,,,,,,,,,,https://acceslibre.beta.gouv.fr/app/01-bourg-en-bresse/a/coiffure/erp/32-le-salon/
69a1becd-9169-4632-828d-e07524ceabc6,32 Le Salon,71000,Mâcon,19,Place des Cordeliers,,71270,,Coiffure,,https://www.32-lesalon.com/,4.830392,46.303093,,True,True,,,,,,,,,,,,,,,,,,,,,True,,,,,,,,,,,90,,True,,,,,,,,,,,,,,,,,,,,,,,,,,,,,,,,https://acceslibre.beta.gouv.fr/app/71-macon/a/coiffure/erp/32-le-salon-3/
03fedd01-b176-4421-95b0-e53f34a32e2d,32 parc des sports chez catherve,33230,Saint-Médard-de-Guizières,32,Avenue du Parc des Sports,,33447,,Hôtel,,,-0.054658,45.011972,,True,True,,,,,,,,,,,,,,,,,,,,,True,,,,,,,,,,,80,,True,,,,,,,,,,,,,,,,1,,,,,,,,,,,,,,,,https://acceslibre.beta.gouv.fr/app/33-saint-medard-de-guizieres/a/hotel/erp/32-parc-des-sports-chez-catherve/
49967e63-a4a7-463d-b8b4-30ea51a00b0b,32 Perry Street,29860,Plabennec,32,Rue des 3 Frères Le Roy,,29160,,Coiffure,,https://www.planity.com/32-perry-street-29860-plabennec,-4.427152,48.499584,,True,True,,,,,,,,,,,,,,,,,,,,,True,,,,,,,,,,,90,,True,,,,,,,,,,,,,,,,,,,,,,,,,,True,True,,,,,https://acceslibre.beta.gouv.fr/app/29-plabennec/a/coiffure/erp/32-perry-street/
63c5be81-89f0-475b-9ece-3dc5d421651b,330 occasions,14200,Hérouville-Saint-Clair,558,Rue Léon Foucault,,14327,,Carrosserie,,,-0.346126,49.212194,,True,True,,,,,,,,,,,,,,,,,,,,,True,,,,,,,,,,,90,,True,,,,,,,,,,,,,,,,,,,,,,,,,,,,,,,,https://acceslibre.beta.gouv.fr/app/14-herouville-saint-clair/a/carrosserie/erp/330-occasions/
2ca1331b-3d3f-447c-baaf-ab128df729c1,33 barbershop,38000,Grenoble,33,Boulevard Agutte Sembat,,38185,,Coiffure,,https://www.planity.com/le-33-barber-shop-38000-grenoble,5.728818,45.186197,,True,True,,,,,,,,,,,,,,,,,,,,,True,,,,,,,,,,,90,,True,,,,,,,,,,,,,,,,,,,,,,,,,,,,,,,,https://acceslibre.beta.gouv.fr/app/38-grenoble/a/coiffure/erp/33-barbershop/
636cfed0-21fd-4616-944f-2469a35f27ac,33 Burger Street,91220,Brétigny-sur-Orge,33,Rue du Général Leclerc,,91103,,Restauration rapide,,https://www.burgerstreet91.fr/,2.307808,48.60991,,,,,,,,,,,,,,,,,,,,,,,,True,,,,,,,,,,,90,,True,,,,,,,,,,,,,,,,,,,,,,,,,False,True,True,,,,,https://acceslibre.beta.gouv.fr/app/91-bretigny-sur-orge/a/restauration-rapide/erp/33-burger-street/
137df482-1268-4960-bd89-39e1d606e121,33 CITE,69006,Lyon,33,Quai Charles de Gaulle,,69386,49841826800013,Restaurant,,https://33cite.com,4.852641,45.784087,,True,True,,,,,,,,,,,,,,,,,,,,,True,,,,,,,,,,,90,,,,,,,,,,,True,,,,,,,,,,,,,,,,False,True,True,,,,,https://acceslibre.beta.gouv.fr/app/69-lyon/a/restaurant/erp/33-cite/
da01c5db-9ca2-436a-9d1d-c183f4360653,33ème Avenue - Agence Immobilière Annecy,74940,Annecy,7,Allée Jean Monnet,,74010,,Agence immobilière,,https://www.33-avenue.fr/,6.1445,45.91496,,True,True,,,,,,,,,,,,,,,,,,,,,,,,,,,,,,,,,,True,,,,,,,,,,,,,,,,,,,,,,,,,,,,,,,,https://acceslibre.beta.gouv.fr/app/74-annecy/a/agence-immobiliere/erp/33eme-avenue-agence-immobiliere-annecy/
7bc9288f-b3d3-4314-903b-f2ba7a5d5216,33 Hair coiffeur,33800,Bordeaux,48,Cours de la Marne,,,,Barbier,,,-0.569241,44.830149,True,,,,,False,,,,,,,,,,,,,,,False,True,True,False,False,1,False,False,,montant,False,,False,,,,True,battante,manuelle,True,,,,,,True,,,,,,,,,,,,,,,,False,,,,,,,https://acceslibre.beta.gouv.fr/app/33-bordeaux/a/barbier/erp/33-hair-coiffeur/
b804e7bf-6f94-49d2-8836-c3417ca741d6,33rd Avenue,93460,Gournay-sur-Marne,33,Avenue des Princes,,93033,,Coiffure,,https://www.planity.com/33rd-avenue-93460-gournay-sur-marne,2.582208,48.857205,,True,True,,,,,,,,,,,,,,,,,,,,,,,,,,,,,,,,,,True,,,,,,,,,,,,,,,,,,,,,,,,,,,,,,,,https://acceslibre.beta.gouv.fr/app/93-gournay-sur-marne/a/coiffure/erp/33rd-avenue/
e9843a56-4902-43ee-8961-4cc96ab8d130,34,62400,Béthune,34,Grand Place,,62119,,"Café, bar, brasserie",,,2.640089,50.530672,,False,,True,True,,,,,,,,,,,,,,,,,,,False,,1,,,aucune,montant,,,,,,,,,,,,,,,,,,,,,,,,,,,,,,,,,True,False,,,,,https://acceslibre.beta.gouv.fr/app/62-bethune/a/cafeteria/erp/34/
6733244f-938d-4873-a22b-83a1bdca7dc8,347garage,61000,Alençon,5,Rue 31e Rgt Infant Territoriale,,61001,,Carrosserie,,,0.088657,48.437519,,True,True,,,,,,,,,,,,,,,,,,,,,True,,,,,,,,,,,90,,True,,,,,,,,,,,,,,,,,,,,,,,,,,,,,,,,https://acceslibre.beta.gouv.fr/app/61-alencon/a/carrosserie/erp/347garage/
3e5f83fe-631c-49ce-a498-1e65316e2831,34 Niel,75017,Paris,34,Avenue Niel,,75117,,Coiffure,,,2.295923,48.881563,,,,,,,,,,,,,,,,,,,,,,,,True,,,,,,,,,,,90,,True,,,,,,,,,,,,,,,,,,,,,,,,,,,,,,,,https://acceslibre.beta.gouv.fr/app/75-paris/a/coiffure/erp/34-niel/
43d144c4-e717-47ce-b727-56168592e7fc,3.5.7 IMMO Agence Immobilière,91150,Étampes,12,Place Saint-gilles,,91223,,Agence immobilière,,http://www.357immo.com/,2.154451,48.432219,,,,,,,,,,,,,,,,,,,,,,,,,,,,,,,,,,,,,True,,,,,,,,,True,,,,,,,,,,,,,,,,False,,,,,,,https://acceslibre.beta.gouv.fr/app/91-etampes/a/agence-immobiliere/erp/357-immo-agence-immobiliere/
adbd4793-b7a8-48c0-869a-fa172ce31681,35 Jaude,63000,Clermont-Ferrand,35,place de Jaude,,63113,,Coiffure,,,3.082753,45.775981,,,,,,,,,,,,,,,,,,,,,,,,,,,,,,,,,,,,,True,,,,,,,,,,,,,,,,,,,,,,,,,,,,,,,,https://acceslibre.beta.gouv.fr/app/63-clermont-ferrand/a/coiffure/erp/35-jaude/
679cf92f-b40f-442e-be1a-71dc748731e3,35sportclub Saint-André-les-Vergers 6h/23h,10120,Saint-André-les-Vergers,5,Rue Gustave Eiffel,,10333,,Sports et loisirs,,https://35sportclub.fr/,4.051316,48.271906,,True,True,,,,,,,,,,,,,,,,,,,,,True,,,,,,,,,,,90,,True,,,,,,,,,,,,,,,,,,,,,,,,,,,,,,,,https://acceslibre.beta.gouv.fr/app/10-saint-andre-les-vergers/a/sports-et-loisirs/erp/35sportclub-saint-andre-les-vergers-6h23h/
21467cef-fda2-4d99-a807-dbb5db64b2a9,360 FOOD,69630,Chaponost,29,Rue René Chapard,,69043,,Restaurant,,,4.745424,45.711886,,True,True,,,,,,,,,,,,,,,,,,,,,,,,,,,,,,,,,,,,,,,,,,,True,,,,,,,,,,,,,,,,False,,,,,,,https://acceslibre.beta.gouv.fr/app/69-chaponost/a/restaurant/erp/360-food/
b187a690-9466-4841-b6ab-0ae499d80ea5,360 PROMOTION,86000,Poitiers,28,Rue des Jacobins,,86194,,Photographie,,https://www.360promotion.fr/,0.38257,46.587529,,True,True,,,,,,,,,,,,,,,,,,,,,,,,,,,,,,,,,,True,,,,,,,,,,,,,,,,,,,,,,,,,,,,,,,,https://acceslibre.beta.gouv.fr/app/86-poitiers/a/photographie/erp/360-promotion/
b9096e19-aa1c-4126-ae92-fa9843165eda,360th cup avenue,44000,Nantes,77,Rue Général Buat,,44109,,Coiffure,,https://www.360thcupavenue.com/,-1.541251,47.228387,,,,,,,,,,,,,,,,,,,,,,,,,,,,,,,,,,,,,True,,,,,,,,,,,,,,,,,,,,,,,,,False,,,,,,,https://acceslibre.beta.gouv.fr/app/44-nantes/a/coiffure/erp/360th-cup-avenue/
9d3909f6-d350-4219-868b-d43a7533d84d,3615 Ulysse,36200,Saint-Marcel,,Rue du Docteur Jacques Allain,,36200,,Théâtre,,,1.50749,46.600305,,True,True,,,,,,,,,,,,,,,,,,,,,True,,,,,,,,,,,90,,True,,,,,,,,,,,,,,,,,,,,,,,,,,,,,,,,https://acceslibre.beta.gouv.fr/app/36-saint-marcel/a/theatre/erp/3615-ulysse/
529dbc78-724f-4602-b15b-faf1f98a8244,36 LE COSY,69004,Lyon,36,Rue du Mail,,69384,80174463200010,Restaurant,,https://36lecosy.fr,4.833308,45.779206,,,,,,,,,,,,,,,,,,,,,,,,True,,,,,,,,,,,90,,,,,,,,,,,True,,,,,,,,,,,,,,,,False,,,,,,,https://acceslibre.beta.gouv.fr/app/69-lyon/a/restaurant/erp/36-le-cosy/
d0279842-0c48-46aa-8641-7133f322ad42,36 O'Piz,86140,Lencloître,36,Grand Rue,,86128,,Restaurant,,,0.32799,46.815427,False,False,,True,True,False,,,,,,,,,,,,,,,True,True,True,,,,,,,,False,,False,True,,False,True,battante,manuelle,True,,,,False,,True,,,,,,,,,,,,,,,,False,,,,,,,https://acceslibre.beta.gouv.fr/app/86-lencloitre/a/restaurant/erp/36-opiz/
8fe7c011-83df-42c5-97df-481f69d12373,38 bis Coiffure,35000,Rennes,33,Rue Jules Lallemand,,35238,,Coiffure,,http://www.coiffure-38bis-rennes.fr/,-1.706514,48.100274,,True,True,,,,,,,,,,,,,,,,,,,,,True,,,,,,,,,,,90,,True,,,,,,,,,,,,,,,,,,,,,,,,,,,,,,,,https://acceslibre.beta.gouv.fr/app/35-rennes/a/coiffure/erp/38-bis-coiffure/
1c4995f2-2715-413b-83a6-bd9f98d14e9a,38 Clemenceau,41200,Romorantin-Lanthenay,38,Rue Georges Clemenceau,,41194,,Coiffure,,,1.744436,47.358914,,,,,,,,,,,,,,,,,,,,,,,,True,,,,,,,,,,,90,,True,,,,,,,,,,,,,,,,,,,,,,,,,,,,,,,,https://acceslibre.beta.gouv.fr/app/41-romorantin-lanthenay/a/coiffure/erp/38-clemenceau/
3facb629-a6d4-4544-9445-042edac9e63c,38Eme Avenue,38200,Vienne,29,Cours Brillier,,38544,,Agence immobilière,,,4.872014,45.522073,True,False,,True,True,False,,,,,,,,,,,,,,,True,True,True,True,,,,,,,False,,False,True,88,False,True,battante,manuelle,True,non-formés,,,False,,True,,,,,,,,,,,,,,,,False,False,,,,,,https://acceslibre.beta.gouv.fr/app/38-vienne/a/agence-immobiliere/erp/38eme-avenue/
a959458f-de15-4736-a8fa-c67d6bf73a1d,38 Tea,92160,Antony,2,Rue Jean Moulin,,92002,,Vente de cafés et thés,,https://www.38tea.fr/,2.305369377136231,48.753288690949674,True,False,,True,True,False,,,,,,,,,,,,,,,True,True,True,False,False,1,True,False,aucune,descendant,False,,False,False,80,False,True,battante,manuelle,True,non-formés,,,False,,True,,,,,,,,,,,,,,,,False,False,,,,,,https://acceslibre.beta.gouv.fr/app/92-antony/a/cafe-et-thes/erp/38-tea/
0950ec5d-1d9e-43d3-8417-2e3114cb0036,38 th Avenue,01500,Ambérieu-en-Bugey,38,Avenue Roger Salengro,,01004,,Coiffure,,,5.346215,45.955986,,True,True,,,,,,,,,,,,,,,,,,,,,,,,,,,,,,,,,,True,,,,,,,,,,,,,,,,,,,,,,,,,,,,,,,,https://acceslibre.beta.gouv.fr/app/01-amberieu-en-bugey/a/coiffure/erp/38-th-avenue/
3804c786-6b1f-4f63-b733-dc8251e09cde,39TH Street,59190,Hazebrouck,25,Rue Notre Dame,,59295,,Coiffure,,https://www.planity.com/39th-street-59190-hazebrouck,2.542255,50.727455,,True,True,,,,,,,,,,,,,,,,,,,,,True,,,,,,,,,,,90,,True,,,,,,,,,,,,,,,,,,,,,,,,,False,True,True,,,,,https://acceslibre.beta.gouv.fr/app/59-hazebrouck/a/coiffure/erp/39th-street/
1b6c00cd-f019-4b2d-a9aa-49ca21b03706,3AB Optique Expansion 2,77130,Montereau-Fault-Yonne,,Place Diderot,,77305,,Opticien,,,2.952204,48.397795,,True,True,,,,,,,,,,,,,,,,,,,,,True,,,,,,,,,,,90,,True,,,,,,,,,,,,,,,,,,,,,,,,,,,,,,,,https://acceslibre.beta.gouv.fr/app/77-montereau-fault-yonne/a/optique/erp/3ab-optique-expansion-2/
24881cd1-5148-4167-a9f7-43543fe76693,3Ahydrosud,83190,Ollioules,,Rue Wolfgang Amadeus Mozart,,83090,,"Piscine, centre aquatique",,,5.84733,43.13574,,True,True,,,,,,,,,,,,,,,,,,,,,,,,,,,,,,,,,,True,,,,,,,,,,,,,,,,,,,,,,,,,,,,,,,,https://acceslibre.beta.gouv.fr/app/83-ollioules/a/piscine/erp/3ahydrosud/
9bb23b9b-72bc-4535-85e3-bea1528bbc5c,3A IMMOBILIER BETHUNE,62400,Béthune,111,Rue Saint Pry,,62119,,Agence immobilière,,https://www.3aimmobilier.fr/,2.63755,50.529325,,,,,,,,,,,,,,,,,,,,,,,,True,,,,,,,,,,,90,,True,,,,,,,,,True,,,,,,,,,,,,,,,,False,True,True,,,,,https://acceslibre.beta.gouv.fr/app/62-bethune/a/agence-immobiliere/erp/3a-immobilier-bethune/
3d5a538e-2983-49fe-8217-2fc0349c8011,3A IMMOBILIER CALAIS,62100,Calais,21,Boulevard Pasteur,,62193,,Agence immobilière,,https://www.3aimmobilier.fr/,1.854083,50.94682,,True,True,,,,,,,,,,,,,,,,,,,,,True,,,,,,,,,,,90,,True,,,,,,,,,,,,,,,,,,,,,,,,,,,,,,,,https://acceslibre.beta.gouv.fr/app/62-calais/a/agence-immobiliere/erp/3a-immobilier-calais/
3ae76c58-43d1-4896-a27d-4bf71cd1885f,3A IMMOBILIER DUNKERQUE,59140,Dunkerque,9,Rue des Soeurs Blanches,,59183,,Agence immobilière,,https://www.3aimmobilier.fr/,2.377457,51.036776,,,,,,,,,,,,,,,,,,,,,,,,True,,,,,,,,,,,90,,True,,,,,,,,,,,,,,,,,,,,,,,,,,,,,,,,https://acceslibre.beta.gouv.fr/app/59-dunkerque/a/agence-immobiliere/erp/3a-immobilier-dunkerque/
a90e6a32-1883-441a-b252-a5df14543b64,3A IMMOBILIER SAINT-OMER,62500,Saint-Omer,5,Rue Louis Martel,,62765,,Agence immobilière,,https://www.3aimmobilier.fr/,2.251485,50.749251,,True,True,,,,,,,,,,,,,,,,,,,,,True,,,,,,,,,,,90,,True,,,,,,,,,,,,,,,,,,,,,,,,,,,,,,,,https://acceslibre.beta.gouv.fr/app/62-saint-omer/a/agence-immobiliere/erp/3a-immobilier-saint-omer/
bf100ef3-0e16-4c70-87c7-bc4cc7dddda5,3A IMMOBILIER WISSANT,62179,Wissant,2,Place de la Mairie,,62899,,Agence immobilière,,https://www.3aimmobilier.fr/,1.662397,50.885605,,,,,,,,,,,,,,,,,,,,,,,,,,,,,,,,,,,,,True,,,,,,,,,,,,,,,,,,,,,,,,,False,,,,,,,https://acceslibre.beta.gouv.fr/app/62-wissant/a/agence-immobiliere/erp/3a-immobilier-wissant/
e60102fe-191b-4cd3-9ed5-721d90fb2159,3A Lyon - L'École Internationale du Management Responsable,69009,Lyon,47,Rue Sergent Michel Berthet,,69389,,Collège,,https://www.ecole3a.edu/campus/campus-de-lyon/,4.805832,45.768506,,True,True,,,,,,,,,,,,,,,,,,,,,True,,,,,,,,,,,90,,True,,,,,,,,,,,,,,,,,,,,,,,,,,,,,,,,https://acceslibre.beta.gouv.fr/app/69-lyon/a/college/erp/3a-lyon-lecole-internationale-du-management-responsable/
a9ab4b39-4950-4b40-a269-d736e019ab58,3a Paris - School International Du Management Responsable,92800,Puteaux,20,Jardins Boieldieu,,92062,,Université ou école supérieure,,,2.23781,48.887615,,True,False,,,True,,,,,,,,,,,,,,,,,,True,,,,,,,,,,,,,,,,,,,,,,,,,,,,,,,,,,,,,,,True,True,,,,,https://acceslibre.beta.gouv.fr/app/92-puteaux/a/universite-ou-ecole-superieure/erp/3a-paris-school-international-du-management-responsable/
5e7902bd-8d48-41f5-bdc8-27b8d0ff9bad,3 brasseurs,14120,Mondeville,,Rue Aristide Boucicaut,,,42158324600010,Restaurant,,https://www.3brasseurs.com,-0.30082315206527716,49.16310833769086,True,True,True,True,True,False,,,,,,,,,,,,,,,True,True,True,True,,,,,,,False,,False,True,100,False,True,tambour,manuelle,True,aucun,,,False,,True,,,,,,,,,,,,,,,,False,True,True,,,https://www.3brasseurs.com,,https://acceslibre.beta.gouv.fr/app/14-mondeville/a/restaurant/erp/3-brasseurs/
e2b2c869-9ec1-4170-aa24-fd33805a8c76,3 Brasseurs,44000,Nantes,19,Parvis Neptune,,44109,,"Café, bar, brasserie",,,-1.5524438023567202,47.21432855407878,True,False,,True,True,False,,,,,,,,,,,,,,,True,True,True,True,,,,,,,,,,,90,False,True,battante,manuelle,True,,,,,,True,,,,,,,,,,,,,,,,False,True,,,,,,https://acceslibre.beta.gouv.fr/app/44-nantes/a/cafeteria/erp/3-brasseurs-2/
7cb21e0f-611d-49d1-8fb5-aea7c3f4e20c,3 BRASSEURS,10000,Troyes,54,Place Jean Jaures,,10387,,Restaurant,,,4.06982570886612,48.294429227499506,True,False,,False,,False,,,,,,,,,,,,,,,True,True,True,True,,,,,,,False,,,,90,False,True,battante,manuelle,True,formés,,,,,True,,,,,,,,,,,,,,,,False,True,True,,,,,https://acceslibre.beta.gouv.fr/app/10-troyes/a/restaurant/erp/3-brasseurs-3/
b0b2e8bc-50bc-4340-b1e8-67afa674fa90,3 Brasseurs Blagnac,31700,Blagnac,,Rue Denis Diderot,,31069,,"Café, bar, brasserie",,,1.369633,43.648927,,True,True,,,True,True,True,,,,,,,,,,,,False,,,,True,,,,,,,,,,,,,,,,,,,,,,,,,,,,,,,,,,,,,,,True,True,,,,,https://acceslibre.beta.gouv.fr/app/31-blagnac/a/cafeteria/erp/3-brasseurs-blagnac/
4763d1ef-46df-4a4d-ab05-dcd198239eb5,3 Brasseurs Brest,29200,Brest,2,rue Gaston Plante,,29019,,"Café, bar, brasserie",,,-4.466224,48.427384,,True,True,,,True,True,True,,,,,,,,,,,,False,,,,True,,,,,,,,,,,,,,,,,,,,,,,,,,,,,,,,,,,,,,,True,True,,,,,https://acceslibre.beta.gouv.fr/app/29-brest/a/cafeteria/erp/3-brasseurs-brest/
8830693c-44b0-4479-a683-07b871290e4b,3 Brasseurs Bruay,62700,Bruay-la-Buissière,150,Rue Georges Charpak,,62178,,Restaurant,,http://www.les3brasseursbruay.com/,2.580134,50.495237,,True,True,,,,,,,,,,,,,,,,,,,,,True,,,,,,,,,,,90,,True,,,,,,,,,,,,,,,,,,,,,,,,,False,True,True,,,,,https://acceslibre.beta.gouv.fr/app/62-bruay-la-buissiere/a/restaurant/erp/3-brasseurs-bruay/
1657fdd9-325f-4450-bbc5-c9e67afaf997,3 Brasseurs Compiegne,60880,Jaux,,Avenue Jean Moulin,,60325,,"Café, bar, brasserie",,,2.776697,49.406077,,True,True,,,True,True,True,,,,,,,,,,,,False,,,,True,,,,,,,,,,,,,,,,,,,,,,,,,,,,,,,,,,,,,,,True,True,,,,,https://acceslibre.beta.gouv.fr/app/60-jaux/a/cafeteria/erp/3-brasseurs-compiegne/
62a7e3ae-2a0d-4ab2-922b-e821c410526a,3 Brasseurs Cormeilles en Parisis,95240,Cormeilles-en-Parisis,,,ZAC des Bois Rochefort,95176,,Restaurant,,,2.194397,48.953496,,True,True,,,True,True,True,,,,,,,,,,,,False,,,,True,,,,,,,,,,,,,,,,,,,,,,,,,,,,,,,,,,,,,,,True,True,,,,,https://acceslibre.beta.gouv.fr/app/95-cormeilles-en-parisis/a/restaurant/erp/3-brasseurs-cormeilles-en-parisis/
be00773e-ab36-482b-b7b1-d677cc8ee459,3 Brasseurs Dijon Toison d'Or,21000,Dijon,,Route de Langres,,21231,,Restaurant,,,5.047832,47.368398,,False,,True,True,,,,,,,,,,,,,,,,,,,True,,,,,,,,,,,,,,,,,,,,,,,,,,,,,,,,,,,,,,,True,True,,,,,https://acceslibre.beta.gouv.fr/app/21-dijon/a/restaurant/erp/3-brasseurs-dijon-toison-dor/
8b4132a4-e4ed-4cfd-afbb-0593b10640e7,3 Brasseurs Dunkerque,59140,Dunkerque,,Rue des Fusiliers Marins,,59183,,"Café, bar, brasserie",,,2.34807,51.035163,,True,True,,,True,True,True,,,,,,,,,,,,False,,,,True,,,,,,,,,,,,,,,,,,,,,,,,,,,,,,,,,,,,,,,True,True,,,,,https://acceslibre.beta.gouv.fr/app/59-dunkerque/a/cafeteria/erp/3-brasseurs-dunkerque/
4f3c1744-9705-4015-8e4b-9f9242c953eb,3 Brasseurs Lille,59800,Lille,22,Place de la Gare (Lille),,59350,,"Café, bar, brasserie",,,3.069343,50.636164,,False,,True,True,,,,,,,,,,,,,,,,,,,True,,,,,,,,,,,,,,,,,,,,,,,,,,,,,,,,,,,,,,,True,False,,,,,https://acceslibre.beta.gouv.fr/app/59-lille/a/cafeteria/erp/3-brasseurs-lille/
e97301f0-641a-4dcc-a793-35bd758677e2,3 Brasseurs Lille Solférino - 3B Bar à Bières Gourmand,59800,Lille,150,Rue de Rivoli,,59350,,"Café, bar, brasserie",,,3.092351,50.638797,,False,,True,True,,,,,,,,,,,,,,,,,,,False,,1,,,amovible,montant,True,,,,,,,,,,,,,,,,,,,,,,,,,,,,,,,,True,True,,,,,https://acceslibre.beta.gouv.fr/app/59-lille/a/cafeteria/erp/3-brasseurs-lille-solferino-3b-bar-a-bieres-gourmand/
e478c4e1-9393-414a-9025-f3cab1e34ff3,3 Brasseurs Nîmes,30900,Nîmes,950,Ancienne-Route de Générac,,30189,,Restaurant,,,4.360309,43.818803,,True,True,,,True,True,True,,,,,,,,,,,,False,,,,True,,,,,,,,,,,,,,,,,,,,,,,,,,,,,,,,,,,,,,,True,True,,,,,https://acceslibre.beta.gouv.fr/app/30-nimes/a/restaurant/erp/3-brasseurs-nimes/
b91cce6f-f23c-407a-9cb5-7ff29e83e187,3 Brasseurs Puget-sur-Argens,83480,Puget-sur-Argens,,Chemin de la Tuiliere,,83099,,"Café, bar, brasserie",,,6.69833,43.443818,,,,,,True,True,True,,,,,,,False,,,aucun,True,False,True,True,True,True,,,,,,,False,,False,True,,False,True,battante,manuelle,True,formés,False,,False,,True,,,,,,,,,,,,,,,,False,True,True,,,,,https://acceslibre.beta.gouv.fr/app/83-puget-sur-argens/a/cafeteria/erp/3-brasseurs-puget-sur-argens/
5a208cef-3ed9-4e3a-9161-c24b31a8c9ac,3 Brasseurs Villenave d'Ornon,33140,Villenave-d'Ornon,5,Rue Louis de Funès,,33550,,Restaurant,,,-0.531417,44.789299,,True,True,,,True,True,True,,,,,,,,,,,,False,,,,True,,,,,,,,,,,,,,,,,,,,,,,,,,,,,,,,,,,,,,,True,True,,,,,https://acceslibre.beta.gouv.fr/app/33-villenave-dornon/a/restaurant/erp/3-brasseurs-villenave-dornon/
f9c46ae7-b727-4000-a827-7a231f30489c,3 brothers,31600,Muret,155,Avenue Jacques Douzans,,31395,,Coiffure,,,1.328201,43.467878,,True,True,,,,,,,,,,,,,,,,,,,,,,,,,,,,,,,,,,True,,,,,,,,,,,,,,,,,,,,,,,,,,,,,,,,https://acceslibre.beta.gouv.fr/app/31-muret/a/coiffure/erp/3-brothers/
670bbffc-c2e2-4f0a-b92f-211dbc6fe793,3C Auto Ecole,91120,Palaiseau,84,Rue Louise Bruneau,,91477,,Auto école,,http://www.autoecole3c.com/,2.240399,48.717934,,True,True,,,,,,,,,,,,,,,,,,,,,True,,,,,,,,,,,90,,True,,,,,,,,,,,,,,,,,,,,,,,,,,,,,,,,https://acceslibre.beta.gouv.fr/app/91-palaiseau/a/auto-ecole/erp/3c-auto-ecole/
2dde1afc-08a6-432c-8119-8f0d15170079,3.c Cognon Concept Création,53380,Saint-Hilaire-du-Maine,,chemin de la cueillerie,,53226,,Artisanat,,,-0.95086,48.231897,,True,True,,,True,True,True,,,,,,,,,,,,False,,,,True,,,,,,,,,,,,,,,,,,,,,,,,,,,,,,,,,,,,,,,,,,,,,https://acceslibre.beta.gouv.fr/app/53-saint-hilaire-du-maine/a/artisanat/erp/3c-cognon-concept-creation/
5946330d-90f5-459c-95f5-0251ffddd347,3C Coiffure,54670,Custines,36,Rue du Général Leclerc,,54150,,Coiffure,,,6.143418,48.792113,,,,,,,,,,,,,,,,,,,,,,,,,,,,,,,,,,,,,True,,,,,,,,,,,,,,,,,,,,,,,,,,,,,,,,https://acceslibre.beta.gouv.fr/app/54-custines/a/coiffure/erp/3c-coiffure-2/
f8e68673-184e-4ac5-a190-56724f0f7751,3C COIFFURE,88800,Vittel,2,Place du General de Gaulle,,88516,,Coiffure,,,5.949117,48.200403,,True,True,,,,,,,,,,,,,,,,,,,,,,,,,,,,,,,,,,True,,,,,,,,,,,,,,,,,,,,,,,,,,,,,,,,https://acceslibre.beta.gouv.fr/app/88-vittel/a/coiffure/erp/3c-coiffure/
dbf8bf0d-f955-4626-b376-0e7b7b1534cb,3CFAQ,75013,Paris,9,Rue Ponscarme,,,,"Emploi, formation",https://www.3cfaq.com/nous-contacter-2/,https://www.3cfaq.com,2.367843,48.826534,True,False,,True,,False,,,,,,,,,,,,,,,True,True,True,,,,,,,,,,,,,,True,battante,manuelle,,formés,,,,,True,,,,,,,,,,,,,,,,False,True,,,,,,https://acceslibre.beta.gouv.fr/app/75-paris/a/emploi-formation/erp/3cfaq/
9ccec94e-24f8-4841-99dc-27d72a6171ee,3 chocolats,36200,Argenton-sur-Creuse,7,Rue Auclert Descottes,,36006,,Chocolatier,,https://3chocolats.com/,1.519861,46.588319,,True,True,,,,,,,,,,,,,,,,,,,,,,,,,,,,,,,,,,True,,,,,,,,,,,,,,,,,,,,,,,,,,,,,,,,https://acceslibre.beta.gouv.fr/app/36-argenton-sur-creuse/a/chocolatier/erp/3-chocolats/
5abf7e12-2fe2-41d6-a21f-434063d5cea6,3C immobilier,11000,Carcassonne,67,Rue de Verdun,,,,Agence immobilière,,,2.349945,43.212594,False,False,,False,,False,,,,,,,,,,,,,,,True,True,True,False,False,1,False,False,,montant,False,,False,True,,False,True,battante,manuelle,True,,False,,False,,False,False,,True,,aucune,montant,,,,,,,,,,False,,,,,,,https://acceslibre.beta.gouv.fr/app/11-carcassonne/a/agence-immobiliere/erp/3c-immobilier/
9128778c-4ca2-47c0-9ce5-ec2e737e1477,3 Cinés Robespierre,94400,Vitry-sur-Seine,19,Avenue Maximilien de Robespierre,,94081,,Cinéma,,http://3cines.vitry94.fr/,2.3881557583808903,48.79091648778618,True,True,True,True,True,,,,,,,,,,,,,,,,False,True,False,False,,1,True,False,aucune,montant,,,,False,,,True,battante,,,non-formés,,,,,False,True,6,,False,aucune,descendant,,,,,,,,,,True,,,,,,,https://acceslibre.beta.gouv.fr/app/94-vitry-sur-seine/a/cinema/erp/3-cines-robespierre/
ce161027-a57d-4e01-a600-70c83470efd6,3 cles immo,10600,Barberey-Saint-Sulpice,,Rue des Valères,,10030,,Agence immobilière,,,4.023171,48.33682,,True,True,,,,,,,,,,,,,,,,,,,,,,,,,,,,,,,,,,True,,,,,,,,,,,,,,,,,,,,,,,,,,,,,,,,https://acceslibre.beta.gouv.fr/app/10-barberey-saint-sulpice/a/agence-immobiliere/erp/3-cles-immo/
62a16406-69cb-4795-96ce-a0fd06e60e38,3 Cn,56800,Ploërmel,10,Rue des Patarins,,56165,,Boulangerie Pâtisserie,,,-2.397291,47.93111,,True,True,,,,,,,,,,,,,,,,,,,,,True,,,,,,,,,,,90,,True,,,,,,,,,,,,,,,,,,,,,,,,,,,,,,,,https://acceslibre.beta.gouv.fr/app/56-ploermel/a/boulangerie-patisserie/erp/3-cn/
41c33128-76ff-4737-afa7-745e5c3b48db,3CODES,17290,Aigrefeuille-d'Aunis,2,Place de la République,,17003,,Coworking,,https://www.3codes.io/,-0.93434,46.116116,,True,True,,,,,,,,,,,,,,,,,,,,,,,,,,,,,,,,,,True,,,,,,,,,,,,,,,,,,,,,,,,,,,,,,,,https://acceslibre.beta.gouv.fr/app/17-aigrefeuille-daunis/a/coworking/erp/3codes/
46fbdeab-f36a-4a4f-8785-bd276102cde1,3 COIFFEURS SALON DE COIFFURE,92000,Nanterre,3,Rue Henri Barbusse,,92050,,Coiffure,,https://twitter.com/3Nanterre,2.196654,48.890033,,,,,,,,,,,,,,,,,,,,,,,,True,,,,,,,,,,,90,,True,,,,,,,,,,,,,,,,,,,,,,,,,,True,True,,,,,https://acceslibre.beta.gouv.fr/app/92-nanterre/a/coiffure/erp/3-coiffeurs-salon-de-coiffure/
7efcacb0-e172-49cc-b563-ed316fbae825,3%.COM Agence Immobilière du Centre-Alsace - Honoraires réduits : 3%*,68660,Lièpvre,33,Rue de Saint - Sylvestre sur Lot,,68185,,Agence immobilière,,https://www.troispourcent.com/christophe-pantzer,7.288463,48.276225,,True,True,,,True,True,True,,,,,,,,,,,,False,,,,True,,,,,,,,,,,,,True,,,,,,,,,,,,,,,,,,,,,,,,,,True,True,,,,,https://acceslibre.beta.gouv.fr/app/68-liepvre/a/agence-immobiliere/erp/3com-agence-immobiliere-du-centre-alsace-honoraires-reduits-3/
6b54cbf9-52e1-4482-899e-507e1be31976,"3%.COM Agence Immobilière du Centre-Alsace - Votre Agence Immobilière..., moins cher !!!",67600,Sélestat,1,Allee Georges Charpack,,67462,,Agence immobilière,,https://www.troispourcent.com/christophe-pantzer,7.432498,48.254695,,True,True,,,,,,,,,,,,,,,,,,,,,,,,,,,,,,,,,,True,,,,,,,,,,,,,,,,,,,,,,,,,False,True,True,,,,,https://acceslibre.beta.gouv.fr/app/67-selestat/a/agence-immobiliere/erp/3com-agence-immobiliere-du-centre-alsace-votre-agence-immobiliere-moins-cher/
9bd7e204-1b12-41fd-ac52-8c338d312c6c,"3%.COM Agence Immobilière du Centre-Alsace - Votre Agence Immobilière..., moins cher !!!",67600,Sélestat,,Allée Georges Charpak,,67462,,Agence immobilière,,https://www.troispourcent.com/mandataire/agence-immobiliere-du-centre-alsace/1,7.431576,48.253954,,True,True,,,,,,,,,,,,,,,,,,,,,,,,,,,,,,,,,,True,,,,,,,,,,,,,,,,,,,,,,,,,False,True,True,,,,,https://acceslibre.beta.gouv.fr/app/67-selestat/a/agence-immobiliere/erp/3com-agence-immobiliere-du-centre-alsace-votre-agence-immobiliere-moins-cher-2/
8e996226-cd1b-44c1-ab1d-e1b6e8f3b9f9,3%.COM IMMOBILIER,44500,La Baule-Escoublac,200,Avenue du Maréchal de Lattre de tassigny,,44055,,Agence immobilière,,https://www.troispourcent.com/,-2.394642,47.286073,True,False,,True,True,False,,,,,,,,,,,,,,,True,,,True,,,,,,,,,,,90,False,True,battante,manuelle,True,,,,,,True,,,,,,,,,,,,,,,,False,False,,,,,,https://acceslibre.beta.gouv.fr/app/44-la-baule-escoublac/a/agence-immobiliere/erp/3com-immobilier/
90314d3a-f67a-4835-b7c1-ba3ebcafea33,3%.COM Immobilier Cédric AUDEGOND,80420,Flixecourt,21b,Rue Courbet,,80318,,Agence immobilière,,https://www.troispourcent.com/mandataire/cedric-audegond/1,2.072609,50.023664,,True,True,,,,,,,,,,,,,,,,,,,,,,,,,,,,,,,,,,True,,,,,,,,,,,,,,,,,,,,,,,,,,,,,,,,https://acceslibre.beta.gouv.fr/app/80-flixecourt/a/agence-immobiliere/erp/3com-immobilier-cedric-audegond/
e7e3591f-2f73-43f9-9a57-870ab95082f9,3%.Com Immobilier - Julie et Romain BRIFFAUT,56870,Baden,38,Rue de Lann Vihan,,56008,,Agence immobilière,,http://www.troispourcent.com/,-2.921247,47.615826,,True,True,,,,,,,,,,,,,,,,,,,,,,,,,,,,,,,,,,True,,,,,,,,,,,,,,,,,,,,,,,,,,,,,,,,https://acceslibre.beta.gouv.fr/app/56-baden/a/agence-immobiliere/erp/3com-immobilier-julie-et-romain-briffaut/
6700c6ae-a184-48fb-bb07-c183d3b48d32,3%.COM Immobilier Lorraine,54360,Damelevières,8,Rue de la Gare,,54152,,Agence immobilière,,https://www.troispourcent.com/,6.39076,48.563127,,True,True,,,,,,,,,,,,,,,,,,,,,,,,,,,,,,,,,,True,,,,,,,,,,,,,,,,,,,,,,,,,,,,,,,,https://acceslibre.beta.gouv.fr/app/54-damelevieres/a/agence-immobiliere/erp/3com-immobilier-lorraine/
a725d532-dd04-4904-9cb4-ec201c7d0b24,3%.COM Immobilier - Thierry MELIGNON,57230,Éguelshardt,17,Rue des Châlets,,57188,,Agence immobilière,,https://www.troispourcent.com/thierry-melignon,7.508807,49.022666,,True,True,,,,,,,,,,,,,,,,,,,,,,,,,,,,,,,,,,True,,,,,,,,,,,,,,,,,,,,,,,,,,,,,,,,https://acceslibre.beta.gouv.fr/app/57-eguelshardt/a/agence-immobiliere/erp/3com-immobilier-thierry-melignon/
f98bc0a7-b4ba-4564-9643-099731bac7a6,3%.COM ROTH immobilier,67370,Berstett,1,Chemin Mittelbuhl,,67034,,Agence immobilière,,https://www.troispourcent.com/sandrine-roth,7.602894,48.695826,,True,True,,,,,,,,,,,,,,,,,,,,,,,,,,,,,,,,,,True,,,,,,,,,,,,,,,,,,,,,,,,,,,,,,,,https://acceslibre.beta.gouv.fr/app/67-berstett/a/agence-immobiliere/erp/3com-roth-immobilier/
28204cd1-0dc5-496d-a46c-7ccb3326bc53,3%.COM ROTH IMMOBILIER,67270,Hochfelden,1,Place de la Liberation,,67202,,Agence immobilière,,http://www.troispourcent.com/,7.571324,48.757369,,True,True,,,,,,,,,,,,,,,,,,,,,,,,,,,,,,,,,,True,,,,,,,,,,,,,,,,,,,,,,,,,,,,,,,,https://acceslibre.beta.gouv.fr/app/67-hochfelden/a/agence-immobiliere/erp/3com-roth-immobilier-2/
484acc6f-ad11-44da-a56d-e72941f3f150,3C Théâtre,17700,Saint-Georges-du-Bois,,Rue de l'Ecole,,17338,,Salle de spectacle,,,-0.745404,46.159418,,True,True,,,True,True,True,,,,,,,,,,,,False,,,,False,,3,,,fixe,montant,,,,,,,,,,,,,,,,,,,,,,,,,,,,,,,,,True,True,,,,,https://acceslibre.beta.gouv.fr/app/17-saint-georges-du-bois/a/salle-de-spectacle/erp/3c-theatre/
4ae556fa-5998-4b02-a758-0573d4526855,3C Théâtre,17700,Saint-Pierre-d'Amilly,,Rue de l’Ecole,,17382,,Théâtre,,http://3c-theatre.com/,-0.688178,46.16688,,True,True,,,,,,,,,,,,,,,,,,,,,True,,,,,,,,,,,90,,True,,,,,,,,,,,,,,,,,,,,,,,,,,,,,,,,https://acceslibre.beta.gouv.fr/app/17-saint-pierre-damilly/a/theatre/erp/3c-theatre-2/
9ee83995-a218-4038-a32d-8738fff9b891,3 Cycles,10300,Sainte-Savine,141,Avenue du General Gallieni,,10362,,Cycle vente et entretien,,,4.045911,48.292708,,False,,True,,False,,,,,,,,,,,,,,,True,True,True,True,,,,,,,False,,False,False,85,False,True,battante,manuelle,True,,,,False,,True,,,,,,,,,,,,,,,,False,False,,,,,,https://acceslibre.beta.gouv.fr/app/10-sainte-savine/a/cycle-vente-et-entretien/erp/3-cycles/
d7444579-b274-4783-b0a9-a7bcb398715e,3D Advance,54710,Ludres,140,Rue Edouard Michelin,,54328,,Commerce,,,6.198938,48.617424,,True,True,,,True,True,True,,,,,,,,,,,,False,,,,True,,,,,,,,,,,,,,,,,,,,,,,,,,,,,,,,,,,,,,,True,True,,,,,https://acceslibre.beta.gouv.fr/app/54-ludres/a/commerce/erp/3d-advance/
3a8447a7-c658-4856-a994-7de12114ade1,3DCREATION.fr,69120,Vaulx-en-Velin,13,Avenue Bataillon Carmagnole Liberté,,69256,,Photographie,,http://www.3dcreation.fr/,4.925747,45.758873,,True,True,,,,,,,,,,,,,,,,,,,,,True,,,,,,,,,,,90,,True,,,,,,,,,,,,,,,,,,,,,,,,,,,,,,,,https://acceslibre.beta.gouv.fr/app/69-vaulx-en-velin/a/photographie/erp/3dcreationfr/
c6015871-bdd6-4765-b478-5fcce05912dc,3D Deco,10600,Barberey-Saint-Sulpice,35,Rue de la Gare,,10030,,Décoration Design,,,4.025290879435489,48.334638038986846,False,True,True,True,True,True,True,True,,,,,,,False,,,léger,False,False,True,True,True,True,,,,,,,False,,False,False,85,False,True,battante,manuelle,True,,,,False,,True,,,,,,,,,,,,,,,,False,False,,,,,,https://acceslibre.beta.gouv.fr/app/10-barberey-saint-sulpice/a/decoration-design/erp/3d-deco/
be5800b3-2db1-4a6a-823e-751a1bbf99fb,3DESIGN | Logiciel CAO 100% dédié aux bijoutiers,69140,Rillieux-la-Pape,466,Rue des Mercières,,69286,,Bijouterie joaillerie,,http://www.3design.com/,4.880316,45.816632,,True,True,,,,,,,,,,,,,,,,,,,,,,,,,,,,,,,,,,True,,,,,,,,,,,,,,,,,,,,,,,,,,,,,,,,https://acceslibre.beta.gouv.fr/app/69-rillieux-la-pape/a/bijouterie-joaillerie/erp/3design-logiciel-cao-100-dedie-aux-bijoutiers/
8682326b-7bc1-4fde-a545-fd9432737876,3D Immobilier,39140,Villevieux,99,Impasse du Vieux Moulin,,39574,,Agence immobilière,,https://3dimmopro.ch/,5.46699,46.73248,,True,True,,,,,,,,,,,,,,,,,,,,,,,,,,,,,,,,,,True,,,,,,,,,,,,,,,,,,,,,,,,,,,,,,,,https://acceslibre.beta.gouv.fr/app/39-villevieux/a/agence-immobiliere/erp/3d-immobilier/
82343e84-6c76-4977-98d3-7675fcdfd014,3 Ducks Boutique Hostel,75015,Paris,6,Place Etienne Pernet,,75115,,"Café, bar, brasserie",,,2.292495,48.843511,,False,,True,True,,,,,,,,,,,,,,,,,,,True,,,,,,,,,,,,,,,,,,,,,,,,,,,,,,,,,,,,,,,True,True,,,,,https://acceslibre.beta.gouv.fr/app/75-paris/a/cafeteria/erp/3-ducks-boutique-hostel/
8607cfcd-abc9-41ea-af3b-2547a8c5eb48,3D VISION OPTICIEN,92600,Asnières-sur-Seine,44,Rue Galliéni,,92004,,Opticien,,https://www.opticien-3dvision.fr/,2.286548,48.909456,,,,,,,,,,,,,,,,,,,,,,,,True,,,,,,,,,,,90,,True,,,,,,,,,,,,,,,,,,,,,,,,,,,,,,,,https://acceslibre.beta.gouv.fr/app/92-asnieres-sur-seine/a/optique/erp/3d-vision-opticien/
a50ff7ce-76cd-48c1-8f9c-5a970a14d553,3 en 1 Coiffure mixte,92150,Suresnes,2,Esplanade Jacques Chirac,,92073,,Coiffure,,,2.226723,48.868857,,,,,,,,,,,,,,,,,,,,,,,,True,,,,,,,,,,,90,,True,,,,,,,,,,,,,,,,,,,,,,,,,,,,,,,,https://acceslibre.beta.gouv.fr/app/92-suresnes/a/coiffure/erp/3-en-1-coiffure-mixte/
924d0f67-a26e-43e2-a6e9-60bc1ece190f,3 et Plus,89100,Sens,10,Place des Héros,,89387,,Agence de travail temporaire,,,3.290622,48.197875,,False,,False,,False,,,,,,,,,,,,,,,True,True,True,True,,,,,,,,,,,80,False,True,battante,manuelle,True,,,,,,True,,,,,,,,,,,,,,,,False,,,,,,,https://acceslibre.beta.gouv.fr/app/89-sens/a/agence-de-travail-temporaire/erp/3-et-plus/
ac2b1be1-fa66-40ec-8e3e-6334bcba3f51,3evie,33800,Bordeaux,42,Rue de Tauzia,,33063,,Ehpad,,http://www.3evie.com/,-0.558258,44.829023,,,,,,,,,,,,,,,,,,,,,,,,True,,,,,,,,,,,90,,True,,,,,,,,,,,,,,,,,,,,,,,,,,,,,,,,https://acceslibre.beta.gouv.fr/app/33-bordeaux/a/ehpad/erp/3evie/
efde8ad9-7967-4a1e-8961-4e8cc5481761,3 F IMMOBILIERE ATLANTIC AMENAGEMENT  - BORDEAUX,33000,Bordeaux,9,Rue de Condé,,33063,,Agence immobilière,,,-0.573344,44.843604,,,,,,,,,,,,,,,,,,,,,,,,,,,,,,,,,,,,,True,,,,,,,True,"[""lsf"", ""lpc"", ""sts""]",,,,,,,,,,,,,,,,,False,True,True,,,,,https://acceslibre.beta.gouv.fr/app/33-bordeaux/a/agence-immobiliere/erp/3-f-immobiliere-atlantic-amenagement-bordeaux-3/
5e230d2c-6524-401d-b364-5767d2b073a8,3fleursphotos,57230,Baerenthal,6,Rue du Vallon,,57046,,Photographie,,https://www.3fleursphotos.com/,7.518238,48.973117,,True,True,,,,,,,,,,,,,,,,,,,,,,,,,,,,,,,,,,True,,,,,,,,,,,,,,,,,,,,,,,,,,,,,,,,https://acceslibre.beta.gouv.fr/app/57-baerenthal/a/photographie/erp/3fleursphotos/
7b66aa1d-adf8-40a3-9ba9-1f7310dda7e9,3F Résidences,75013,Paris,34,Rue du Château des Rentiers,,75113,,Agence immobilière,,https://www.groupe3f.fr/3f-residences,2.370188,48.824653,,,,,,,,,,,,,,,,,,,,,,,,True,,,,,,,,,,,90,,True,,,,,,,,,,,,,,,,,,,,,,,,,,,,,,,,https://acceslibre.beta.gouv.fr/app/75-paris/a/agence-immobiliere/erp/3f-residences/
5a9a2ced-7a01-40ff-ab18-f7f38a265262,3F Seine-et-Marne,77700,Serris,32,Cours du Danube,,77449,,Agence immobilière,,https://www.groupe3f.fr/3f/nos-societes/3f-seine-et-marne,2.783128,48.85636,,True,True,,,,,,,,,,,,,,,,,,,,,True,,,,,,,,,,,90,,True,,,,,,,,,,,,,,,,,,,,,,,,,,,,,,,,https://acceslibre.beta.gouv.fr/app/77-serris/a/agence-immobiliere/erp/3f-seine-et-marne/
aa65fb4e-f368-4c04-9e65-15df4dae60ea,3G IMMO,74000,Annecy,4bis,Avenue d' Aléry,,74010,,Agence immobilière,,https://www.3gimmobilier.com/,6.119947,45.900301,,True,True,,,,,,,,,,,,,,,,,,,,,True,,,,,,,,,,,90,,True,,,,,,,,,,,,,,,,,,,,,,,,,,,,,,,,https://acceslibre.beta.gouv.fr/app/74-annecy/a/agence-immobiliere/erp/3g-immo/
4eeba2aa-aee2-42e7-929c-4b9d8f38f0a9,3G IMMO-CONSULTANT - Anthony MOUROUX,01250,Ceyzériat,,Le Village,,01072,,Agence immobilière,,https://www.3gimmobilier.com/mouroux,5.324649,46.178304,,True,True,,,,,,,,,,,,,,,,,,,,,True,,,,,,,,,,,90,,True,,,,,,,,,,,,,,,,,,,,,,,,,,,,,,,,https://acceslibre.beta.gouv.fr/app/01-ceyzeriat/a/agence-immobiliere/erp/3g-immo-consultant-anthony-mouroux/
7fbf1cfc-754a-480e-a0d8-694165c7b7d5,3G Immo - Jérôme Thevenet,33420,Branne,11bis,Rue de Lillot,,33071,,Agence immobilière,,https://www.3gimmobilier.com/thevenet,-0.184745,44.830612,,True,True,,,,,,,,,,,,,,,,,,,,,,,,,,,,,,,,,,True,,,,,,,,,,,,,,,,,,,,,,,,,,,,,,,,https://acceslibre.beta.gouv.fr/app/33-branne/a/agence-immobiliere/erp/3g-immo-jerome-thevenet/
a6ecdbc0-ecd9-4125-a5e8-805cd601c6c2,3G IMMO -Véronique DAYRAUT - Agent Immobilier Agen,47000,Agen,10,Rue de Bézis,,47001,,Agence immobilière,,https://www.3gimmobilier.com/vdayraut,0.635742,44.211621,,True,True,,,,,,,,,,,,,,,,,,,,,,,,,,,,,,,,,,True,,,,,,,,,,,,,,,,,,,,,,,,,,,,,,,,https://acceslibre.beta.gouv.fr/app/47-agen/a/agence-immobiliere/erp/3g-immo-veronique-dayraut-agent-immobilier-agen/
31663de3-0f18-4194-aa80-b0123025eb60,3G PROMOPRIX,69008,Lyon,81,Avenue Paul Santy,,69388,52155320600017,Supérette,,,4.876166,45.729974,,,,,,,,,,,,,,,,,,,,,,,,True,,,,,,,,,,,90,,,,,,,,,,,,,,,,,,,,,,,,,,,,,,,,,,https://acceslibre.beta.gouv.fr/app/69-lyon/a/superette/erp/3g-promoprix/
002aae72-30af-4a19-830d-1911128676a2,3H Paris Marais Hotel,75003,Paris,3,Rue Bailly,,75103,,Hôtel,,,2.356558,48.865101,,,,,,,,,,,,,,,,,,,,,,,,,,,,,,,,,,,,,True,,,,,,,,,,,,,,,,1,,,,,,,,,,,,,,,,https://acceslibre.beta.gouv.fr/app/75-paris/a/hotel/erp/3h-paris-marais-hotel/
28676bb6-55ac-45e3-a6fd-9eae8068383c,3i DRONES,64000,Pau,11,avenue Bié Moulié,,64445,,Photographie,,https://www.3idrones.com/contact/,-0.345091,43.300167,,True,True,,,,,,,,,,,,,,,,,,,,,,,,,,,,,,,,,,True,,,,,,,,,,,,,,,,,,,,,,,,,,,,,,,,https://acceslibre.beta.gouv.fr/app/64-pau/a/photographie/erp/3i-drones/
13565b00-5e81-4023-8ef8-c3974c0cbad9,3iS Paris,78990,Élancourt,4,Rue Blaise Pascal,,78208,,Collège,,https://www.3is-education.fr/,1.97863,48.793649,,True,True,,,,,,,,,,,,,,,,,,,,,True,,,,,,,,,,,90,,True,,,,,,,,,,,,,,,,,,,,,,,,,,,,,,,,https://acceslibre.beta.gouv.fr/app/78-elancourt/a/college/erp/3is-paris/
3628ba98-db18-41e0-a1e2-82d82ad6a52b,3IT,31000,Toulouse,2,Boulevard Lazare Carnot,,31555,,Agence immobilière,,https://www.3i-toulouse.com/,1.45232,43.60069,True,False,,True,True,False,,,,,,,,,,,,,,,True,True,True,False,False,0,False,False,aucune,,False,,False,True,80,False,True,battante,manuelle,True,,False,,False,,True,,,,,,,,,,,,,,,,False,False,,,,,,https://acceslibre.beta.gouv.fr/app/31-toulouse/a/agence-immobiliere/erp/3it/
30fd0a38-fd15-42a1-8340-39bc1fcb0d9a,3 jours,07000,Privas,,Place du Foiral,,07186,,Restaurant,,,4.594869,44.734114,,True,True,,,,,,,,,,,,,,,,,,,,,True,,,,,,,,,,,90,,True,,,,,,,,,,,,,,,,,,,,,,,,,,,,,,,,https://acceslibre.beta.gouv.fr/app/07-privas/a/restaurant/erp/3-jours/
0c47766f-e80f-4cc1-b6dc-0351da1b75a4,3 Maisons Kebab - Restaurant turc,54000,Nancy,34,Rue du Faubourg des Trois-Maisons,,54395,,Restauration rapide,,http://www.3maisonskebab.fr/,6.176318,48.70177,,,,,,,,,,,,,,,,,,,,,,,,True,,,,,,,,,,,90,,True,,,,,,,,,,,,,,,,,,,,,,,,,False,True,True,,,,,https://acceslibre.beta.gouv.fr/app/54-nancy/a/restauration-rapide/erp/3-maisons-kebab-restaurant-turc/
26b4a87d-17ce-46e1-9e47-2b351c60d73f,3 Marchands TRAITEUR et BOUTIQUE Traiteur - Epicerie Fine,41190,Herbault,34,Place de l’Hôtel de Ville,,41101,,Boucherie / commerce de viande,,https://www.3marchandstraiteur.fr/,1.140655,47.60457,,True,True,,,,,,,,,,,,,,,,,,,,,True,,,,,,,,,,,90,,True,,,,,,,,,,,,,,,,,,,,,,,,,,,,,,,,https://acceslibre.beta.gouv.fr/app/41-herbault/a/boucherie/erp/3-marchands-traiteur-et-boutique-traiteur-epicerie-fine/
ba9e63ed-2787-4c1b-b01f-0b137084088e,3 Moulins,44400,Rezé,92,Rue Aristide Briand,,,,Pharmacie,,,-1.544577,47.178738,True,False,True,True,,False,,,,,,,,,,,,,,,False,True,True,True,,,,,,,False,,False,False,120,,True,coulissante,automatique,True,non-formés,,,,,False,False,0,,,,,,,,,,,,,,False,False,,,,,,https://acceslibre.beta.gouv.fr/app/44-reze/a/pharmacie/erp/3-moulins/
c6a11d5e-4200-402c-b2a7-f6c897c486fb,3Myl'Style Coiffeuse à domicile,77400,Lagny-sur-Marne,30,Rue du Pont Hardy,,77243,,Coiffure,,,2.692356,48.876746,,True,True,,,,,,,,,,,,,,,,,,,,,,,,,,,,,,,,,,True,,,,,,,,,,,,,,,,,,,,,,,,,,,,,,,,https://acceslibre.beta.gouv.fr/app/77-lagny-sur-marne/a/coiffure/erp/3mylstyle-coiffeuse-a-domicile/
86ed66d9-ff8a-42d4-b65a-0598b0bf6b01,3 Ors,28000,Chartres,3,Rue de la Tonnellerie,,28085,,Bijouterie joaillerie,,,1.487428,48.444202,,True,True,,,,,,,,,,,,,,,,,,,,,True,,,,,,,,,,,90,,True,,,,,,,True,"[""lsf"", ""lpc"", ""sts""]",,,,,,,,,,,,,,,,,,,,,,,,https://acceslibre.beta.gouv.fr/app/28-chartres/a/bijouterie-joaillerie/erp/3-ors-3/
07f8b3c9-5865-46d7-a6a8-795975f52e00,3 pas sur le côté,71870,Hurigny,31,Rue du Bourg,,71235,,Coworking,,http://www.3passurlecote.fr/,4.796679,46.347028,,True,True,,,,,,,,,,,,,,,,,,,,,True,,,,,,,,,,,90,,True,,,,,,,,,,,,,,,,,,,,,,,,,,,,,,,,https://acceslibre.beta.gouv.fr/app/71-hurigny/a/coworking/erp/3-pas-sur-le-cote/
2a9e19a4-9965-4001-8005-f79827724c05,3 Petits Cochons,63300,Thiers,7,Rue François Truffaut,,63430,,Commerce,,,3.509363,45.840359,,True,True,,,True,True,True,,,,,,,,,,,,False,,,,,,,,,,,,,,,,,,,,,,,,,,,,,,,,,,,,,,,,,,,False,,,,,,https://acceslibre.beta.gouv.fr/app/63-thiers/a/commerce/erp/3-petits-cochons/
abdf9585-550f-4542-8e20-23f218ec8229,3 & plus,10000,Troyes,22,Place Jean Jaures,,10387,,Agence de travail temporaire,,,4.070791,48.294913,,False,,True,,False,,,,,,,,,,,,,,,,True,True,True,,,,,,,False,,False,False,85,False,True,battante,manuelle,True,,,,False,,True,,,,,,,,,,,,,,,,False,False,,,,,,https://acceslibre.beta.gouv.fr/app/10-troyes/a/agence-de-travail-temporaire/erp/3-plus/